std_account_name,class_of_trade,on_off_premise,address,city,state,zip_code,id
Total,Total,Total,Total,Total,Total,Total,943a46ba-798c-40ce-8aa7-922606e49bb5
MADAME USHI,RESTAURANT,ON,415 EAST HYMAN AVENUE,ASPEN,CO,81611,08221f35-d1e0-47bc-a78e-2b9f67cc04c2
KYU,RESTAURANT,ON,324 LAFAYETTE ST,NEW YORK,NY,10012,be559d1f-72f2-4258-b374-0f9170a3afd1
KYU,RESTAURANT,ON,251 NW 25 STREET,MIAMI,FL,33127,d81516dd-76e5-41b8-98b1-a15950a8a580
ZUMA LAS VEGAS,RESTAURANT,ON,3708 S LAS VEGAS BLVD,LAS VEGAS,NV,89109,b4b8d660-be01-4ae1-b9ff-44df05b1271a
SUNSET HARBOR RESTAURANT LLC,RESTAURANT,ON,313 3 MILE HARBOR HOG CREEK RD,EAST HAMPTON,NY,11937,cf15f23f-6ca3-4292-99d2-853f1e4709e9
LOLA 41 PALM BEACH,RESTAURANT,ON,290 SUNSET AVENUE,PALM BEACH,FL,33480,4435b59d-7abb-45ec-8b3f-df93bdf03050
ZUMA JAPANESE RESTAURANT,RESTAURANT,ON,270 BISCAYNE BLVD WAY,MIAMI,FL,33131,cd8df4ae-8818-41c5-9c45-cb9ab1f54d8b
LOBSTER CLUB  THE,RESTAURANT,ON,375 PARK AVE,NEW YORK,NY,10022,f1c78437-12fc-433c-85e6-ccdd86e11d06
POOL & GRILL,RESTAURANT,ON,99 E 52ND ST,NEW YORK,NY,10152,3541def3-69f7-4387-a82b-41c6a27f7fd5
STANDARD MIAMI (THE),RESTAURANT,ON,40 ISLAND AVENUE,MIAMI BEACH,FL,33139,976e3561-24f2-4898-83e7-eb6a0b8f1133
AQUA,RESTAURANT,ON,902 BROADWAY,NEW YORK,NY,10010,a454895b-8bba-4717-9705-726a6342c8be
TAO UPTOWN,RESTAURANT,ON,42 44 EAST 58TH STREET,NEW YORK,NY,10022,e0eeb3b2-d2c8-4ba1-aa75-e119b034ca4e
MIA MARKET,RESTAURANT,ON,140 NE 39 ST,MIAMI,FL,33137,0cbf1098-478f-4e85-8017-81a3846dc54e
Wagyu House,RESTAURANT,ON,1042 Northside Dr STE 1300,Atlanta,GA,30318,5d6cee85-9462-42ff-b6cb-3825137f2cdd
TAO ASIAN BISTRO@VENETIAN,RESTAURANT,ON,3355 LAS VEGAS BLVD SO,LAS VEGAS,NV,89109,51a5fc4a-bd36-44ac-a3fd-f914645964d1
SUSHI SAKE,RESTAURANT,ON,2150 N COLLINS BOULEVARD,RICHARDSON,TX,75080,217a1233-dc5a-4b81-a8be-fbd475d6ae1c
CHOTTO MATTE,RESTAURANT,ON,100 STOCKTON ST 8TH FLOOR,SAN FRANCISCO,CA,94108,212ec18e-a129-4cf6-9ed6-5738a8e87659
SEXY FISH,RESTAURANT,ON,1001 S MIAMI AVE,MIAMI,FL,33130,5ea87cea-5c29-4dd8-b030-d6b7e0b100b1
PABU,RESTAURANT,ON,101 CALIFORNIA ST,SAN FRANCISCO,CA,94111,de65a4e9-e126-47d3-bf73-e2ebfd89b593
LOLA 41 NAPLES,RESTAURANT,ON,560 9TH STREET,NAPLES,FL,34102,8f2c8797-1b68-41a8-ac53-da97d5bcbcb5
BRAZOS RESTAURANT LLC,RESTAURANT,ON,200 E 6TH ST STE 110,AUSTIN,TX,78701,b901c907-b3c9-473a-91f5-592737f0bacf
B100M,RESTAURANT,ON,100 BICAYNE BLVD 104,MIAMI,FL,33132,e007091a-69b6-4004-83d5-968741db37d2
SOBE-MAKOTO OKUWA DINNER,RESTAURANT,ON,9700 COLLINS AVENUE,BAL HARBOUR,FL,33154,e80e77fa-7474-4baa-86be-af535510c107
JING,RESTAURANT,ON,413 EAST MAIN STREET,ASPEN,CO,81611,4af0a792-1640-47b5-a856-5fad5484e74e
ZZ S CLUB NEW YORK,RESTAURANT,ON,560 W 33RD ST/55 HUDSON YARDS,NEW YORK,NY,10001,f5991ac7-183d-4e32-ba3c-b5a9ee7e37f6
ZUMA NEW YORK,RESTAURANT,ON,261 MADISON AVE,NEW YORK,NY,10016,2f626521-b169-46f3-9d89-9afd74a8fe82
MISSION CEVICHE,RESTAURANT,ON,5 7 E 17TH ST,NEW YORK,NY,10003,862be085-96d6-4eeb-8e0a-557a667b2cff
Kani House Japanese Restaurant,RESTAURANT,ON,10820 Abbotts Bridge Rd Ste 4000,Duluth,GA,30097,5a599f97-1a6e-4e77-82de-fe87b4f771dc
Tomo,RESTAURANT,ON,3630 Peachtree Rd,Atlanta,GA,30326,f501ebeb-e9c4-40a6-bff6-fbc48758f244
ETARU HALLANDALE BEACH,RESTAURANT,ON,111 SURF RD,HALLANDALE,FL,33009,bfedf9a7-325e-4567-8dbc-2ff332950ca5
LAVO RESTAURANT,RESTAURANT,ON,9201 W SUNSET BLVD,WEST HOLLYWOOD,CA,90069,de764817-2aa1-4d7e-89ba-7af14bfe6662
BUNGALOW KITCHEN,RESTAURANT,ON,5 MAIN ST,BELVEDERE TIBURON,CA,94920,7244c87f-dabd-4ffc-a9b7-ac0ff1ca7f4a
LOLO,RESTAURANT,ON,974 VALENCIA ST,SAN FRANCISCO,CA,94110,b350e602-748e-40c9-9489-94b07b0ab344
EHP SISI RESTAURANT LLC(HOTEL),RESTAURANT,ON,295 THREE MILE HARBOR RD,EAST HAMPTON,NY,11937,7b559390-c6af-471c-b6a5-f846adcae03a
UCHI WEST HOLLYWOOD,RESTAURANT,ON,9001 SANTA MONICA BLVD STE 101,WEST HOLLYWOOD,CA,90069,d7a4b7d8-b2b1-43a4-9dd8-b0acef93198a
Cocktail Bar & Speakeasy,RESTAURANT,ON,208 Chattahoochee Row NW,Atlanta,GA,30318,976a7533-ab96-45ab-999a-719dc2a51762
KAIYO,RESTAURANT,ON,81701 OLD HIGHWAY,ISLAMORADA,FL,33036,1363d767-eb33-4304-9857-48aeda503aab
ASPEN PUBLIC HOUSE,RESTAURANT,ON,328 EAST HYMAN AVENUE,ASPEN,CO,81611,a08faec8-07e2-4c97-859e-4d88fa915016
CHUBBY CATTLE,RESTAURANT,ON,1388 FULLERTON RD #B,ROWLAND HEIGHTS,CA,91748,fc9ca573-d252-44fa-b595-98b4e9624eb2
LOULOU,RESTAURANT,ON,176 8TH AVE,NEW YORK,NY,10011,8983456b-3f10-4e3c-9a8d-c81b7123cf29
EATALY,RESTAURANT,ON,2855 STEVENS CREEK BLVD,SANTA CLARA,CA,95050,414d81b8-b207-465f-a0b8-92af8714f638
BOKA  SUSHI NONAKA,RESTAURANT,ON,410 AMSTERDAM AVE,NEW YORK,NY,10024,7d5cb658-061b-4fc6-84fd-eebca0a1e2cc
SUSHI SEKI,RESTAURANT,ON,208 WEST 23 ST,NEW YORK,NY,10011,41f3244f-b135-46b3-8da6-c3e0cab26c15
WAYFARE TAVERN,RESTAURANT,ON,201 PINE ST,SAN FRANCISCO,CA,94104,063b856d-53bc-457f-87e4-dcbae6cc6fbf
ALLEYCAT,RESTAURANT,ON,297 EAST PALMETTO PARK ROAD,BOCA RATON,FL,33432,f7c5126d-4bf0-4407-861b-c529411c71ab
CHUBBY CATTLE,RESTAURANT,ON,4525 SPRING MOUNTAIN RD STE106,LAS VEGAS,NV,89102,c611d9be-e8e2-48ac-a4eb-37fe5031f3af
LOVELY DAY,RESTAURANT,ON,196 ELIZABETH ST,NEW YORK,NY,10010,bd9c8671-fda2-4409-8c5e-f1b2f9b59baa
THE RIVER OYSTER BAR,RESTAURANT,ON,33 SE 7TH STREET,MIAMI,FL,33131,dce70501-e76d-4247-a21a-4d91055b2bcb
SOBE-RAW BAR MASTER CLASS,RESTAURANT,ON,210 NE 18TH STREET,MIAMI,FL,33132,8733aee3-4e59-4ec0-9247-d4f2ec54e580
SPOTOS OYSTER BAR,RESTAURANT,ON,4560 PGA BLVD,PALM BEACH GARDENS,FL,33418,940aa3dd-5dab-42da-b3b9-84afb906bb3c
BLUE WHALE RESTAURANT & LOUNGE,RESTAURANT,ON,2033 UNION ST,SAN FRANCISCO,CA,94123,cd736284-2d1c-4639-b594-3fe236e4f6b9
ALICE RESTAURANT,RESTAURANT,ON,126 WEST 13TH ST,NEW YORK,NY,10011,d94f22f9-d9d1-4bdd-9043-7ea1150eb274
CATCH STEAK,RESTAURANT,ON,204 SOUTH GALENA STREET,ASPEN,CO,81611,76df5dd2-3332-4ffc-a0a9-bdd4f8c0a2c0
Pasha Restaurant,RESTAURANT,ON,631 Miami Circle NE #7,Atlanta,GA,30324,e3a092d4-b8b0-4c0b-b14a-1e025466dfe8
HSU S GOURMET,RESTAURANT,ON,192 Peachtree Center Ave NE #A039,Atlanta,GA,30303,43437c4c-d502-4665-b39b-5b6d25a6683b
YAMA IZAKAYA & SUSHI B,RESTAURANT,ON,2625 OLD DENTON ROAD SUITE 920,CARROLLTON,TX,75007,717b6fc0-c650-4dba-a853-8d11305eaa80
MOBY S,RESTAURANT,ON,341 PANTIGO RD,EAST HAMPTON,NY,11937,31340059-3e83-4b5a-b9dc-e61a8101f3dd
GREYHOUND HIGHLAND PARK,RESTAURANT,ON,5570 N FIGUEROA ST,LOS ANGELES,CA,90042,e0bd09e0-8c2c-4af8-a87a-314256da24b6
SHANG ARTISAN NOODLE,RESTAURANT,ON,4983 W FLAMINGO RD #B,LAS VEGAS,NV,89103,c1015086-39e8-4e57-ba3c-bed4bc247e99
Pinky Promise Champagne Bar,RESTAURANT,ON,1042 Northside Dr NW Ste P125,Atlanta,GA,30318,8aa6d76c-50a8-4787-8f0e-c63f8d32eb8e
THE GINGER PIG,RESTAURANT,ON,4262 LOWELL BLVD,DENVER,CO,80211,163603a0-7d4a-4b97-be25-e564550ada9d
Memphis Smokehouse (Sea Salt),RESTAURANT,ON,1801 Howell Mill Rd NW Ste 400,Atlanta,GA,30318,ebe8b2ad-7ebe-4079-84a3-cfdf6110022e
Prime Cigar,RESTAURANT,ON,1035 peachtree st ne,Atlanta,GA,30309,90bb7249-b61c-4b7b-92c6-da2d63672beb
LAMARINA,RESTAURANT,ON,4050 NORTH FLAGLER DRIVE,WEST PALM BEACH,FL,33407,68316c14-a069-4787-845b-5238dc398d34
CRAIG S RESTAURANT,RESTAURANT,ON,8826 MELROSE AV,WEST HOLLYWOOD,CA,90069,325adc50-ae08-433e-be74-3df83b88e6db
SHANG ARTISAN NOODLE,RESTAURANT,ON,6915 S DURANGO DRIVE,LAS VEGAS,NV,89148,62f9b575-a644-423f-adb7-dfe62ebc9450
CHINA GARDEN,RESTAURANT,ON,100 WEST BEAVER CREEK BLVD 125,AVON,CO,81620,bc6c633c-3d76-4388-8d43-038d8b477063
LE COLONIAL,RESTAURANT,ON,255 N FILLMORE ST SUITE 120,DENVER,CO,80206,2e5f0f86-aa95-4fc4-9d7a-733336f87652
Osha Thai And Sushi Galleria,RESTAURANT,ON,1820 Peachtree St NW,Atlanta,GA,30309,7f65a030-3444-4320-beef-a22af2e85b64
GUGU ROOM NYC,RESTAURANT,ON,143 ORCHARD ST,NEW YORK,NY,10002,334aa5eb-3aec-41c7-bee2-eacad19f0b91
NUDIBRANCH,RESTAURANT,ON,125 127 1ST AVE,NEW YORK,NY,10003,1d2d0473-3fa9-425f-8047-97ef1781a060
PATISSERIE CHANSON,RESTAURANT,ON,20 W23RD ST,NEW YORK,NY,10010,dc04530b-190d-409a-90a8-ae6f3e084624
NIKU X LOS ANGELES,RESTAURANT,ON,900 WILSHIRE BLVD STE 212,LOS ANGELES,CA,90017,c34c7a93-4f02-4f74-98fa-490a9edb7f17
HEATHERS SNOWMASS,RESTAURANT,ON,300 CARRIAGE WAY,SNOWMASS VILLAGE,CO,81615,f54ead02-7442-4b7e-a17e-d206850e1b7f
TSURI SUSHI,RESTAURANT,ON,7015 MELROSE AVE,LOS ANGELES,CA,90038,5eb54277-705a-45fd-9db9-577732b6d1d7
Ruby Chow s,RESTAURANT,ON,620 Glen Iris Dr NE #C-1,Atlanta,GA,30308,17f5f935-407c-4524-898c-15479a1fd486
PRESS,RESTAURANT,ON,587-B S ST HELENA HWY,ST. HELENA,CA,94574,cf2806bc-716f-4335-84de-9302410efc0f
GIGI S CFE FIORUCCI,RESTAURANT,ON,610 S MOUNT SHASTA BLVD,MOUNT SHASTA,CA,96067,eb05471f-5254-41ab-8e7b-b037399e605d
YUJO,RESTAURANT,ON,12835 PRESTON RD SUITE 216,DALLAS,TX,75230,69c5b7a2-381f-4092-9bfb-43717c417dd7
MEZCAL GRILL,RESTAURANT,ON,5701 BROADWAY STE B,SACRAMENTO,CA,95820,c3e23885-f349-4ebf-a424-e4d74c1ed076
O-Ku,RESTAURANT,ON,1085 Howell Mill Rd NW  A-3,Atlanta,GA,30318,6fcb3510-c6e4-445a-b93e-21132d4bcb4a
KA THAI,RESTAURANT,ON,3220 MCKINNEY AVE SUITE 120,DALLAS,TX,75204,aa2c8e25-79a8-4d9b-815a-21ea65dc9843
BLUE MAKI,RESTAURANT,ON,2625 OLD DENTON RD STE 444,CARROLLTON,TX,75007,0d526cfe-297f-459f-b6df-62547a214962
SHOKUDO,RESTAURANT,ON,4740 NE 2ND AVENUE,MIAMI,FL,33137,bf1bd04b-e45b-40ed-9ce0-133f98c31bdb
MAVERICKS MONTAUK LLC,RESTAURANT,ON,51 S EDGEMERE ST,MONTAUK,NY,11954,e0e4a840-e2a5-4aa4-9c91-085a639d937b
HULLABALOO,RESTAURANT,ON,517-519 CLEMATIS STREET,WEST PALM BEACH,FL,33401,bea3237f-c3c1-47ac-b183-808bb798c292
ERNESTO S,RESTAURANT,ON,259 E BROADWAY,NEW YORK,NY,10002,91bea213-0b76-4130-8d0b-2f4f3603f978
MEAT & CHEESE,RESTAURANT,ON,319 EAST HOPKINS AVE UNIT 103,ASPEN,CO,81611,678e0216-3008-4c58-9eaf-d4f5115bbf98
SUSHI MOCKI,RESTAURANT,ON,5321 E MOCKINGBIRD LN STE 130,DALLAS,TX,75206,260a38cd-edfb-4b82-902e-955e9e8e9831
SEREIA,RESTAURANT,ON,3540 MAIN HWY,MIAMI,FL,33133,884cf490-175d-4a53-887d-d262e035a8ee
KASE SAKE & SUSHI,RESTAURANT,ON,5697 S JONES BLVD #220,LAS VEGAS,NV,89118,8b60f34c-83d5-4e68-b58e-3d7c695c8716
THE BLUE FISH,RESTAURANT,ON,3519 GREENVILLE AVENUE,DALLAS,TX,75206,b70ed20d-0a66-456f-81f7-cd31ebf8eaeb
LAFAYETTE & MARION,RESTAURANT,ON,1111 SW 1ST AVE,MIAMI,FL,33131,0a5f5f8d-44fc-4f05-b2af-6436b82bbf56
NO COAST SUSHI,RESTAURANT,ON,1119 NORTH 1ST ST UNIT A,GRAND JUNCTION,CO,81501,c7a3dd62-93e0-4f56-9705-f1e546fc0fda
Calvert s,RESTAURANT,ON,475 Highland Ave,Augusta,GA,30909,dbf923d8-d2c3-4d89-a36a-595ed0f573e0
MONTECITO CLARK S,RESTAURANT,ON,1212 COAST VILLAGE RD,SANTA BARBARA,CA,93108,fa441933-db3c-4613-b9be-92ef0e40f8e8
ZZ S,RESTAURANT,ON,560 W 33RD ST/55 HUDSON YARDS,NEW YORK,NY,10001,6ed4e6f6-b543-4d8c-9938-90c7b1c8dde0
Hajime Restaurant,RESTAURANT,ON,2345 Cheshire Bridge Rd Unit 1,Atlanta,GA,30324,adbd6e2f-72e0-4308-8ccb-ee0077b739c2
THE X POT @ PALAZZO,RESTAURANT,ON,3377 LAS VEGAS BLVD S #2884,LAS VEGAS,NV,89109,7cafd014-634a-45a7-baa5-9953ef47c960
Daisy Discount Liquor,RESTAURANT,ON,17114 US Hwy 280,Claxton,GA,30417,23203f73-5672-4629-b8ae-7c92dc459b9b
KA THAI MIDTOWN,RESTAURANT,ON,8185 WALNUT HILL LN STE 1410,DALLAS,TX,75231,459776f1-5572-4e3d-961e-e6dc30334809
TAO LA,RESTAURANT,ON,6421 SELMA AVE,LOS ANGELES,CA,90028,39923a06-ea66-4747-8795-fcd33fc3522a
BUCCAN,RESTAURANT,ON,350 S COUNTY RD,PALM BEACH,FL,33480,267b1c52-2ebe-46c7-889e-bf792a4bc4ee
CUT FIVE BOCA,RESTAURANT,ON,9500 SAUVIGNON PARKWAY,BOCA RATON,FL,33496,c52ece37-7caa-4a2f-b8e6-2738db7208c5
UCHI MIAMI,RESTAURANT,ON,252 NW 25TH ST,MIAMI,FL,33127,cd1f7a6b-af1d-405d-aced-e2ca1209caef
N AMO,RESTAURANT,ON,474 W LAKE DR,MONTAUK,NY,11954,0e3ac74e-00c2-4938-a6ea-6a50edd9daee
ASIAN MINT B,RESTAURANT,ON,5290 BELT LINE ROAD STE 118,ADDISON,TX,75254,8a8e152f-907a-4a51-bf26-0e9f957979d5
YUMIYAKI,RESTAURANT,ON,21 W 35TH ST,NEW YORK,NY,10001,ecb30ba0-e5d7-48ac-bee7-ca1063db8caf
GENGHIS COHEN,RESTAURANT,ON,734-36-38-40-42 N FAIRFAX AVE,LOS ANGELES,CA,90046,7f78a6c5-3d29-4c74-b663-04683ca0765e
Q HOUSE,RESTAURANT,ON,3421 E COLFAX AVE,DENVER,CO,80206,ee13f0c7-6125-421e-a7de-c38e8e379da7
VICTORIA S PISCO LOUNGE,RESTAURANT,ON,806 LAKE WORTH AVE,LAKE WORTH,FL,33460,ad38078c-c2dc-474b-a0e7-332ea1c59629
MAASS,RESTAURANT,ON,525 N FORT LAUDERDALE BCH BLVD,FORT LAUDERDALE,FL,33304,e685f99d-4f49-4822-a6b9-16b362a9ac51
DAUGHTER THAI KITCHEN & BAR,RESTAURANT,ON,1700 PLATTE STREET SUITE 140,DENVER,CO,80202,40dd73bb-59d5-4f24-85a6-f6786d9b981b
YUJO,RESTAURANT,ON,2626 N JOSEY LN STE 107,CARROLLTON,TX,75007,c54f2444-922b-440b-8b6e-5370c55cac2e
Harry & Sons,RESTAURANT,ON,820 N Highland Ave NE,Atlanta,GA,30306,bde0f09e-11b6-45d4-8655-2f13eca84ebc
Sensu Sushi Resturaunt and Bar,RESTAURANT,ON,300 Trilith Pkwy STE 270/275,Fayetteville,GA,30214,33dd36c9-f1ca-4870-bb04-20e6e7525dfa
DUEMANI,RESTAURANT,ON,216 SOUTH MONARCH STREET,ASPEN,CO,81611,a4a17b6d-8126-4bc1-ab1e-3c648f4c4e13
JOONAS & BEAR DEN ASPEN,RESTAURANT,ON,301 EAST HOSPKINS AVENUE,ASPEN,CO,81611,19e8d767-a120-45aa-9a96-a2cd0a64e780
SAGO,RESTAURANT,ON,485 S COAST HWY 101,ENCINITAS,CA,92024,a9942560-461e-4155-8a74-5b436ec550b6
Cork and Flame,RESTAURANT,ON,4414 Evans to Lock Rd STE 2,Evans,GA,30809,7da5f84e-785c-4086-8a90-e6e96b2dfdac
Dua Vietnamese Restaurant Inc,RESTAURANT,ON,805 Lanier Ave. W,Fayetteville,GA,30214,546b8dec-f87c-4774-8974-5dc98495518c
CLARK S OYSTER BAR,RESTAURANT,ON,517 E HYMAN AVENUE,ASPEN,CO,81611,e9e51d48-85d6-4576-9b89-79207f8cc525
YUJO,RESTAURANT,ON,16100 STATE HWY 121 BLDG B STE 200,FRISCO,TX,75035,b6f2795b-1406-467e-9bd7-a7c4264d71b2
IWA SUSHI & GRILL,RESTAURANT,ON,5940 ROYAL LANE,DALLAS,TX,75230,815cf967-4a8d-4367-a606-68dbd0d1fdbe
UMEKES FISH MARKET BAR & GRILL,RESTAURANT,ON,74-5599 PAWAI PLACE BLDG A,KAILUA KONA,HI,96740,7a88ef44-1e52-4980-848a-65854a9597b6
Fumi,RESTAURANT,ON,3550 Mall Blvd,Duluth,GA,30096,def0c761-291c-4fc9-b2de-8763ae04e021
MORIMOTO NAPA,RESTAURANT,ON,610 MAIN STREET,NAPA,CA,94559,3dbdc285-fcba-4298-a957-5915972790aa
KATAMI A,RESTAURANT,ON,2701 W DALLAS ST,HOUSTON,TX,77019,ab66046f-5304-415b-a1fb-6782eed2407a
Mai Kitchen,RESTAURANT,ON,1040 N. Highland Ave. NE,Atlanta,GA,30306,ba529053-310c-4f68-845a-5c252b352d62
TUCCI NEW YORK,RESTAURANT,ON,643 BROADWAY,NEW YORK,NY,10012,bda2a533-5f31-42e5-90c0-57182092bd28
Brush Sushi Buckhead,RESTAURANT,ON,3035 Peachtree Rd NE Ste G140,Atlanta,GA,30305,9583c64b-5750-4b56-a1c8-e2385aceffc0
SPARROW & WOLF,RESTAURANT,ON,4480 SPRING MOUNTAIN RD STE100,LAS VEGAS,NV,89102,881e398e-e76b-4e3f-a631-929f08489afa
JING,RESTAURANT,ON,5370 GREENWOOD PLAZA BLVD #101,ENGLEWOOD,CO,80111,8df17e55-2c3d-449a-bb88-fbcc174b423e
TOP SUSHI A,RESTAURANT,ON,24435 TOMBALL PARKWAY SUITE 70,TOMBALL,TX,77375,edaff787-c2fd-4ce0-afc4-cf50f9b51527
SSA GROUP,RESTAURANT,ON,325 5TH AVE N,SEATTLE,WA,98109,ad4b96d0-8954-4166-a328-502b442e0511
M GRILL,RESTAURANT,ON,3832 WILSHIRE BL #202,LOS ANGELES,CA,90010,686b8bb1-1b54-4774-9ead-b14b28e9ab7c
LITTLE DOMS,RESTAURANT,ON,2128 HILLHURST AV,LOS ANGELES,CA,90027,c367040b-7952-4eaa-b90c-a69c093c903f
FLEMINGS PRIME STEAKHOUSE,RESTAURANT,ON,800 W OLYMPIC BL #A135,LOS ANGELES,CA,90015,e72a459c-5036-4a89-898d-69f379d1ec8f
KANS THAI KITCHEN,RESTAURANT,ON,4838 N FEDERAL HIGHWAY,FORT LAUDERDALE,FL,33308,3da21949-337a-4ef4-9364-161ef3b51d6e
HARRY S BEACH HOUSE,RESTAURANT,ON,2676 ALKI AVE SW,SEATTLE,WA,98116,09812b26-58fc-4388-9dcd-0e5c8f9dcbbd
JEFFREYS RESTAURANT & BAR,RESTAURANT,ON,1204 W LYNN ST INCLUDING 1601,AUSTIN,TX,78703,afd8d4e9-3c4d-4ac4-b68c-4fa97e424dc0
Grinds and Wines (Tavern on 74),RESTAURANT,ON,288 Hwy 74 N,Peachtree City,GA,30269,d560ebba-9a26-48ce-9c47-0780339aea43
NUNOS BISTRO & BAR,RESTAURANT,ON,2440 W ARROW RTE  STE #4A,UPLAND,CA,91786,5b3d8af2-521f-4b67-8a22-ac7ef72de0f2
ACE,RESTAURANT,ON,501 EAST 17TH AVENUE,DENVER,CO,80203,d76d1257-c755-4275-9661-7ed6f971f3a2
TRATTORIA BRAVA,RESTAURANT,ON,809 GRAND AVE #4,GLENWOOD SPRINGS,CO,81601,1bee9db7-445d-475f-ba45-3f128c3bc39a
NAM Kitchen,RESTAURANT,ON,6400 Blue Stone Rd STE 100,Sandy Springs,GA,30328,f15296ae-35e8-41a6-8f0d-d5fc82758c53
Kizuna,RESTAURANT,ON,140 Progress Circle  #3,Blue Ridge,GA,30513,cdc81ff6-2fbe-4b97-ad64-b41c067be951
KOJIN NOODLE BAR,RESTAURANT,ON,422 EATON STREET,KEY WEST,FL,33040,885d2608-fde2-47c5-9a1f-cdf9b5cf8636
RUSTIC CANYON,RESTAURANT,ON,1119 WILSHIRE BL,SANTA MONICA,CA,90401,8d83d512-6448-4fe1-b751-759b6a6c5fb9
MIKATA,RESTAURANT,ON,H-41 237 PERIMETER CENTER PKWY NE S,Dunwoody,GA,30346,3dff373f-3810-453f-a360-944b7fd9ca9a
BRASSERIE BRIXTON,RESTAURANT,ON,3701 N WILLIAMS ST,DENVER,CO,80205,53e23a0c-a1a8-4342-89d8-182dc837f719
CUCINA 8 1/2,RESTAURANT,ON,9 WEST 57TH ST,NEW YORK,NY,10019,a3680ca6-76eb-46a7-b506-a2877c0bd2a4
Bon Ton,RESTAURANT,ON,214 Ponce DeLeon Ave NE,Atlanta,GA,30308,e2a1a5b0-9587-42dc-8d47-850f747504e7
RUSTIC HOUSE,RESTAURANT,ON,295 MAIN ST,LOS ALTOS,CA,94022,39c0ba70-e418-4b88-8589-3378375b95e8
MUSUME RESTAURANT,RESTAURANT,ON,2330 FLORA SUITE 100,DALLAS,TX,75201,e52425a7-9905-470d-9778-7cb6bb657163
Church,RESTAURANT,ON,466 Edgewood Ave SE Bldg 466,Atlanta,GA,30312,89d38405-20df-4609-8b38-05f1d3316c42
TORO,RESTAURANT,ON,5 S/E OF DOLORESE & 5TH ST,CARMEL,CA,93921,7c148b68-92c5-43ce-82c6-1d313a48d814
Sports Cafe,RESTAURANT,ON,8501 Tara Blvd,Jonesboro,GA,30236,310b13d3-8628-467d-a8df-40573c4f347a
PAPERFISH,RESTAURANT,ON,432 ESPANOLA WAY,MIAMI BEACH,FL,33139,e8d48574-87c7-4263-8260-ff2c2a42a2a5
MCNEAR S RSTR & BAR,RESTAURANT,ON,21-23 PETALUMA BLVD N,PETALUMA,CA,94952,583d8da0-6c15-4708-af1a-a140c63de007
MATY S/ITAMAE AO,RESTAURANT,ON,3255 NE 1ST AVE,MIAMI,FL,33137,cf8db789-a529-4465-bc28-1d10eb92d03c
FRENCH GRILL HOUSE,RESTAURANT,ON,427 NORTHWOOD ROAD,WEST PALM BEACH,FL,33407,8cc5751d-cb2d-42ef-a25d-6b0b9a6f3d06
BOND ST,RESTAURANT,ON,6 BOND ST,NEW YORK,NY,10012,9bd6ffa0-df39-48fb-acbf-ffdbe4ec11af
Flock To The Wok LLC,RESTAURANT,ON,37 Whitaker ST,Savannah,GA,31401,ef8e21df-368f-46d0-a64c-8145dac6e067
JIMOTO RAMEN,RESTAURANT,ON,616 EAST HYMAN,ASPEN,CO,81611,aa456014-1c94-4498-8680-a4e383ef285f
TINY GROCER,RESTAURANT,ON,4300 SPEEDWAY UNIT 101,AUSTIN,TX,78751,70ac09ed-eb1f-4078-b36f-26e3e8567425
NAMINOHANA,RESTAURANT,ON,5521 GREENVILLE AVE ST 111,DALLAS,TX,75206,86d4aa33-70fa-4afd-940c-9c81a085e746
Three Dollar Cafe,RESTAURANT,ON,3000 Windy Hill Rd SE STE 132,Marietta,GA,30067,951c4caf-887a-4f89-9a23-378b5658fe88
Marietta Melt Yard,RESTAURANT,ON,800 Whitlock Ave NW Ste 124,Marietta,GA,30064,dbf9db1e-ea1e-4c4b-9d4d-bf2fb45936ca
ASIAN MINT,RESTAURANT,ON,11617 N CENTRAL EXPY STE 135,DALLAS,TX,75243,bdbc31e4-59b6-4883-82e3-5fd00b626bff
OWA,RESTAURANT,ON,1635-1637 ABBOT KINNEY BLVD,VENICE,CA,90291,8fab665f-6d18-416e-81fe-4443490b86e2
TROPICAL SMOKEHOUSE,RESTAURANT,ON,3815 S DIXIE HWY,WEST PALM BEACH,FL,33405,93e9cee1-b78d-4739-841e-1a002e4208d7
The Monte Cristo (Montecello),RESTAURANT,ON,2000 Powers Ferry Rd  #1-3,Marietta,GA,30067,4fd249e1-c319-4809-a3cb-6367728b90ab
Kelley s Tavern & Grill LLC,RESTAURANT,ON,628 EE Butler Parkway,Gainesville,GA,30501,c66e89eb-a41b-48cd-8f78-9899f0ef7a1f
LOTUS OF SIAM,RESTAURANT,ON,620 E FLAMINGO RD,LAS VEGAS,NV,89119,82385271-912f-40eb-bf73-a20e29eb7762
RED DOOR HIBACHI STEAK HOUSE,RESTAURANT,ON,3881 NE 163RD STREET,NORTH MIAMI BEACH,FL,33160,ff547983-0e6f-47a6-ba2c-cc80615b4627
MING S CAFE CARBONDALE,RESTAURANT,ON,901 HIGHWAY 133 #F,CARBONDALE,CO,81623,2d2ae503-8d4f-4a1a-b01d-246edc1986b7
SATO/CAFE 163,RESTAURANT,ON,0105 EDWARDS VILL BLVD D101,EDWARDS,CO,81632,6d27062e-35d4-4529-89c4-ab639077427c
BOURBON STEAKHOUSE,RESTAURANT,ON,237 S BRAND BLVD,GLENDALE,CA,91204,dbd94490-95e2-45a6-a17e-a8ecf5631f80
IYASARE,RESTAURANT,ON,1830 4TH ST,BERKELEY,CA,94710,763f0f27-44b8-4e69-a518-619c342a3dd8
Atlanta Eagle,RESTAURANT,ON,1492 Piedmont Ave NE Ste F,Atlanta,GA,30309,703a86cf-c34c-4cfc-bdee-9fca65472927
Lingering Shade Social Club,RESTAURANT,ON,660 Irwin St NE,Atlanta,GA,30312,33e48784-4b0b-4469-829d-6ec117a8df7b
IZAKAYA CABIN,RESTAURANT,ON,321 ELK AVENUE,CRESTED BUTTE,CO,81224,6a1018d9-bbfa-46a0-aa1c-3db23e95fb23
FUKUMOTO,RESTAURANT,ON,514 MEDINA STREET,AUSTIN,TX,78702,7f6daf90-eb2d-48b6-8089-731d5d84d2fa
Umi Sushi,RESTAURANT,ON,3050 Peachtree Rd Ne,Atlanta,GA,30305,8a516d3b-c7e7-4e16-b1be-d3d80942c74a
Brass Tap,RESTAURANT,ON,#32 4505 Ashford Dunwoody Rd,Dunwoody,GA,30346,7598e29c-4ae1-4fea-9c94-24be0c9e1594
HAKKASAN - RESTAURANT @ MGM,RESTAURANT,ON,3799 S LAS VEGAS BLVD,LAS VEGAS,NV,89109,1bed3bba-3781-4b58-833b-53451614d81f
New York Butcher Shoppe,RESTAURANT,ON,4475 Roswell Rd Ste 1030,Marietta,GA,30062,569d2cf2-e4b0-49f2-b8b1-92072a3df71b
Cru Battery Atlanta,RESTAURANT,ON,915 Battery Ave SE,Atlanta,GA,30339,8a8335ad-dbb9-47cb-88da-cf2a18149ad4
INTERNATIONAL SMOKE,RESTAURANT,ON,301-301B MISSION ST,SAN FRANCISCO,CA,94105,e9c3a2c5-99ad-4261-bed3-b434e7b2bcc2
WILLIAMS & GRAHAM / OCCIDENTAL,RESTAURANT,ON,3150-3160 TEJON STREET,DENVER,CO,80211,3b301100-1e00-4aff-a32f-11afeff08ef4
HIGHLANDS ALEHOUSE,RESTAURANT,ON,0133 PROSPECTOR ROAD STE 4114B,ASPEN,CO,81611,b7b03fc6-d1b3-4127-b6e4-61fd2008ce5d
KA THAI NORTH DALLAS,RESTAURANT,ON,6859 ARAPAHO RD STE 601,DALLAS,TX,75248,fff19f93-7079-496a-9a5b-91fa1aa6fbab
ROCKER OYSTERFELLERS,RESTAURANT,ON,14415 HWY 1,VALLEY FORD,CA,94972,d81a7794-50bd-4241-ac89-41211df3772a
MIMI CHINESE,RESTAURANT,ON,1575 ALTON RD,MIAMI BEACH,FL,33139,6c11fa52-66e4-407e-ab7c-c3344474e59b
The Club At Atl,RESTAURANT,ON,1 H-J Atlanta Airport  Conc F,Atlanta,GA,30354,01ee5977-b71f-414d-8273-ab019c582e6a
PEARL,RESTAURANT,ON,4640 MCKINNEY AVE STE 130,DALLAS,TX,75205,d8de0d3c-e13f-47ae-8b46-49a6bf40caa3
H & F Bottle Shop,RESTAURANT,ON,2357 Peachtree Rd NE Ste 3,Atlanta,GA,30305,76860f8f-f7f8-40c8-b63f-8915f3327ca1
JAGALCHI (ON),RESTAURANT,ON,63 SERRAMONTE CENTER,DALY CITY,CA,94015,68f02e3e-9794-4d0e-8f90-7cd2b170c2c5
LE CHICK ROTISSERIE,RESTAURANT,ON,310 NW 24TH STREET,MIAMI,FL,33127,23642d7f-4a96-4e23-8c27-21aeede30a26
EBESU ROBATA & SUSHI,RESTAURANT,ON,1007 E 15TH STREET,PLANO,TX,75074,261eba35-5ab7-439a-bc16-0a9d358eec23
NYC RESTAURANT SERVICES LLC,RESTAURANT,ON,1 VANDERBILT AVE  LEVEL B1,NEW YORK,NY,10017,60aa6bce-52ac-4ac1-8300-af223f0b6674
Kuroshio Sushi Bar & Grill,RESTAURANT,ON,2700 Cobb Pkwy:3B-4B,Smyrna,GA,30080,64f79b1e-d64b-462a-8023-a8c394a3a931
Prime 120,RESTAURANT,ON,120 Chambers Street,Woodstock,GA,30188,117d4991-e060-4630-a2b5-ddee483b3de3
ROOSEVELT,RESTAURANT,ON,1512 LARIMER ST UNIT 29R,DENVER,CO,80202,0803e9e9-2971-4656-b048-34beb2fd7543
GOLDFINCH,RESTAURANT,ON,119 S MAIN ST,SEBASTOPOL,CA,95472,92ed395d-f92a-47cd-ba2e-311734207038
Westside Pizzeria,RESTAURANT,ON,2260 Marietta Blvd NW Ste 107,Atlanta,GA,30318,a8a20b0a-b165-4d7b-9d43-3afd1a283a7d
Kiosco,RESTAURANT,ON,48 Powder Springs St,Marietta,GA,30064,7cbd4031-5392-493e-86fd-4205f80f4b6a
Out Of The Blue  Inc.,RESTAURANT,ON,647 E Main St,Blue Ridge,GA,30513,b36dff93-4e09-4c51-9561-579b1e24df59
DEBONAIR SUPPER CLUB,RESTAURANT,ON,183 S ORANGE AVE,ORLANDO,FL,32801,40be947c-6b5b-4c6f-bc4b-b55d0d4a35a8
Mazzy s Sports Bar & Grill,RESTAURANT,ON,2217 Roswell Rd Ste A-200,Marietta,GA,30062,dddc53c2-0266-4a08-b246-4503ff7a1ce8
CLARKS HOUSTON,RESTAURANT,ON,3807 MONTROSE BLVD,HOUSTON,TX,77006,f0b7c4ad-6dc9-462a-8479-e2ba624104f4
Antico Pizza Battery,RESTAURANT,ON,Ste 420 2605 Circle 75 Pkwy SE,Atlanta,GA,30339,22f587e7-0170-4696-94d8-df893914bc6b
The Mad Mexican,RESTAURANT,ON,2 E Court Square,Newnan,GA,30263,09790b39-28f8-432d-be7a-65e1349257a4
YUZU JAPANESE RESTAUARANT AND BAR,RESTAURANT,ON,2101 SUMMER LEE DR SUITE 105,ROCKWALL,TX,75032,801a9407-4744-49a1-b74d-60809dd613ea
THE MONARCH,RESTAURANT,ON,411 S MONARCH,ASPEN,CO,81611,4bcab5d0-f199-4c8e-b765-85186af11418
La Grotta Restaurant (Pchtree),RESTAURANT,ON,2637 Peachtree Rd,Atlanta,GA,30305,a00baa52-96e8-4350-9976-6e51abc3695c
YAMA IZAKAYA SUSHI B,RESTAURANT,ON,240 LEGACY DRIVE SUITE 100,PLANO,TX,75023,d17ce292-5022-4a42-aa02-bc1bbe72e92d
JG MELON,RESTAURANT,ON,89 MACDOUGAL ST,NEW YORK,NY,10012,e2580443-6d7b-4eac-a7d7-1703d5190d77
PAPERFISH/BARSECCO,RESTAURANT,ON,1421 SOUTH MIAMI AVENUE,MIAMI,FL,33131,e69772bc-0d1c-486c-b2f5-90e56c2922d5
HARRIS RESTAURANT,RESTAURANT,ON,2100 VAN NESS AVE,SAN FRANCISCO,CA,94109,dfad5a9c-92fe-4916-9fbe-da08a27540e3
Yao Thai Restaurant,RESTAURANT,ON,Ste H-31 245 Perimeter Center Pkwy,Dunwoody,GA,30346,cf66369d-ef91-4427-a1c0-3b746bed2c7c
Frank s At The Old Mill,RESTAURANT,ON,1095 Hwy 54 West,Fayetteville,GA,30214,46b648cf-c5ad-44a7-8e84-5fae85622000
Katana Sushi Hibachi,RESTAURANT,ON,4400 Roswell Rd Ste 152,Marietta,GA,30062,3cb2f4e4-0b9a-4553-8634-98bb18b016b1
Woofs Sports Bar,RESTAURANT,ON,494 Plasters Ave NE Ste 200,Atlanta,GA,30324,3e747bd8-bd21-4f47-a612-d1a3e7672778
Thai Spice,RESTAURANT,ON,286 Highway 74 N,Peachtree City,GA,30269,4d900d1d-9289-4ec5-af0c-46110be80e40
THE BLUE FISH,RESTAURANT,ON,5760 HWY 121 SUITE 175,PLANO,TX,75024,0e9d6553-d197-4684-9791-8cd193da1788
MamiTaco Inc,RESTAURANT,ON,800 Whitlock Ave NW Ste 207,Marietta,GA,30064,701add90-3092-427e-9048-ccf6dd2619f5
PINK STEAK,RESTAURANT,ON,2777 S DIXIE HWY,WEST PALM BEACH,FL,33405,ad830ada-6630-4027-ae83-899a38f61220
PURPLE PATCH,RESTAURANT,ON,3155 MOUNT PLEASANT ST NW 101,WASHINGTON,DC,20019,ca66b93a-7591-48f3-b614-d6a6ff8212ac
ULTREIA,RESTAURANT,ON,1701 WYNKOOP STREET SUITE 125,DENVER,CO,80202,349b0f32-ea89-4976-9003-ee04479f6bb4
Kobe Japanese Steakhouse,RESTAURANT,ON,2876 Highway 54,Peachtree City,GA,30269,3086d963-6a6f-40b1-8ed9-942604893a9b
ONE FISH RAW BAR,RESTAURANT,ON,193 E CAMPBELL AVE,CAMPBELL,CA,95008,4ccc5b02-18a7-4031-b4d8-d3512baa86e4
The Tabernacle,RESTAURANT,ON,152 Luckie St NW,Atlanta,GA,30303,c20f7d64-0427-49a4-bf04-ba236ba96aa7
SUEHIRO JAPANESE RESTAURANT,RESTAURANT,ON,541 MAIN STREET,GRAND JUNCTION,CO,81501,55332ba7-5da8-4f36-b6d3-fa8bf06ef864
KENICHI,RESTAURANT,ON,533 E HOPKINS,ASPEN,CO,81611,2b9ff478-6b51-4e8d-882d-d7dd11e8a8ce
Tannery Row Ale House*CLOSED*,RESTAURANT,ON,554 W Main ST C-100,Buford,GA,30518,c3e650cd-d6b1-43cd-8102-427eb0d48629
THE BLUE FISH,RESTAURANT,ON,320 WEST LAS COLINAS BLVD SUITE 110,IRVING,TX,75039,b50fd04c-e23b-49f1-8018-dad95b6bb450
GOLDEN GRILL ON THE BAY,RESTAURANT,ON,1014 BAY ST,PORT ORCHARD,WA,98366,f00960d3-b514-422d-9345-0699fc311591
The Atlanta Fish Market,RESTAURANT,ON,265 Pharr Rd NE,Atlanta,GA,30305,80c11077-bc1e-4ee7-9337-4702da22cc3e
J. R Crickets,RESTAURANT,ON,4550 Jonesboro Rd Ste C,Union City,GA,30291,4a8be037-24ad-49fb-9003-73a8ec5b1767
Rusty Barrel,RESTAURANT,ON,138 Powers Ferry Rd SE,Marietta,GA,30067,87e460de-6d19-4d81-aa43-e60d2a890712
PARTAGE,RESTAURANT,ON,3829-3839 SPRING MOUNTAIN RD,LAS VEGAS,NV,89102,f953ff00-f11b-4069-8f17-1a238e33da9a
Thrive,RESTAURANT,ON,101 Marietta St NW,Atlanta,GA,30303,de4309c5-2f47-44a9-812f-fce67cc289bb
Cru Food & WIne Bar,RESTAURANT,ON,300 Avalon Blvd,Alpharetta,GA,30009,1e9fe3d2-68bb-4706-abf9-ac7ebbafb9f0
Pour Taproom Midtown,RESTAURANT,ON,1180 Peachtree St NE Ste A,Atlanta,GA,30309,71181441-ea22-41ca-9035-98c49c99489d
RISTORANTE SANTUCCI,RESTAURANT,ON,610 CLEMATIS ST,WEST PALM BEACH,FL,33401,83921692-e79d-494e-b64a-c974a25f10ec
ESNAF,RESTAURANT,ON,1105 SAN CARLOS AVE,SAN CARLOS,CA,94070,042f3bfd-0fd6-4a02-b405-81354b114e64
JJANGA STEAK & SUSHI,RESTAURANT,ON,6125 S FORT APACHE RD #200,LAS VEGAS,NV,89148,c66ab02d-34c8-4656-a375-ce890e594ba4
DOMODOMO,RESTAURANT,ON,2681 HOWELL ST BU3,DALLAS,TX,75201,2cb145c5-9721-4a09-a7e4-a18f6040163b
NAMO,RESTAURANT,ON,3699 MCKINNEY AVENUE SUITE 305C,DALLAS,TX,75204,7db348a0-1fd1-4682-b9d5-809024290ddc
MORI JAPANESE GRILL,RESTAURANT,ON,2200 S 10TH STREET SPACE S25,MCALLEN,TX,78503,392353af-3e67-4d6b-8832-4527a9cd0c9f
Nana Thai Eatery,RESTAURANT,ON,2940 Johnson Ferry Rd Ste C,Marietta,GA,30062,6bddc51e-95bb-4af0-8146-d4bfd1dfb3b9
Perfecture Japanese Steakhouse,RESTAURANT,ON,2277 Peachtree Rd NE Ste A,Atlanta,GA,30309,ea2074b8-adce-4a42-8224-bc394e301ab1
ZUZU,RESTAURANT,ON,823 & 825 & 829 MAIN ST,NAPA,CA,94559,20e114a2-1d6e-4c21-870a-9cbd50fa735c
TOSCANA MARE,RESTAURANT,ON,1121 CRANDON BLVD,KEY BISCAYNE,FL,33149,a64d79b7-0b7a-46a1-a8db-961669cf8ac0
Ted s Montana Grill,RESTAURANT,ON,314 City Circle #1320,Peachtree City,GA,30269,a47ca267-a8d5-4018-8d9d-9121bb9d5d26
OZUMO,RESTAURANT,ON,355 SANTANA ROW #1010,SAN JOSE,CA,95128,a02609a0-42c1-47b5-a37b-276ec69af0a1
Park 82  **CLOSED**,RESTAURANT,ON,4403 Northside Pkwy NW Ste 150,Atlanta,GA,30327,e02ffe0e-8d1a-48ab-b1c8-aebec8a9b306
BOURBON STEAK,RESTAURANT,ON,3960 S LAS VEGAS BLVD,LAS VEGAS,NV,89119,c4d15aaf-e899-46cb-8653-134f7305ba1b
LOCAL YOCAL BBQ & GRILL,RESTAURANT,ON,350 E LOUISIANA STREET SUITE A,MCKINNEY,TX,75069,86c233a0-2172-48e8-be1f-8b7176efddb1
Bella Napoli Savannah,RESTAURANT,ON,18 E State St,Savannah,GA,31401,6deb9bf5-a420-4546-9ac3-109d9e9ea7dd
LIGHTHOUSE,RESTAURANT,ON,145 BORINQUEN PLACE,BROOKLYN,NY,11211,b22f74b1-7af0-4462-ba20-1f0c6f61402c
Park 82,RESTAURANT,ON,4403 Northside Pkwy NW #150,Atlanta,GA,30327,60d6532f-9bf1-4012-b799-f6c94080d24c
MISTER FRENCH,RESTAURANT,ON,24 E 21ST ST,NEW YORK,NY,10010,f9ccbee4-0b61-4532-b340-4853103ee3f2
CASA TUA ASPEN,RESTAURANT,ON,403 S GALENA ST,ASPEN,CO,81611,a9212ecb-98f4-4e22-8448-93414fe5e9bb
MILA MIAMI,RESTAURANT,ON,800 LINCOLN ROAD,MIAMI BEACH,FL,33139,a82cbf6f-3d50-48fe-9d61-5249884089b2
LE BILBOQUET,RESTAURANT,ON,299 SAINT PAUL STREET,DENVER,CO,80206,6c6b9ab4-c65a-4614-ad04-33ef9ddeda53
BONNELL S FINE TEXAS CUISINE,RESTAURANT,ON,4259 BRYANT IRVIN ROAD,FORT WORTH,TX,76109,63c68b77-c857-4533-87af-d1b6b55c9d95
NORTH,RESTAURANT,ON,7501 WINDROSE AVENUE SUITE D190,PLANO,TX,75024,43ef3008-07ea-4c9e-9ab7-adfb246def1b
KOSEN,RESTAURANT,ON,307 W PALM AVE,TAMPA,FL,33602,7c63a91e-4507-44ac-8072-cde844fa076e
Basils Restaurant & Bar,RESTAURANT,ON,2985 Grandview Ave,Atlanta,GA,30305,d66a2475-810b-4ed5-aa93-be39e3984b05
Oakhurst Market,RESTAURANT,ON,650 E Lake Dr Ste A,Decatur,GA,30030,990f95b3-e260-4821-9b1a-f31226b4df21
CRESCENT BISTRO,RESTAURANT,ON,45 CRESCENT DR #11 C,PLEASANT HILL,CA,94523,dc579740-332b-4b86-9c4a-c9c4723e5989
MISOHAPPY LLC,RESTAURANT,ON,504 SOUTHARD ST,KEY WEST,FL,33040,02b8f125-18b1-4e5d-8f4d-161c810880b8
Fukuro Bar and Sushi,RESTAURANT,ON,5100 Washington Road,Evans,GA,30809,d15e9e6e-9a5c-4209-94ca-7ae30b61dc97
BAD KITTY LOUNGE,RESTAURANT,ON,227 BRIDGE STREET C,VAIL,CO,81657,21bd321b-09ba-49ad-ad8a-dfdc019d8741
BASIL & MINT VIETNAMESE CAFE,RESTAURANT,ON,350 N LANTANA ST  STE 7,CAMARILLO,CA,93010,5cfd554c-8d44-4c84-884c-487092cf4c16
THE BINDERY  LTD,RESTAURANT,ON,1817 CENTRAL STREET,DENVER,CO,80211,4f4ba891-88aa-4684-91ff-bb9ff04bc770
ALL DAY BABY,RESTAURANT,ON,3200 W SUNSET BL,LOS ANGELES,CA,90026,b2ac1ed3-061c-4882-9428-b2654c05ff89
KEI,RESTAURANT,ON,191 195 7TH AVE,NEW YORK,NY,10011,add76209-c747-4b34-9c73-7a8a5ae1d378
PALATE,RESTAURANT,ON,1301 S MAIN ST #110,LAS VEGAS,NV,89104,250349f8-aa51-45a8-9870-c9d3f8f9171b
Umbrella Bar,RESTAURANT,ON,675 Ponce De Leon Ave NE,Atlanta,GA,30308,21c1b8eb-26f7-49bc-8b60-b95a7ecaec07
NATIVE SON ALEHOUSE,RESTAURANT,ON,305 E 4TH ST #200,SANTA ANA,CA,92701,b8a5284a-16f1-45f2-82d0-0c57a0873d0f
HEALTHY JUNK PACKING HOUSE,RESTAURANT,ON,440 S ANAHEIM BLVD UNIT 209B,ANAHEIM,CA,92805,2290628e-babe-4e2e-9036-ac33fde68823
PUB AT DONNER LAKE THE,RESTAURANT,ON,15963 S SHORE DR,TRUCKEE,CA,96161,1f0f371d-10c3-4b75-904a-e94cf8b426ba
BARCHA,RESTAURANT,ON,425 MARKET ST,SAN FRANCISCO,CA,94105,860de114-62ae-4a39-92cd-cb1ed5c9ccdd
SUSHIHANA JAPANESE RESTAURANT,RESTAURANT,ON,1810 NW MILITARY,CASTLE HILLS,TX,78213,802aa3be-f484-4227-bad1-0c0d94431d4a
SMITH & MILLS,RESTAURANT,ON,10 W 50TH ST,NEW YORK,NY,10020,0e3a6902-7fe6-47d5-887c-2421c3f04442
AYA SUSHI,RESTAURANT,ON,5407 BELLAIRE BLVD STE A,BELLAIRE,TX,77401,effb3fb6-b424-4bd8-bac6-ae08e355b11c
HUSH KELLER INC,RESTAURANT,ON,211 S MAIN ST,KELLER,TX,76248,d5c793f6-ba70-44c9-a69e-ae1b0eb98d92
JACKSON S BAR & OVEN,RESTAURANT,ON,135 4TH ST STE #A,SANTA ROSA,CA,95401,157eb110-58b6-48d1-b067-bb456ced1d94
RED GRILL MEXICAN RESTAURANT,RESTAURANT,ON,1701 2ND AVE,NEW YORK,NY,10128,ced18070-58dd-4d86-930f-3a3327ad01fb
WILFRED S LOUNGE,RESTAURANT,ON,967 1ST ST,NAPA,CA,94559,5d24faa7-5394-4783-9319-c23f2e233d0a
MATHESON  THE,RESTAURANT,ON,106 MATHESON ST,HEALDSBURG,CA,95448,00174699-fa1e-4fbd-9d83-87510a478807
KAORI MIAMI,RESTAURANT,ON,871 S MIAMI AVE,MIAMI,FL,33130,d46a56c1-da50-4a67-8b94-fd0820a65969
TUTTI MANGIA GRILL,RESTAURANT,ON,102 HARVARD AV,CLAREMONT,CA,91711,53185667-b00e-4567-ab80-d2e3495591f0
ABSINTHE BRASSERIE & BAR,RESTAURANT,ON,388 & 394 & 398 HAYES ST,SAN FRANCISCO,CA,94102,03b1c65c-d540-4153-8be3-d9e1cd18cfae
HATCH YAKITORI,RESTAURANT,ON,700 W 7TH ST  STE G600,LOS ANGELES,CA,90017,b7504682-742f-4d19-807b-dd6f3433ead1
BOB S STEAK AND CHOP HOUSE,RESTAURANT,ON,5815 RIM PASS DR,SAN ANTONIO,TX,78257,f9b19f11-9422-40ef-b5e1-98cf80065eda
SANDBAR & GRILL,RESTAURANT,ON,MUNICIPAL WHARF #2,MONTEREY,CA,93940,e30c4a00-f77f-404f-94cf-b13fd8da1c7d
NATIVO,RESTAURANT,ON,5137 YORK BLVD,LOS ANGELES,CA,90042,68d4e19c-4d55-46af-b088-08bde7d16019
EMPRESS M LLC,RESTAURANT,ON,221 SILVERADO TRAIL,NAPA,CA,94559,a56588ed-17fc-49cc-a186-747ee55449f9
LAVA TUBE WAIKIKI INC,RESTAURANT,ON,2280 KUHIO AVE,HONOLULU,HI,96815,5607aa17-5286-49bf-bef6-b021cd823f30
ST JAMES GATE,RESTAURANT,ON,1410 OLD COUNTY RD,BELMONT,CA,94002,1e9ee4d7-a0d6-41d6-be14-d298fc59baf8
BASILICO,RESTAURANT,ON,6111 S BUFFALO DR STE 100,LAS VEGAS,NV,89113,1720c78a-cb2d-4bc5-9700-f7546b475762
SUSHI CHEF,RESTAURANT,ON,3100 CORAL WAY,MIAMI,FL,33145,d975825d-3393-406c-9f26-85c7ae3c3e91
MOTHERTONGUE/MINA,RESTAURANT,ON,960 N LA BREA AVE 4TH & 5TH FL,LOS ANGELES,CA,90038,f1a6a7f8-5b04-4aa4-98cf-cc6ad00f4d7e
VACATION,RESTAURANT,ON,204 W 4TH ST,SANTA ANA,CA,92701,e65b2f6f-bf64-4202-8168-bc0a019e8a61
A RESTAURANT,RESTAURANT,ON,3334 W COAST HWY,NEWPORT BEACH,CA,92663,9af2aba7-ab06-4749-b7f8-02298653decc
NAPKINS BAR & GRILL,RESTAURANT,ON,1001 2ND ST,NAPA,CA,94559,fa1c1e8d-7316-49a2-8f27-f3a1d17f72aa
SIX TEST KITCHEN,RESTAURANT,ON,3075 BLUE ROCK RD #B,PASO ROBLES,CA,93446,f13f015c-ecc7-43f3-9c4a-08cae42b6e4b
MARIGOLD CLUB,RESTAURANT,ON,2531 KUESTER STREET,HOUSTON,TX,77006,88832557-6aab-4d1a-a265-37201974b8c6
CELLA RESTAURANT AND BAR,RESTAURANT,ON,525 POLK STREET,MONTEREY,CA,93940,fd56d2b4-2bf3-4032-ad1f-1e12cbe68e13
SLATE BISTRO & CRAFT BAR,RESTAURANT,ON,4850 SANTA ROSA RD,CAMARILLO,CA,93012,f100514f-7dbc-4707-ab61-a1d0670144b2
GLASS BOX,RESTAURANT,ON,12841 EL CAMINO REAL #203-211,SAN DIEGO,CA,92130,bcab6fc3-dbd4-4fd8-9f9c-699fc50080dc
CAMPHOR,RESTAURANT,ON,923 E 3RD ST #109,LOS ANGELES,CA,90013,c079a1d2-a887-49f8-afd6-115300ac5b88
CARPE DIEM,RESTAURANT,ON,1001 2ND ST STE 185 & 165,NAPA,CA,94558,0b3c808a-3d1e-498f-82b9-60b6f6083bb9
CARMEL RESTAURANT,RESTAURANT,ON,7383 W MELROSE AV,LOS ANGELES,CA,90046,4fade2d2-635e-49a1-89a1-b9bdb6671bb8
ANGELE,RESTAURANT,ON,540 MAIN ST #B,NAPA,CA,94559,359fb0d7-fc90-41d3-a812-636706d4da04
KRU CONTEMPORARY JAPANESE,RESTAURANT,ON,3135 FOLSOM BLVD,SACRAMENTO,CA,95816,c96ee84f-0288-473f-bb4c-7bf423c1409d
TEDDY WONGS AND BUSHI BUSHI MARKET,RESTAURANT,ON,812 W ROSEDALE ST,FORT WORTH,TX,76104,edf91e95-ce10-4acb-9214-472b20d18c41
AVIARY,RESTAURANT,ON,712 K ST,SACRAMENTO,CA,95814,9530e467-2eef-4826-b9a3-67b26c49a85b
BASIL & WICKS,RESTAURANT,ON,3195 STATE ROUTE 28,NORTH CREEK,NY,12853,71d7a432-af28-471f-a966-f557c6c38aeb
FIDDLEHEAD BISTRO  THE,RESTAURANT,ON,33 BROADWAY,SARANAC LAKE,NY,12983,77f72c91-4507-42bb-b387-693f529b452c
AROI MAK MAK,RESTAURANT,ON,344 ORANGE ST,REDLANDS,CA,92374,beed24df-3e04-44eb-b0dc-5bbf8d76d49f
URBAN ROOTS BREWING,RESTAURANT,ON,1409 R ST STE #102,SACRAMENTO,CA,95814,e3914e7f-a40a-4e8b-bf6a-20663f4b3f39
ZIZIKI S,RESTAURANT,ON,4514 TRAVIS ST SUITE 122,DALLAS,TX,75205,c2fbecf8-b863-4e8a-ae08-0a4c3c03c5b7
SANTA FE STEAKHOUSE,RESTAURANT,ON,1918 S. 10TH STREET,MCALLEN,TX,78503,9bddd22e-7c7e-443e-a8a3-3743c7473e08
ASCEND PRIME STEAK AND SUSHI,RESTAURANT,ON,10400 NE 4TH STREET STE 3100,BELLEVUE,WA,98004,f60d1888-5dc6-487f-8136-69b96b4996c8
SENS,RESTAURANT,ON,4 EMBARCADERO CTR POD,SAN FRANCISCO,CA,94111,16ae6e46-b94f-4244-8e50-4096232e2f0f
AKASHI SUSHI FUSION CUISINE,RESTAURANT,ON,416 9550 Spring Green Boulevard,KATY,TX,77494,b175a073-1d97-4424-93a9-495048086f40
RISTORANTE LA TOSCANA,RESTAURANT,ON,3751 REDWOOD HWY,SAN RAFAEL,CA,94903,d2d9c8cf-a3aa-4ea5-a922-12e6a1b35d59
RESTAURANT SUSHI  SASA,RESTAURANT,ON,2401 15TH STREET STE 80,DENVER,CO,80202,04dc8594-5ba2-469f-9c92-dbcc72e59264
CHEESECAKE FACTORY-RM,RESTAURANT,ON,71800 HWY 111 #D-101,RANCHO MIRAGE,CA,92270,e95e2750-6329-4ef2-af2a-b2b9e7d31d73
PEARL DRAGON,RESTAURANT,ON,15229 SUNSET BL,PACIFIC PALISADES,CA,90272,effb090e-ae29-470a-b358-1ca4de30957c
GOLDEN TIKI,BAR/TAVERN,ON,3939 SPRING MTN RD,LAS VEGAS,NV,89102,c9e3fda7-3704-4458-a256-528d2910700c
TAO DOWNTOWN,BAR/TAVERN,ON,369 WEST 16 ST,NEW YORK,NY,10011,7b444f49-be37-45c4-9f13-8c2b2d6182d1
HOOCH,BAR/TAVERN,ON,301 E HOPKINS AVE SUITE 102,ASPEN,CO,81611,a7299bd1-7880-407b-829d-0ef067196320
DRIFTWOOD DOWNTOWN,BAR/TAVERN,ON,319 COLORADO STREET,AUSTIN,TX,78701,2284c3d8-6d7a-4000-ba49-49173e7082d1
MAISON MURA,BAR/TAVERN,ON,333 SE 3RD AVENUE,MIAMI,FL,33131,6dbf8f0f-60b0-4c0f-a73c-4d93f0b31746
ONEELEVEN HIFI LLC,BAR/TAVERN,ON,119 INGRAHAM ST,BROOKLYN,NY,11237,deb66f90-2e1a-4e9a-8364-06d409497119
APOTHEKE,BAR/TAVERN,ON,1141 BROADWAY,NEW YORK,NY,10001,ee81c203-d51b-4058-a077-b486afa1db0d
OYSTER HOUSE,BAR/TAVERN,ON,12446 MOORPARK ST,STUDIO CITY,CA,91604,7a9f019c-b136-4bab-8da9-0d1aa6009b9c
LAST RITES,BAR/TAVERN,ON,718 14TH ST,SAN FRANCISCO,CA,94114,68847f28-9b99-4dc9-a6b6-1f209bfa163b
ZUMA,BAR/TAVERN,ON,1 DALTON ST,BOSTON,MA,02199,0d8eb937-77ad-4edc-bae4-c248ac542cf0
LA COMPAGNIE WINE BAR/EXPERIME,BAR/TAVERN,ON,6 WEST 24TH ST,NEW YORK,NY,10010,414afe39-d039-4165-a7b6-0f0788155ade
FOLKLORE,BAR/TAVERN,ON,1226 3RD STREET,NAPA,CA,94559,862cafdc-ab73-40a0-b705-b8fd5dcab25c
REGIIS OVA,BAR/TAVERN,ON,6480 WASHINGTON ST,YOUNTVILLE,CA,94599,64c192d2-1bef-4bf7-b506-41ad7697590d
LE BAR A VIN    (ON),BAR/TAVERN,ON,380 SOUTH COUNTY ROAD,PALM BEACH,FL,33480,fd188826-2400-43ae-9497-42dbf64750a1
BELLY UP ASPEN,BAR/TAVERN,ON,450 S GALENA ST  #2,ASPEN,CO,81611,da0dea9f-7d19-4362-ae18-d625e1f0a9da
KEG N BOTTLE 5,BAR/TAVERN,ON,6380 DEL CERRO BL,SAN DIEGO,CA,92120,668ce0aa-95c3-43b5-b040-d470fd48ba82
LITTLE MORE,BAR/TAVERN,ON,111 READE ST,NEW YORK,NY,10013,5e78ce03-b723-4fff-a39a-f07e82ca5930
MARTINI BAR,BAR/TAVERN,ON,3450 NW 83 AVENUE,MIAMI,FL,33122,c22096e6-4398-48d3-8ca8-e7c3ea8c9188
BANDITS,BAR/TAVERN,ON,44 BEDFORD ST,NEW YORK,NY,10014,d8e8e63d-f025-49c6-98de-2658346059bc
CHESTNUT CLUB,BAR/TAVERN,ON,1348 14TH ST,SANTA MONICA,CA,90404,c19ac65d-6356-489f-ae8c-3b28f43949cb
RUN FOR THE ROSES,BAR/TAVERN,ON,1801 BLAKE ST STE 10,DENVER,CO,80202,00f20284-093f-465b-9d31-8786df7123b2
COOL CULINARY LLC,BAR/TAVERN,ON,119 ESSEX ST,NEW YORK,NY,10002,85ab856d-06f5-40b8-8875-40880dba189b
OUTER HEAVEN,BAR/TAVERN,ON,191 CHRYSTIE ST,NEW YORK,NY,10002,249a1a51-ae9c-415d-bc02-f93bfc845640
HURRICA RESTAURANT & BAR,BAR/TAVERN,ON,150 NORTHPOINT CT,REDWOOD CITY,CA,94063,a770a5d9-9085-4955-8405-db1b5effab9a
URBAN SMOKE,BAR/TAVERN,ON,3913 RICHMOND AVE,HOUSTON,TX,77027,e7bca100-ad6f-4b7c-81ac-8dffa4bb6ad2
SAKE SECRET,BAR/TAVERN,ON,460 PINE AVE,LONG BEACH,CA,90802,c9111828-8c41-4ef5-8a1d-ebb5aff27f2a
VERDUGO,BAR/TAVERN,ON,3408 VERDUGO RD,LOS ANGELES,CA,90065,c89bb554-7896-4fe9-a704-f2efb3094923
SPOON BAR,BAR/TAVERN,ON,219 HEALDSBURG AVE,HEALDSBURG,CA,95448,f63846e3-c811-4624-a23a-688190e82448
MARTINE,BAR/TAVERN,ON,647 SOUTH AVE,ROCHESTER,NY,14620,8da9c0c8-b610-4b4d-b877-b83ad9098fa3
JONES,BAR/TAVERN,ON,620 JONES STREET,SAN FRANCISCO,CA,94102,2b41cd92-2d33-4c63-b126-4a5a3499e14a
SHOYU RESTAURANT AND BAR,BAR/TAVERN,ON,38-40 PARK ST,ANDOVER,MA,01810,d1e305cc-bb95-4950-ac98-644071f75229
GOLDEN HOUR SOCIAL CLUB,BAR/TAVERN,ON,3282 NORTH TEJON ST SUITE 102,DENVER,CO,80211,15938afa-0e83-45a6-9138-f57ead51aa5f
LITTLE HOKKAIDO,BAR/TAVERN,ON,1504 G ST,ARCATA,CA,95521,f39aef69-e8af-4163-b44b-2c5bbcfa27dc
CLOVER CLUB,BAR/TAVERN,ON,210 SMITH ST,BROOKLYN,NY,11201,89f21708-eb67-4b25-97c6-fe2501eaa5fa
SOCO SOCIAL HOUSE,BAR/TAVERN,ON,209 1/2 COLORADO AVENUE,GRAND JUNCTION,CO,81501,57da739c-e5e3-4e5c-8a11-6376a96fd699
MILADY S,BAR/TAVERN,ON,160 PRINCE ST,NEW YORK,NY,10012,0ce4ce04-689a-4c52-b5bc-a6f57ba72c26
NEIGHBORHOOD WINE,BAR/TAVERN,ON,1257 W MAGNOLIA AVE,FORT WORTH,TX,76104,aa655f9d-4962-416d-8874-c406c6ea0ddc
BAR SNACK,BAR/TAVERN,ON,92 2ND AVE,NEW YORK,NY,10003,b146a2b1-8333-4ea5-a3c5-8b6fe29d0f40
VINOS ON LAS OLAS,BAR/TAVERN,ON,901 E LAS OLAS BLVD SUITE 103,FORT LAUDERDALE,FL,33301,3feb50f8-73f8-4d14-ac0c-16ab316cc85d
JACK S,BAR/TAVERN,ON,167 E TAYLOR ST,SAN JOSE,CA,95112,bd2fb5a8-b58a-4e73-a799-b84c4d49ba99
STARBOARD TACK,BAR/TAVERN,ON,2601 ATLANTIC ST,LAS VEGAS,NV,89121,839220cf-8ca2-494b-a30a-b0580f07e1ac
FRENCHIES BAR,BAR/TAVERN,ON,3476 2ND AVE.  NORTH,PALM SPRINGS,FL,33461,b059e7a5-31ed-465d-8813-b81fd5e7ea35
NICKEL CITY,BAR/TAVERN,ON,1133 E 11TH STREET,AUSTIN,TX,78702,2b08fc70-90f7-4bfa-b951-79de627f24ec
SPACE BISTRO,BAR/TAVERN,ON,323 UNION ST,ROCKLAND,MA,02370,4af8939c-0361-4f31-86ee-5733c4d22929
MR B S TAVERN,BAR/TAVERN,ON,5201 GEORGIA AVE,WEST PALM BEACH,FL,33405,d3a23f3d-e354-4eb2-b4bd-378c11eadb7c
MOG ASU WINE BAR,BAR/TAVERN,ON,1 BLACKFIELD DR STE 14,TIBURON,CA,94920,6b6e659c-970e-49e9-b63f-bd48ccf0b2f6
SPACE KARAOKE,BAR/TAVERN,ON,34 W 32ND ST,NEW YORK,NY,10001,2b8dbbc3-423f-4ead-aab6-eae78612ace6
PICCALILLI,BAR/TAVERN,ON,3850 MAIN ST #A,CULVER CITY,CA,90232,c196ab37-12e0-428f-a5be-f8cb4ed21ed7
CLARK S OYSTER BAR,BAR/TAVERN,ON,1200 W 6TH STREET SUITE A,AUSTIN,TX,78703,9f54c723-a514-4e33-9d97-ebc33612857e
MURRAYS TAVERN B,BAR/TAVERN,ON,2316 WEBBERVILLE RD,AUSTIN,TX,78702,a9ea1fd4-bff9-44ca-84ec-2f14bf3e2d38
COPPER & MALT - ON PREMISE,BAR/TAVERN,ON,5659 BAY ST,EMERYVILLE,CA,94608,ab673c26-9e43-44fc-a6e0-23a721ff4ac9
DANTE S HIFI,BAR/TAVERN,ON,519 NW 26 STREET,MIAMI,FL,33127,1be9775f-13cc-4a8b-ac38-dae4e7be3601
ARBARETUM AT NAPA VLLY DISTILL,BAR/TAVERN,ON,1149 1ST STREET,NAPA,CA,94559,f1f7949c-a5c6-4b04-a484-80810024a093
SHOJOS DOJO INC,BAR/TAVERN,ON,4233 SW 75 AVE,MIAMI,FL,33155,81f748a9-2325-4380-b093-8ef4d44b33b6
ITTOKU,BAR/TAVERN,ON,1815 MASSACHUSETTS AVE,CAMBRIDGE,MA,02140,1c21634f-4689-4393-9b9a-f0f4c7d0573c
NIGHT ON EARTH,BAR/TAVERN,ON,3256 CAHUENGA BLVD W,LOS ANGELES,CA,90068,18d2f174-24bb-4538-9a48-76e734b56edb
DJONS VILLAGE MRKT&ROOFTOP(ON),BAR/TAVERN,ON,249 5TH AVENUE,INDIALANTIC,FL,32903,1e0fef3a-a395-416b-9f77-f9851823fbb6
8 EIGHTY EIGHT,BAR/TAVERN,ON,118 W WILSHIRE AV,FULLERTON,CA,92832,10c2dab3-013c-43d3-bb51-0aa57fd0c8a7
WICKED WOLF THE,BAR/TAVERN,ON,2332 PACIFIC AVE,LONG BEACH,CA,90806,dc1406da-b23a-406e-984a-bd63b67dd3d0
LOUIE S,BAR/TAVERN,ON,55 STEVENSON ST,SAN FRANCISCO,CA,94105,b382a258-9217-4c96-b43b-7a9aeec842cf
BROKEN COMPASS TIKI,BAR/TAVERN,ON,2013 W BURBANK BLVD,BURBANK,CA,91506,9932f4e0-d844-4d05-88c6-43e2bdcab453
RELENTLESS BREWING AND SPIRITS,BAR/TAVERN,ON,2133 COLORADO BLVD,LOS ANGELES,CA,90041,f3991a28-01d0-47a1-8b99-ce78a4b5a33e
BLIND RABBIT,BAR/TAVERN,ON,440 S ANAHEIM BLVD  UNIT 104,ANAHEIM,CA,92805,9f174fbf-60a9-412d-9098-d957a5a40754
LA FINA,BAR/TAVERN,ON,27 MAIN ST,ANDOVER,MA,01810,51554a94-90dc-485d-afba-cb314d56a55c
LAST DROP TAVERN,BAR/TAVERN,ON,550 POWELL ST,SAN FRANCISCO,CA,94108,a7849721-67e8-4719-b217-34d0d0d81e18
MONKS CELLAR,BAR/TAVERN,ON,240 VERNON STREET,ROSEVILLE,CA,95678,feb3f966-1f57-4979-8d38-d2845e857c62
NAPA CIGARS,BAR/TAVERN,ON,1147 1ST ST,NAPA,CA,94559,d67991b5-0599-40d4-9ea1-235d5728253e
NATIVE SON RC,BAR/TAVERN,ON,8443 HAVEN AVE #189,RANCHO CUCAMONGA,CA,91730,a6b3b70e-d70c-4fc9-b395-7d62d5621f32
SUMMER PLACE THE,BAR/TAVERN,ON,801 BUSH ST,SAN FRANCISCO,CA,94108,492aa2b5-24c8-4dfa-a768-d66367085fb4
MASONS STEAKHOUSE,BAR/TAVERN,ON,1170 HANCOCK ST,QUINCY,MA,02169,bbec4ccb-5fed-45c7-ac62-66533b0189fe
BREW S BROTHERS BREW PUB,BAR/TAVERN,ON,3000 W OLIVE AV,BURBANK,CA,91505,5d283fe8-792b-45ee-8098-9d3530e7a5e7
THE BETH,BAR/TAVERN,ON,18 SHIPYARD DR STE 1K,HINGHAM,MA,02043,845e2f86-75ec-406c-898b-9013159403ee
CEVICHE TAPAS BAR AND REST,BAR/TAVERN,ON,332 BEACH DRIVE NE,SAINT PETERSBURG,FL,33701,4ad865af-998d-42da-a343-b2782a5ddb5a
FLAMINGO,BAR/TAVERN,ON,2315 K ST,SACRAMENTO,CA,95816,95c33dcb-59fb-4348-8308-ebdae56faa74
FAIR OAKS BREW PUB,BAR/TAVERN,ON,7988 CALIFORNIA AVE,FAIR OAKS,CA,95628,60bab08d-e3e5-4d56-96b0-d06e4c8d99ed
THE PRIZEFIGHTER,BAR/TAVERN,ON,6702 HOLLIS ST,EMERYVILLE,CA,94608,03e7173b-2644-41f6-947b-e7f3e4abe89d
LOCKED BARREL,BAR/TAVERN,ON,921 11TH STREET #A,SACRAMENTO,CA,95814,b5212caa-7ffd-44b7-acc3-45a9eb1a8d2f
BLOCK PETALUMA,BAR/TAVERN,ON,20 GREY ST,PETALUMA,CA,94952,2f7896a5-bb4e-4113-89f1-f577abdd97ae
EVERYWINE,BAR/TAVERN,ON,1111 HEIGHTS BLVD UNIT 2,HOUSTON,TX,77008,824133dd-d0ad-44a1-ad7c-5f5cddda07dc
PARADISO/BOTANIST/GOOD COMPANIONS,BAR/TAVERN,ON,308 N BISHOP AVENUE BUILDING 1 & 2,DALLAS,TX,75208,e7826d21-e086-4453-9764-79ecb46aaa2e
WASHINGTON SQUARE TAVERN,BAR/TAVERN,ON,714 WASHINGTON ST,BROOKLINE,MA,02446,06bc19e9-ef34-4c57-9919-058b37ec52f6
MOMOSAN,BAR/TAVERN,ON,80 CAUSEWAY ST,BOSTON,MA,02114,d07506c9-f4b3-4e8e-aece-a77c2bfb518c
FENG RESTAURANT,BAR/TAVERN,ON,191 WASHINGTON ST,HUDSON,MA,01749,404710dc-517e-4dde-8d75-82ef6e5e7ac6
APT 115 A,BAR/TAVERN,ON,2025 E 7TH STREET SUITE 115,AUSTIN,TX,78702,6b6a7687-a181-46eb-bf6d-5aed5ab9d021
RACE LANE LIQUORS,LIQUOR/PACKAGE STORE,OFF,21 RACE LN,EAST HAMPTON,NY,11937,bcca2dc9-d66e-4d23-84c0-6e6f6bb8761a
1936 WINE & SPIRITS,LIQUOR/PACKAGE STORE,OFF,65 E 34TH ST,NEW YORK,NY,10016,c3497f4d-deae-4408-a9c4-3a5e2589db3c
REMEDY LIQUOR,LIQUOR/PACKAGE STORE,OFF,138-44 101ST AVE,JAMAICA,NY,11435,4c098632-7d85-4ebb-a2e1-efd116d9a94f
SAKE ONO,LIQUOR/PACKAGE STORE,OFF,1000 BRICKELL AVENUE,MIAMI,FL,33131,92f493a8-84f9-40dc-ae23-10fe17de2205
GARY S LIQUORS KGB,LIQUOR/PACKAGE STORE,OFF,141 ESSEX ST,NEW YORK,NY,10002,5aea7b2a-c4c3-4d90-901a-5f97fd25183b
K & L (SPIRITS),LIQUOR/PACKAGE STORE,OFF,3005 EL CAMINO REAL,REDWOOD CITY,CA,94061,0ab54a52-342b-45a1-8188-80a1ab3ae077
BURGUNDY & WHITE WINE &LIQUOR,LIQUOR/PACKAGE STORE,OFF,1219 MADISON AVE,NEW YORK,NY,10128,7f35a4e9-862d-4e1f-8bf6-1d042ef83b5a
MORTON WILLIAMS WINE & SPIRITS,LIQUOR/PACKAGE STORE,OFF,260 PARK AVE S,NEW YORK,NY,10010,0655bd68-cc01-4eb4-b21c-a5063f576ca6
K & L (OFF),LIQUOR/PACKAGE STORE,OFF,3005 EL CAMINO REAL,REDWOOD CITY,CA,94061,bd63bc6d-3da8-4164-b98e-063df3ebb551
GRAND CRU WINE & SPIRITS,LIQUOR/PACKAGE STORE,OFF,555 WEST 42 ST UNIT 1,NEW YORK,NY,10036,a1433d5e-e7af-4db5-97d7-adc55781ba98
REMEDY LIQUOR,LIQUOR/PACKAGE STORE,OFF,1700 W GLENOAKS BLVD  UNIT B,GLENDALE,CA,91203,cdb4c1ed-6cf3-4739-899f-2aa34d22bf96
MARTIN BROTHERS WINE & SPIRITS,LIQUOR/PACKAGE STORE,OFF,2781 BROADWAY,NEW YORK,NY,10025,5ef08879-9d27-40ec-8be2-467d1755977c
OF GRAPE & GRAIN,LIQUOR/PACKAGE STORE,OFF,111 SOUTH MONARCH STREET,ASPEN,CO,81611,b221bc81-7fe4-43fe-8f0e-99a0b6c0c81c
K & L (WINE),LIQUOR/PACKAGE STORE,OFF,3005 EL CAMINO REAL,REDWOOD CITY,CA,94061,0fb14724-564e-42cf-9482-0e51be018cfa
COLUMBUS AVE WINE & SPIRITS,LIQUOR/PACKAGE STORE,OFF,730 COLUMBUS AVE,NEW YORK,NY,10025,00642015-81be-47cc-98db-3debacf58a87
FANCY FREE LIQUOR,LIQUOR/PACKAGE STORE,OFF,2001 W BURBANK BL,BURBANK,CA,91506,f597a421-8dde-4057-9dd7-32b77fc78c04
JENSEN S LIQUOR #2,LIQUOR/PACKAGE STORE,OFF,1516 NW 27TH AVE,MIAMI,FL,33125,9a8d84e0-4f8d-4447-a353-c1ad04f19d28
K & L WINE TASTING,LIQUOR/PACKAGE STORE,OFF,1400-1408 VINE ST,LOS ANGELES,CA,90028,558346b2-7b44-474d-815c-e900c9741f20
VINTAGE LIQUORS III,LIQUOR/PACKAGE STORE,OFF,300 SW 18 TERRACE #100,MIAMI,FL,33129,16d2bdd0-0465-4d87-a88e-df9853a8c6b1
HERBERT & RIST INC,LIQUOR/PACKAGE STORE,OFF,63 JOBS LANE,SOUTHAMPTON,NY,11968,f0131af6-4ef2-448e-b2a0-13a42efafe51
VAN WYCK LIQUORS,LIQUOR/PACKAGE STORE,OFF,52 MAPLE ST,CROTON ON HUDSON,NY,10520,73a45c58-1a74-46d5-9bf6-ba590d01172f
MANHATTAN VALLEY W & L CORP,LIQUOR/PACKAGE STORE,OFF,980 COLUMBUS AVE,NEW YORK,NY,10025,fcd5934c-fbfd-4d71-9a5b-df5012b73d13
Bullock s Wine & Spirits,LIQUOR/PACKAGE STORE,OFF,3612 Sandy Plains Rd,Marietta,GA,30066,6416617a-fbec-4531-af0f-2c081fc7929b
SOPRIS LIQUOR AND WINE,LIQUOR/PACKAGE STORE,OFF,1026 HWY 133,CARBONDALE,CO,81623,9d4d2189-1b40-43ad-866c-dc4ff2f3758a
CENTRAL PERK WINE & SPIRITS IN,LIQUOR/PACKAGE STORE,OFF,1420 6TH AVENUE,NEW YORK,NY,10019,3def4fb6-6ac3-43fa-bf5d-040c9a3c5669
HAMPTONS PALM BEACH,LIQUOR/PACKAGE STORE,OFF,257-A ROYAL POINCIANA WAY,PALM BEACH,FL,33480,9c8efe80-f2df-4e78-9c71-526058f12118
GROVE LIQUORS,LIQUOR/PACKAGE STORE,OFF,2991 SW 32ND AVENUE,MIAMI,FL,33133,5c8f47ab-4cea-4087-840e-62fd5fad50ee
AMBASSADOR WINES & SPIRITS,LIQUOR/PACKAGE STORE,OFF,1020 2ND AVENUE,NEW YORK,NY,10022,7ca410ae-527b-4dfb-9c92-b8a8efaa7826
BROADWAY SPIRITS INC,LIQUOR/PACKAGE STORE,OFF,299 BROADWAY,NEW YORK,NY,10007,89e0a647-6f1d-46d9-8f39-2e6136333da4
SPRING STREET WINE SHOP,LIQUOR/PACKAGE STORE,OFF,187 SPRING ST,NEW YORK,NY,10012,da7b1aa6-5617-4ad2-b3cc-36bfb40c0f1b
MY WINE & SPIRITS,LIQUOR/PACKAGE STORE,OFF,1895 SOUTH RD,POUGHKEEPSIE,NY,12601,4c25de54-0c6d-4ace-9759-f040551ba122
TNT Package Store,LIQUOR/PACKAGE STORE,OFF,5329 Holly Springs Pkwy,Holly Springs,GA,30188,5831a6a9-1241-4eb4-8914-b3cb66843d00
URBAN WINE & SPIRITS,LIQUOR/PACKAGE STORE,OFF,45 1ST AVENUE,NEW YORK,NY,10003,17759472-397d-41e4-8d4f-d9c3d0317965
LIQUOR LIBRARY@LAS TERMINAL 1,LIQUOR/PACKAGE STORE,OFF,5757 WAYNE NEWTON BLVD,LAS VEGAS,NV,89119,4776584c-fac4-4095-b054-0ed2a0deb98f
White Horse Wine & Spirits,LIQUOR/PACKAGE STORE,OFF,497 Highland Ave,Augusta,GA,30909,9cb913e9-8c38-4c6c-8028-60acac905d63
K & L WINE MERCHANT,LIQUOR/PACKAGE STORE,OFF,855 HARRISON ST,SAN FRANCISCO,CA,94107,c513fad5-ade9-4aaf-a648-0d0af0084ddd
ASPEN GROG SHOP,LIQUOR/PACKAGE STORE,OFF,710 E DURANT ST,ASPEN,CO,81611,533220e1-e732-460d-ac49-1672d90dce49
ADEGA WINE AND SPIRITS INC,LIQUOR/PACKAGE STORE,OFF,31-25 DITMARS BLVD,ASTORIA,NY,11105,d4de95ff-26f5-492a-9da6-09770d2da952
REMEDY LIQUOR,LIQUOR/PACKAGE STORE,OFF,6506 E HWY 90 ALT,SUGAR LAND,TX,77479,108de5b3-3800-479c-b2cb-a68e2e6634d1
LIQUOR & WINE WAREHOUSE,LIQUOR/PACKAGE STORE,OFF,3090 OCEAN AVE,BROOKLYN,NY,11235,f5ef0860-b553-47f4-a09f-305a7f565e4b
WINE GEMS,LIQUOR/PACKAGE STORE,OFF,495 NEW ROCHELLE RD,BRONXVILLE,NY,10708,f6b2760c-02dc-47ad-8e8f-e77ec2b0f8a5
LIQUOR WORLD INSPIRADA ON PREM,LIQUOR/PACKAGE STORE,OFF,2380 VIA INSPIRADA  STE 110,HENDERSON,NV,89044,d9aea21e-41cd-4f04-8d32-d2e78ea84bb5
SUSSEX WINE & SPIRITS,LIQUOR/PACKAGE STORE,OFF,768 2ND AVENUE,NEW YORK,NY,10017,00d0e381-4ad9-4c9f-a7f8-8ce024324dd6
G & I WINE & SPIRITS INC.,LIQUOR/PACKAGE STORE,OFF,48 WILLOUGHBY ST,BROOKLYN,NY,11201,a7683385-229e-46c4-90a0-53f2e2d590c5
WALLY S WAREHOUSE - OFF SALE,LIQUOR/PACKAGE STORE,OFF,10459 JEFFERSON BLVD,CULVER CITY,CA,90232,84a3ce22-7362-4b28-966f-ea4f9c45e545
STEW LEONARDS/WINES & SPIRITS,LIQUOR/PACKAGE STORE,OFF,1 STEW LEONARD DRIVE STORE 2,YONKERS,NY,10710,e51d7b46-7d72-4fdc-b91b-002bfb4e7cdc
BEVY S LIQUOR WORLD,LIQUOR/PACKAGE STORE,OFF,9749 S PARKER RD,PARKER,CO,80134,42c77638-a74f-4089-be81-84fb56563e00
BARREL TO BOTTLES WINE&SPIRITS,LIQUOR/PACKAGE STORE,OFF,1456 2ND AVE,NEW YORK,NY,10075,497e7723-08f8-4804-9a00-dc1250c83dfc
LANTANA LIQUORS,LIQUOR/PACKAGE STORE,OFF,300 W MANGO STREET,LANTANA,FL,33462,64645a8b-5cb7-4679-b89b-75e5075865bf
HB LIQUORS @ COSTCO,LIQUOR/PACKAGE STORE,OFF,20 STEW LEONARD DRIVE,YONKERS,NY,10710,0007b23d-90d3-4892-be1f-3c2e5d301e86
Hilltop Liquor Warehouse,LIQUOR/PACKAGE STORE,OFF,10820 Us Hwy 280,Ellabell,GA,31308,b4981edb-a9ec-4063-bf92-8371abc413c7
2704 S&A WINES & SPIRITS CORP,LIQUOR/PACKAGE STORE,OFF,42-14 CRESCENT ST,LONG ISLAND CITY,NY,11101,ae992bdf-e251-4981-be36-bf4cbe0bc36f
FLAGAMI LIQUORS LLC,LIQUOR/PACKAGE STORE,OFF,751-753 NW 37 AVENUE,MIAMI,FL,33125,2211485d-15b4-47df-a5c4-2f9786609f89
PORTOFINO WINE BANK,LIQUOR/PACKAGE STORE,OFF,500 SOUTH POINT DRIVE #110,MIAMI BEACH,FL,33139,39cf80eb-7baf-4d81-89ad-5372c350d632
BRICKELL WINE BANK,LIQUOR/PACKAGE STORE,OFF,950 BRICKELL BAY DRIVE #110,MIAMI,FL,33131,e01217cf-eb3e-46fb-b8c1-2bc8502d165b
GULF LIQUOR ON ALTON RD,LIQUOR/PACKAGE STORE,OFF,1681 ALTON ROAD,MIAMI BEACH,FL,33139,a1e84347-5d32-41ba-b0c3-d4e886dadbdb
ASPEN WINE & SPIRITS,LIQUOR/PACKAGE STORE,OFF,300 PUPPY SMITH ST,ASPEN,CO,81611,1409781f-7361-4f1a-b085-4db46c606d21
GREENPOINT WINE & LIQUORS,LIQUOR/PACKAGE STORE,OFF,89 NASSAU AVE,BROOKLYN,NY,11222,b81aa57c-d342-4785-852d-996c15be21b8
LEE S LIQUOR #8 EASTERN,LIQUOR/PACKAGE STORE,OFF,10935 S EASTERN AVE,HENDERSON,NV,89052,48a0b656-6f66-4613-8545-2f1ac9a12a27
111 LEX LIQUORS INC,LIQUOR/PACKAGE STORE,OFF,111 LEXINGTON AVE,NEW YORK,NY,10016,4bd97afb-d8a3-403f-9b99-6fbfa6fbaeb4
FINE SPIRITS,LIQUOR/PACKAGE STORE,OFF,5660 S FLAMINGO RD,COOPER CITY,FL,33330,f258e780-154e-4fc2-ad1a-1d7264b1b820
IBIS LIQUORS,LIQUOR/PACKAGE STORE,OFF,10130 NORTHLAKE BLVD,WEST PALM BEACH,FL,33412,a535e44d-718c-4e6c-888b-a40edeac57ec
Turtle Creek Wine & Spirits,LIQUOR/PACKAGE STORE,OFF,83 Exchange Lane Ste A,Behtlehem,GA,30620,116d6e8c-8795-465d-9dbc-d758ab17e9cd
VINTAGE LIQ & WINE BAR II,LIQUOR/PACKAGE STORE,OFF,3301 NE 1ST AVE,MIAMI,FL,33137,f4f57318-1f5b-4028-8f46-004f7c530a12
VALLEY LIQUOR,LIQUOR/PACKAGE STORE,OFF,2973 LOMA VISTA RD,VENTURA,CA,93003,3a1dd710-90bd-4b46-afc6-924e36bf5616
Ridgewalk Bottle Shop,LIQUOR/PACKAGE STORE,OFF,311 Ridgewalk Parkway,Woodstock,GA,30188,16d02f9d-8bf1-4f97-9495-2a4492c11923
FOUR DOGS FINE WINE & SPIRITS,LIQUOR/PACKAGE STORE,OFF,350 REED ST STE 218,BASALT,CO,81621,fb75d2b2-28e0-47e9-bf88-effc807ef4d1
Max Beverage,LIQUOR/PACKAGE STORE,OFF,928 Market Place Blvd,Cumming,GA,30041,dbba5a26-9b73-49c3-b96d-2d04ea8770bb
AZUL SPIRITS & WINE (ON),LIQUOR/PACKAGE STORE,OFF,1414 20TH STREET  #1412-1414,MIAMI BEACH,FL,33139,2708d337-5c5d-47a1-8fa4-0aaf02c9bb20
Liberty World Beverage,LIQUOR/PACKAGE STORE,OFF,3700 Village Way,Braselton,GA,30517,b386aeca-ca1a-470f-bee5-034d4f8ce330
The Beverage Superstore of Grayson,LIQUOR/PACKAGE STORE,OFF,2265 Loganville Hwy,Grayson,GA,30017,70461a71-b7f7-4537-b17d-bc8c1b8ea9f2
BOTTLE BARN,LIQUOR/PACKAGE STORE,OFF,3331 INDUSTRIAL DR #A,SANTA ROSA,CA,95403,2f9f332a-3615-46a5-be75-f00a6d63ac0c
The Grove Wine & Spirits,LIQUOR/PACKAGE STORE,OFF,1841 Walnut Grove Pkwy,Covington,GA,30014,c83d1a6e-7966-4abf-b9e7-78ef42439bab
Capitol City Package Store,LIQUOR/PACKAGE STORE,OFF,784 Collier Rd NW,Atlanta,GA,30318,94b56600-3953-49f1-b8f0-439e41a03934
Affordable Spirits Atlanta,LIQUOR/PACKAGE STORE,OFF,1151 Chattahoochee Ave,Atlanta,GA,30318,d471e345-ab16-4b8e-a463-fd076e4b460b
Kenny 18 Bottle Shop,LIQUOR/PACKAGE STORE,OFF,1989 Hosea L Williams Dr SE Ste C,Atlanta,GA,30317,2e3ae639-cac9-479d-87ec-98700c464a19
Barrel Town,LIQUOR/PACKAGE STORE,OFF,6300 Powers Ferry Rd Ste 500,Sandy Springs,GA,30339,a733f3a7-ddff-4fce-b55b-e6d895a68a39
Duncan Corners Bottle Shoppe,LIQUOR/PACKAGE STORE,OFF,7437 Spout Springs Rd,Flowery Branch,GA,30542,cc1a54ee-df08-4284-9a5d-3486cca9041f
ADI Shakti Trading 07 Inc,LIQUOR/PACKAGE STORE,OFF,Ste B 1116A GA Highway 30,Port Wentworth,GA,31407,9f0bb83a-4b26-4e59-8e6b-4d4765c56174
Pooler Spirits Warehouse,LIQUOR/PACKAGE STORE,OFF,1032 US Highway 80 W,Pooler,GA,31322,b6d01650-ad70-43ae-8b86-9963a671e657
Reliance Enterprises LLC,LIQUOR/PACKAGE STORE,OFF,Ste 110 100 Zoya Lane,Pooler,GA,31322,7975d55a-eaa6-4006-8b49-4a78c279c8c7
Liquor Depot,LIQUOR/PACKAGE STORE,OFF,903 N Veterans Blvd,Glennville,GA,30427,a7001863-74f5-4311-a3ef-0ce6ee853925
Liquor Land,LIQUOR/PACKAGE STORE,OFF,1009 Towne Center Blvd #10,Pooler,GA,31322,a31d1c5e-d2e2-466e-8e5a-e0d9d9d6b7f1
One Stop Liquor And Wine,LIQUOR/PACKAGE STORE,OFF,976 SE Broad St,Metter,GA,30439,c2dacbad-43fc-494a-a6b9-056f41c59866
Verunihi LLC,LIQUOR/PACKAGE STORE,OFF,3991 Ga Hwy 67,Pembroke,GA,31321,dc80adeb-385e-421e-9892-07e5fb944acb
Port City Spirit,LIQUOR/PACKAGE STORE,OFF,6 Magnolia Blvd,Port Wentworth,GA,31407,03c3d328-ca34-4e9d-9014-98a7b4b71cdc
Blue Mile WIne & Spirits LLC,LIQUOR/PACKAGE STORE,OFF,12 Brannen St,Statesboro,GA,30458,ed426533-48f6-4b7c-b149-f31b3667bf1a
Bootliquors  LLC,LIQUOR/PACKAGE STORE,OFF,2823 Northside Dr W,Statesboro,GA,30458,9dc6e18e-9c4d-47d8-b92f-08f7a7d6fe66
Whiskey Business,LIQUOR/PACKAGE STORE,OFF,1410 Northside Dr E,Statesboro,GA,30458,e8c343ab-a3ab-4bb9-b117-253f8b9f5a08
S Boro Liquors,LIQUOR/PACKAGE STORE,OFF,860 Buckhead Dr,Statesboro,GA,30458,3d731cfe-dd78-4019-9b81-35c073b835b8
SPEC S 061 WINE MAIN,LIQUOR/PACKAGE STORE,OFF,4970 US 290 WEST BLDG 6,AUSTIN,TX,78735,0a10405f-c4a2-4275-9f64-2d4aa5fd92b0
NEW YORK WINE EXCHANGE,LIQUOR/PACKAGE STORE,OFF,9 BROADWAY,NEW YORK,NY,10004,e8503646-db95-4ad9-a36b-20459af62b31
K & L MERCHANT,LIQUOR/PACKAGE STORE,OFF,855 HARRISON ST,SAN FRANCISCO,CA,94107,01e828de-5936-4f7a-aca7-b00932bf9156
NETCOST LIQUORS,LIQUOR/PACKAGE STORE,OFF,3161 AMBOY ROAD,STATEN ISLAND,NY,10306,1c50951c-e090-477c-8940-c908a3fad416
QWIK KORNER,LIQUOR/PACKAGE STORE,OFF,1170 E YORBA LINDA BLVD,PLACENTIA,CA,92870,e6228b2c-053d-4fc1-8e2d-b9b8ad23753e
BASECAMP WINE AND SPIRITS,LIQUOR/PACKAGE STORE,OFF,223 LUSHER CT UNIT 1,FRISCO,CO,80443,fb99f536-7cc7-47a7-b423-be5aca5ca786
HOUSE OF AMBROSE WINE/SPIRITS,LIQUOR/PACKAGE STORE,OFF,3331 BARHAM BL,LOS ANGELES,CA,90068,000ff7f4-f0e2-49c3-a5c2-06c8d64396f8
LEE S LIQUOR 118 BLUE DIAMOND,LIQUOR/PACKAGE STORE,OFF,4605 BLUE DIAMOND RD,LAS VEGAS,NV,89139,2b2a4d77-4111-4ee5-8af3-570fc5f2b8d6
SANTA MONICA LIQUOR,LIQUOR/PACKAGE STORE,OFF,1001 WILSHIRE BL,SANTA MONICA,CA,90401,d99016b0-8b6f-4c44-9f29-17cd32ed2fd3
SUPER DUPER LIQUOR,LIQUOR/PACKAGE STORE,OFF,614-B BELVEDERE RD,WEST PALM BEACH,FL,33403,9b0e6fad-6f1f-4301-a0b7-b7c146400037
K & L WINE MERCHANTS,LIQUOR/PACKAGE STORE,OFF,920 BING ST,SAN CARLOS,CA,94070,1fa9cc46-7f9b-409a-876c-34372553d4c9
THORNWOOD WINES & SPIRITS,LIQUOR/PACKAGE STORE,OFF,1004 BROADWAY,THORNWOOD,NY,10594,83c57385-61f1-496f-a2f3-8e1d4a75c422
WINE HOUSE,LIQUOR/PACKAGE STORE,OFF,2311 COTNER AV,LOS ANGELES,CA,90064,868c9fc9-128f-4104-9678-99f79a1c1c4e
Dacula Cork And Bottle,LIQUOR/PACKAGE STORE,OFF,2200 Hurricane Shola Rd,Dacula,GA,30019,f52753c0-c95b-4566-9ab7-0a2864b0cb1f
Browns Package Store,LIQUOR/PACKAGE STORE,OFF,2896 Browns Bridge Rd,Gainesville,GA,30504,136a4bc8-d741-439e-bb21-e834b76f2483
CENTRAL PARK FINE WINE & SPIRI,LIQUOR/PACKAGE STORE,OFF,2955 ULSTER STREET #101/102,DENVER,CO,80238,ae9ccf37-1485-435a-a1c3-6a497c299a33
LIQUOR WORLD LV WESTERN #112,LIQUOR/PACKAGE STORE,OFF,3301 WESTERN AVE,LAS VEGAS,NV,89109,ab958e05-d819-483f-a756-a1b4182f6bb4
NORMANDIE WINES,LIQUOR/PACKAGE STORE,OFF,1834 SECOND AVE,NEW YORK,NY,10128,64ed6774-258f-4cf3-aa1b-12ee1e278610
CAPPY S WAREHOUSE W & S INC,LIQUOR/PACKAGE STORE,OFF,670 MERRICK RD,LYNBROOK,NY,11563,15287997-2730-486a-8a8b-5b6ac2438050
MR D,LIQUOR/PACKAGE STORE,OFF,3020 NW 7TH AVE STE 2,MIAMI,FL,33127,31069dea-586f-461b-827d-41237f60291b
STAR LIQUORS,LIQUOR/PACKAGE STORE,OFF,11924 FOREST HILL BLVD #16,WELLINGTON,FL,33414,8e695cac-a64d-4d83-8723-2dbedd8508d9
BEST BUY LIQUORS,LIQUOR/PACKAGE STORE,OFF,1613 NEPTUNE AVE,BROOKLYN,NY,11224,cf2feb3d-1db4-4841-acab-01d020b0450f
KAPPY S FINE WINE & SPIRITS,LIQUOR/PACKAGE STORE,OFF,325 BENNETT HWY,MALDEN,MA,02148,05db7cea-db7d-4e62-9c11-36578b65e923
Dunwoody Beverage,LIQUOR/PACKAGE STORE,OFF,1418 Dunwoody Vilg Pkwy,Dunwoody,GA,30338,76d24ed6-e2af-44c6-a561-b421749c0652
SPEC S 000 WAREHOUSE WINE MAIN,LIQUOR/PACKAGE STORE,OFF,2410 SMITH ST,HOUSTON,TX,77006,bd1ca244-2a38-4f13-8447-d9cefbb94a3c
Om Kesari Inc,LIQUOR/PACKAGE STORE,OFF,1230 Dawsonville Hwy,Gainesville,GA,30501,06c393e6-7c5a-4676-9571-36eabffe1e6e
SCHUMER S WINES & LIQUORS,LIQUOR/PACKAGE STORE,OFF,59 E 54TH ST,NEW YORK,NY,10022,5f93772c-f3ae-411c-879e-5b22f188f180
RED HILL LIQUOR,LIQUOR/PACKAGE STORE,OFF,3302 E CHAPMAN AV,ORANGE,CA,92869,96fa0ddd-19bc-4a27-8d2f-9302cbea4314
Village Spirits,LIQUOR/PACKAGE STORE,OFF,5462 McEver Rd,Flowery Branch,GA,30542,996f71e9-f58b-43c1-b77f-1252696d3cc5
The Bottle Shop (New),LIQUOR/PACKAGE STORE,OFF,1510 Eatonton Rd,Madison,GA,30650,ab5a2963-1d33-41d8-9c48-495e5fa042f3
ALEX DISCOUNT LIQUOR&WINE CORP,LIQUOR/PACKAGE STORE,OFF,1645 86TH ST,BROOKLYN,NY,11214,27f9777e-f813-4d3b-b6a5-bcf5bad6e113
Savannah World of Beverages,LIQUOR/PACKAGE STORE,OFF,1900 Benton Blvd  Ste 101,Savannah,GA,31407,551d9268-bb03-4b04-a60b-19819a151b7a
KAPPY S FINE WINE & SPIRITS FA,LIQUOR/PACKAGE STORE,OFF,21 SPRING ST,FALMOUTH,MA,02540,5269cde2-37a8-413a-95b9-95c08423dbd5
WINE EMPORIUM I,LIQUOR/PACKAGE STORE,OFF,607 TREMONT ST,BOSTON,MA,02118,c675ba48-cb71-43ce-904b-a29e1ad630cc
AAIRA LIQUORS A,LIQUOR/PACKAGE STORE,OFF,30668 ALDINE WESTFIELD RD STE C,SPRING,TX,77386,b9cb5b5b-52a1-4c02-b669-d02d2feba2e6
Stevens Creek Spirits,LIQUOR/PACKAGE STORE,OFF,1061Stevens Creek Rd,Augusta,GA,30907,ff02731a-279d-49da-995e-2e3c012cda4e
SALUTE MARKET,LIQUOR/PACKAGE STORE,OFF,5530 PGA BLVD,PALM BEACH GARDENS,FL,33410,099cc1cd-cd17-4f36-8101-94dad02c6874
Beyond Water Wine & Spirits,LIQUOR/PACKAGE STORE,OFF,991 Thornton Rd,Lithia Springs,GA,30122,cf6e8ca1-a7f2-4bfe-a9a6-45f521b4b011
SENDSIPS,LIQUOR/PACKAGE STORE,OFF,736 1ST STREET,BENICIA,CA,94510,ab4bc2d0-46c2-4ae0-98f9-919ab6b4224a
WILIBEE S WINE & SPIRITS,LIQUOR/PACKAGE STORE,OFF,309 LAKEVILLE ST,PETALUMA,CA,94952,5e24cdd1-a57b-4f28-b73f-43c67da5834c
365 Superstore,LIQUOR/PACKAGE STORE,OFF,3840 State Hwy 365,Alto,GA,30510,3edf83d8-c168-43e6-b88f-a8070406eab6
Hometown Spirits  (SKS),LIQUOR/PACKAGE STORE,OFF,4856 Hog Mountain Rd,Flowery Branch,GA,30542,745a40ed-3fbd-46da-8d1a-4a466d1d6ab6
CAI S WINES & LIQUORS INC,LIQUOR/PACKAGE STORE,OFF,254-23 NORTHERN BLVD,LITTLE NECK,NY,11362,98d65aa0-000a-472d-8efa-1ed453e08a0b
KAPPY S FINE WINE & SPIRITS,LIQUOR/PACKAGE STORE,OFF,10 REVERE BEACH PKWY,MEDFORD,MA,02155,c82a09a8-f1dd-437d-bcda-e535dccf8c32
KAPPY S FINE WINE & SPIRITS,LIQUOR/PACKAGE STORE,OFF,746 MAIN ST,MALDEN,MA,02148,35d09967-b0db-49c5-895c-b2f7635a9b5e
KAPPY S FINE WINE & SPIRITS,LIQUOR/PACKAGE STORE,OFF,175 ANDOVER ST,PEABODY,MA,01960,c0fa795c-fdd0-4480-93d3-20f07db1dce2
KAPPY S FINE WINE & SPIRITS,LIQUOR/PACKAGE STORE,OFF,158 ANDOVER ST,DANVERS,MA,01923,33f910f7-b47a-40a1-bc82-e5d322a9708f
TOTAL BEVERAGE WESTMINSTER,LIQUOR/PACKAGE STORE,OFF,9359 SHERIDAN BOULEVARD,WESTMINSTER,CO,80031,47605017-3e99-42ba-bb82-e859e8d8a1d7
KAPPY S FINE WINE & SPIRITS,LIQUOR/PACKAGE STORE,OFF,220 WHALON ST,FITCHBURG,MA,01420,73ade2d6-16ec-4481-9002-1a1fb618a50c
Green s Northeast,LIQUOR/PACKAGE STORE,OFF,2614 Buford Hwy NE,Atlanta,GA,30324,e8e76913-922f-4a66-ba29-b79d78c041a0
KAPPY S FINE WINE & SPIRITS,LIQUOR/PACKAGE STORE,OFF,104 WASHINGTON ST,NORWELL,MA,02061,f446830f-2ac9-4eb9-8e06-4dea214d0ae7
55TH STREET LIQUORS,LIQUOR/PACKAGE STORE,OFF,50 WEST 55 ST,NEW YORK,NY,10019,537748d5-79a5-47ed-b5c8-9a9ba33eeb4a
Village Spirit Shoppe,LIQUOR/PACKAGE STORE,OFF,100 Moonlight Ln  Ste B,Pooler,GA,31322,13274dc0-4eea-40ac-a516-ce52c6be4d03
TODAY S LIQUOR,LIQUOR/PACKAGE STORE,OFF,333 N VERDUGO RD,GLENDALE,CA,91206,c429deb5-5479-4ea5-a1c3-a4b8787e6ef9
KAPPY S FINE WINE & SPIRITS,LIQUOR/PACKAGE STORE,OFF,333 IYANNOUGH RD,HYANNIS,MA,02601,6c43d079-f3d0-4ca1-9a38-0b964b53d443
CENTRAL PARK LIQUOR OF STEAMBO,LIQUOR/PACKAGE STORE,OFF,1835 CENTRAL PARK DRIVE,STEAMBOAT SPRINGS,CO,80487,f8471795-6534-4726-a61a-2d348f4e774d
KAPPY S FINE WINE & SPIRITS,LIQUOR/PACKAGE STORE,OFF,216 BORDER ST,E BOSTON,MA,02128,c8cc6635-8ad8-421c-9d63-7807848a304d
CHIP S LIQUOR,LIQUOR/PACKAGE STORE,OFF,1924-26 GARNET AVE,SAN DIEGO,CA,92109,a1367c39-1e6a-487e-a0e7-bf126723666b
Parker s Spirits,LIQUOR/PACKAGE STORE,OFF,8 N Godley Station Blvd,Pooler,GA,31322,72996573-bc60-4b20-9e91-4124325925a2
EVERGREEN DISCOUNT LIQUORS,LIQUOR/PACKAGE STORE,OFF,3847 EVERGREEN PARKWAY,EVERGREEN,CO,80439,1005c264-e239-44d9-b6c6-403a876ccc06
FRISCO LIQUORS,LIQUOR/PACKAGE STORE,OFF,416 EAST MAIN STREET UNIT 5,FRISCO,CO,80443,d384d977-a608-47f0-989d-c784e0ef1a22
Canton Wine & Spirits Warehouse,LIQUOR/PACKAGE STORE,OFF,2017 Marietta Highway,Canton,GA,30114,2e857120-4dc3-4f74-9eec-6665bba90c18
SENNETT STILL AND BARREL,LIQUOR/PACKAGE STORE,OFF,354 GRANT AVE,AUBURN,NY,13021,3c267ee7-e3e5-43c3-a78b-052890b53abf
SAG HARBOR LIQUOR STORE,LIQUOR/PACKAGE STORE,OFF,52 MAIN ST,SAG HARBOR,NY,11963,53383a5c-2d21-4d27-bd28-4dfb8412e83c
WINE HUT CORP  THE,LIQUOR/PACKAGE STORE,OFF,197 6TH AVE,NEW YORK,NY,10014,32000e37-9d22-4fdd-ba90-dffb727a00fa
LEDGER S LIQUOR STORE,LIQUOR/PACKAGE STORE,OFF,1399 UNIVERSITY AVE,BERKELEY,CA,94702,a7bfa275-91fd-47fb-9a49-f5ba9dd9a332
RIVIERA LIQUORS,LIQUOR/PACKAGE STORE,OFF,2401 COLLINS AVE,MIAMI BEACH,FL,33140,c82c8b29-5c97-4743-ae0f-2d81837d10b3
NEW EHRLICH WINE & LIQUOR,LIQUOR/PACKAGE STORE,OFF,222 AMSTERDAM AVE,NEW YORK,NY,10023,5dfdf1d1-d237-4e77-bfee-9873fd65d728
HAPPY LIQUORS,LIQUOR/PACKAGE STORE,OFF,40-40 COLLEGE POINT BLVD,FLUSHING,NY,11354,d96cf86a-047c-41eb-9e86-ed01fba4d6ef
Lakeside Package,LIQUOR/PACKAGE STORE,OFF,6168 Gaines Ferry Rd Ste 1&2,Flowery Branch,GA,30542,298abff6-400b-4dfe-bc63-ba61ec0ca7c0
LIQUOR UP & WINE DOWN,LIQUOR/PACKAGE STORE,OFF,383 1ST AVE,NEW YORK,NY,10010,cee1f2d0-e3de-4c9a-b927-083c434a253d
Newnan Bottle Shop,LIQUOR/PACKAGE STORE,OFF,937 Lower Fayetteville Rd,Newnan,GA,30263,876c045d-42a8-4d75-9665-0f26a00fcde7
PRINCE STREET WINE & LIQUOR,LIQUOR/PACKAGE STORE,OFF,37-20 PRINCE STREET STORE #1B,FLUSHING,NY,11354,b890fb16-5804-4dcd-93ca-95fb66b01c8f
ROYAL LIQUORS,LIQUOR/PACKAGE STORE,OFF,3144 WILLIAMS RD,SAN JOSE,CA,95117,5b07a0c4-fbfa-4779-ab9b-660d4c88e818
QC Party Store,LIQUOR/PACKAGE STORE,OFF,711-B Industrial Blvd,Gainesville,GA,30501,6ad08465-cc71-4453-a995-f53479b48d20
OUTBACK LIQUORS,LIQUOR/PACKAGE STORE,OFF,113 S ELIZABETH,ELIZABETH,CO,80107,f4dd7a1e-6e6f-4b21-81a8-cba65a3fee7d
KAPPY S FINE WINE & SPIRITS,LIQUOR/PACKAGE STORE,OFF,580 WILLIAM S CANNING BL,FALL RIVER,MA,02721,031f3118-4aed-448b-a516-ac4671236f6b
SPEC S 221 WINE MAIN,LIQUOR/PACKAGE STORE,OFF,19000 LIMESTONE COMMERCIAL DR,PFLUGERVILLE,TX,78660,487b91e1-7c1b-45bb-8d84-e1383c5cf342
WINE & SPIRITS DISCOUNT WAREHO,LIQUOR/PACKAGE STORE,OFF,8 JOYCE RD STORE 2,NEW ROCHELLE,NY,10801,74408e01-5bf1-42d1-9e1e-c0df16afb045
Atlanta Hwy Package,LIQUOR/PACKAGE STORE,OFF,1652 Atlanta Hwy,Gainesville,GA,30504,65c3e3af-34cf-4057-a504-bd080b8167c6
STONY BROOK WINE & LIQUOR INC,LIQUOR/PACKAGE STORE,OFF,2192 NESCONSET HGWY,STONY BROOK,NY,11790,7d9fed55-1fad-47a1-a05d-b0d33d41cdc8
Jax Beverage Superstore Conyers,LIQUOR/PACKAGE STORE,OFF,1897 Hwy 20 SE,Conyers,GA,30013,98425b5e-6b46-48c4-9ea5-676022205e2c
Drip and Drop,LIQUOR/PACKAGE STORE,OFF,11289 Highway 92,Woodstock,GA,30188,65ceb283-8d83-48e3-8aef-cace2ba8e7e9
BOSS LIQUOR,LIQUOR/PACKAGE STORE,OFF,5781 EAST 128TH AVENUE #160,THORNTON,CO,80602,35c49200-cdaa-485f-8ca5-64f2fdb2f2f4
KAKAAKO WINE LLC,LIQUOR/PACKAGE STORE,OFF,2915 KAIHIKAPU ST SUITE 102,HONOLULU,HI,96819,578621c5-4d2f-4282-a696-025b500a4e32
SEAHOLM WINES & LIQUORS,LIQUOR/PACKAGE STORE,OFF,132 136 WALL STREET,HUNTINGTON,NY,11743,d1d40b3c-f486-4ccf-83fb-8a195ec6dd22
305 WINES LLC,LIQUOR/PACKAGE STORE,OFF,8233 S DIXIE HIGHWAY,MIAMI,FL,33143,b18b20b8-faf7-4689-8812-49c1c8a73751
CIRCUS LIQUOR,LIQUOR/PACKAGE STORE,OFF,5600 VINELAND AV,NORTH HOLLYWOOD,CA,91601,80b66fe0-4309-4391-8aa2-55af34337d8a
AB Liquor Store,LIQUOR/PACKAGE STORE,OFF,1901 Manchester Expressway Ste B,Columbus,GA,31904,515760f1-e944-4ef6-909f-3b25e6939165
Guyton Liquors LLC,LIQUOR/PACKAGE STORE,OFF,109 W Central Blvd,Guyton,GA,31312,64c0038f-f0b2-40ea-b3e8-2347e659e233
Peach State Bottle Shop,LIQUOR/PACKAGE STORE,OFF,3260 Maysville Rd,Commerce,GA,30529,2828a8ac-5ef2-445f-aa54-5bc38be14a60
ARGONAUT WINE & LIQUOR STORE I,LIQUOR/PACKAGE STORE,OFF,760 E COLFAX AVE,DENVER,CO,80203,729e3376-1054-42c8-8772-0d4756d52d78
Lilburn Package Store  **CLOSED**,LIQUOR/PACKAGE STORE,OFF,501 Indian Trail Rd,Lilburn,GA,30047,5022688d-0a4c-4ad2-a265-0c5ceb4e0213
Hops  Grains & Vine (GHOMST),LIQUOR/PACKAGE STORE,OFF,3997 Dallas Hwy SW #600,Marietta,GA,30064,a1b88f4f-d056-4387-9b8b-14a9e1b50a7f
Beverage Vault,LIQUOR/PACKAGE STORE,OFF,109 Bullsboro Dr,Newnan,GA,30263,4afb1e9d-5726-4365-bab2-474caf6b33c6
Savi - Emory,LIQUOR/PACKAGE STORE,OFF,1593 N Decatur Rd NE,Atlanta,GA,30307,90758b40-f470-4849-b132-2875bc40d21c
Bottoms Up Beverages,LIQUOR/PACKAGE STORE,OFF,11950 Jones Bridge Rd Ste 113,Johns Creek,GA,30005,b203652e-7836-4431-adf7-488948f63b53
Beverage Haven,LIQUOR/PACKAGE STORE,OFF,2014 Powers Ferry Rd SE Ste 500,Atlanta,GA,30339,9302837c-dffc-49d9-bd47-ec29b2b09e8e
Beverage Mart,LIQUOR/PACKAGE STORE,OFF,3482 Cobb Pkwy NW,Acworth,GA,30101,58bfa475-ef2e-4b87-879d-5757abb97496
Sweetwater Package **CLOSED**,LIQUOR/PACKAGE STORE,OFF,3900 Peachtre Ind l Blvd,Duluth,GA,30096,17d971b2-23bf-498a-876b-ac98c53e5369
124 Package (Lithonia),LIQUOR/PACKAGE STORE,OFF,7980 Rockbridge Rd,Lithonia,GA,30058,705d971f-be72-40ea-bda8-a45cf6befebe
BT Cartersville,LIQUOR/PACKAGE STORE,OFF,20 Apex Dr. SW,Cartersville,GA,30121,5011cc12-641e-4107-a0e4-95c632ec1a32
Riverstone Beverage,LIQUOR/PACKAGE STORE,OFF,1554 Riverstone Pkwy Ste 100,Canton,GA,30114,d100d5b2-db10-456e-b453-0f418cea2900
J & J Beer Wine Liquor,LIQUOR/PACKAGE STORE,OFF,1590 Hudson Bridge Rd,Stockbridge,GA,30281,42ce2aee-687e-41bb-bf78-8600942dd2d9
Eddi s Package Store,LIQUOR/PACKAGE STORE,OFF,3815 Flat Shoals Pkwy Ste A,Decatur,GA,30034,7769d510-c130-41c7-b19d-95f2b9ea08b3
Wine & Spirits,LIQUOR/PACKAGE STORE,OFF,1694 Whittlesey Rd Ste A,Columbus,GA,31904,560a6200-626c-497a-ae1f-8fc2f2c5126b
Big Man Package Store,LIQUOR/PACKAGE STORE,OFF,2594 Candler Rd.,Decatur,GA,30034,1d5b9669-ad5e-430a-9df9-337718fe1214
ALPINE WINE & SPIRITS,LIQUOR/PACKAGE STORE,OFF,2109 N FRONTAGE RD #H,VAIL,CO,81657,9470d765-a7dd-4456-b544-46763c49ac15
TOP SHELF W/S MJRA,LIQUOR/PACKAGE STORE,OFF,6795 W TROPICANA AVE STE 130,LAS VEGAS,NV,89103,83f69262-3527-4d58-b171-11c01b953b1a
WAGON WHEEL LIQUORS,LIQUOR/PACKAGE STORE,OFF,30 TOWN PLAZA,DURANGO,CO,81301,67bd88ac-f7cf-480e-b26f-c4ac98292a29
SIERRA MART AND LIQUOR,LIQUOR/PACKAGE STORE,OFF,5245 VISTA BOULEVARD SUITE F-2,SPARKS,NV,89436,a074aa4c-d79f-4b86-a4ca-7ac206a08473
MOUNTAIN MOON SHINE,LIQUOR/PACKAGE STORE,OFF,2812 COLORADO BLVD,IDAHO SPRINGS,CO,80452,2aac2520-e928-47a6-9983-2a1dc79e630a
Gwinnett Package Store,LIQUOR/PACKAGE STORE,OFF,3035 Pleasant Hill Rd,Duluth,GA,30096,0a326c67-88fd-4345-952a-34d737310027
Suwanee Pkg Store,LIQUOR/PACKAGE STORE,OFF,3063A LAWRENCEVILLE SUWANEE RD,Suwanee,GA,30024,05a53ce6-26c4-4f98-9d87-e0ac34a6dd6c
MASHBILL WINE AND SPIRITS,LIQUOR/PACKAGE STORE,OFF,24 AVENUE C,NEW YORK,NY,10009,1bb0abe1-7322-4377-9351-2610d7f769e0
Jax Package Store,LIQUOR/PACKAGE STORE,OFF,2754 E College Ave,Decatur,GA,30030,5f6ae5c6-1033-4998-b95d-3fdba8e15d88
Bootleggers Package Store,LIQUOR/PACKAGE STORE,OFF,5782 W Oglethorpe Hwy,Walthourville,GA,31333,b56b2b0e-f60c-43a8-96e9-9c1378b9ad60
VSZ Liquores LLC,LIQUOR/PACKAGE STORE,OFF,1349 Harris Trail Rd,Richmond Hill,GA,31322,bb0c86ce-7f13-411e-8c82-fc7250c2ea73
M and S Liquor Store,LIQUOR/PACKAGE STORE,OFF,2367 Ga Hwy 196 W,Hinesville,GA,31313,77b23c01-469f-4e05-8660-1af25e58c901
B & B Package Shop,LIQUOR/PACKAGE STORE,OFF,4630 US Hwy 80 E,Ellabell,GA,31308,ac39b2ac-e3c2-4ef8-ab49-15445c1d52de
County Line Pkg Shop,LIQUOR/PACKAGE STORE,OFF,RR 1 Box 272,Metter,GA,30439,b7b2657e-adbe-4a07-9a4b-58bcdd83bef8
Richmond Hill Liquor(Brown Bag),LIQUOR/PACKAGE STORE,OFF,9701 Ford Ave,Richmond Hill,GA,31324,519c6e76-0d6f-455c-9f50-4c80ba14894a
SPEC S 071 WINE MAIN,LIQUOR/PACKAGE STORE,OFF,3902 BISSONNET,HOUSTON,TX,77005,802ca8cf-b1ff-4139-854b-2578f8a904db
SPEC S 053 WINE MAIN,LIQUOR/PACKAGE STORE,OFF,8416 KATY FREEWAY,SPRING VALLEY,TX,77024,a0461a1f-ebd6-4aaf-ae6d-bd3af208b719
MARTINIS FINE WINE & SPIRITS,LIQUOR/PACKAGE STORE,OFF,81650 OVERSEAS HWY UNIT A,ISLAMORADA,FL,33036,f051d349-4931-43a5-8f80-0375a8fc379f
VINYA WINE AND MARKET,LIQUOR/PACKAGE STORE,OFF,328 CRANDON BLVD UNITS 122-123,KEY BISCAYNE,FL,33149,4c5308c9-07ba-4073-9a8d-07d437a76bb0
FRANKS LIQUOR & MARKET,LIQUOR/PACKAGE STORE,OFF,10559 SANTA MONICA,WEST LOS ANGELES,CA,90025,7af622f8-9dc7-4e84-b940-8a0dd7120b96
LEE S LIQUOR #16 BOCA,LIQUOR/PACKAGE STORE,OFF,780 S RAMPART,LAS VEGAS,NV,89145,03f9dedc-e8b3-48b2-95cf-a237e272a064
SUNNY S LIQUOR,LIQUOR/PACKAGE STORE,OFF,5603 HWY 67 EAST,ALVARADO,TX,76009,cb052085-bcb7-42ab-a7af-87291689fe97
BEVERLY LIQUOR,LIQUOR/PACKAGE STORE,OFF,8253 W 3RD ST,LOS ANGELES,CA,90048,0fff1ab7-706e-44cb-aff7-793f72ba4518
MARUICHI JAPANESE FOOD AND DEL,LIQUOR/PACKAGE STORE,OFF,306 HARVARD ST,BROOKLINE,MA,02446,65d76052-1010-4e05-ad84-e6ee948cbbae
EMILIOS BEVERAGE WAREHOUSE,LIQUOR/PACKAGE STORE,OFF,17251 LAKEWOOD BL,BELLFLOWER,CA,90706,89001e2f-1adb-4bb7-a4a5-a709f00b8431
LIQUOR LIBRARY,LIQUOR/PACKAGE STORE,OFF,7433 OAKMONT BLVD,FORT WORTH,TX,76132,b5a3d3b6-13c8-4230-ac2c-14453effef4c
COSTA MESA WINE & SPIRITS,LIQUOR/PACKAGE STORE,OFF,891 BAKER ST #B1,COSTA MESA,CA,92626,f6ee92b9-f409-4042-bea7-2897eaa1efb3
J & J SPIRIT SHOP,LIQUOR/PACKAGE STORE,OFF,199 RAILROAD AVE,SAYVILLE,NY,11782,8cdc125f-f797-4af7-b0a7-afb471dcbf42
JAY S WINE & SPIRITS,LIQUOR/PACKAGE STORE,OFF,1702 PRESIDENT AVE,FALL RIVER,MA,02720,9f4b5d13-9fad-480b-8ba5-1583e21fa4c0
WALDEN LIQUORS,LIQUOR/PACKAGE STORE,OFF,18 WALDEN ST,CONCORD,MA,01742,d0877192-6c62-4210-934e-b9e5f433b6e1
HARBORSIDE WINE & SPIRIT,LIQUOR/PACKAGE STORE,OFF,109 FRONT ST,SCITUATE,MA,02066,e92dd521-1960-4270-b5e9-919e8dbd7458
JULIO S LIQUORS INC,LIQUOR/PACKAGE STORE,OFF,140 TURNPIKE RD,WESTBORO,MA,01581,7ebe5a2f-d4d5-45f3-8b96-2dfb675e2d61
COLONIAL SPIRITS,LIQUOR/PACKAGE STORE,OFF,BOX 2350 87 GREAT RD,ACTON,MA,01720,d7fd5c21-45ad-4ea3-abe9-ee7258375c42
ACTON WINE & SPIRIT CO,LIQUOR/PACKAGE STORE,OFF,305 MAIN ST  RTE 27,ACTON,MA,01720,2319eda5-d36c-49a3-a723-e3ae990afc25
129 Package Store,LIQUOR/PACKAGE STORE,OFF,2126 Athens Hwy,Gainesville,GA,30507,ed74a6ad-5e4a-4c2c-b70d-5ae217e2a4a2
Summit Stores,LIQUOR/PACKAGE STORE,OFF,1920 GA Hwy 18,West Point,GA,31833,eabe0eea-cef8-4fd6-b6ac-cca87844896a
Nitro 2 Go Beverages,LIQUOR/PACKAGE STORE,OFF,9135 Martin Luther King Jr Ave,Covington,GA,30014,e32f9018-021c-478d-a7d5-a49301232af4
FISHERS LIQUOR BARN,LIQUOR/PACKAGE STORE,OFF,2438 PATTERSON ROAD,GRAND JUNCTION,CO,81505,b4a2a1b1-3967-424e-b12d-fdcd3cdd455b
CAMPUS WEST LIQUOR DEPOT,LIQUOR/PACKAGE STORE,OFF,1107 CITY PARK AVENUE,FORT COLLINS,CO,80521,b2d904e6-08a2-493d-a53b-ffc5fcbfbcaf
GA World Of Beverage,LIQUOR/PACKAGE STORE,OFF,8455 Senoia Rd,Fairburn,GA,30213,dc7335cc-0977-4ca8-84c7-170048a6437b
Max s Bottle Shop,LIQUOR/PACKAGE STORE,OFF,6395 Mcginnis Ferry Rd,Johns Creek,GA,30005,6f2164a1-7135-40c6-9667-524f53be1b83
Westside Bottle Shop,LIQUOR/PACKAGE STORE,OFF,3685 Atlanta Hwy,Athens,GA,30606,27ba62ba-8551-4992-bcc1-77f0ee43935d
Bankhead Beverage,LIQUOR/PACKAGE STORE,OFF,1595 Bankhead Hwy,Carrollton,GA,30116,7667a82c-4d18-4b6e-9a12-da62dd2ea737
MONDO VINO,LIQUOR/PACKAGE STORE,OFF,3601 W 32ND AVE,DENVER,CO,80211,ee771157-7404-41ff-8137-fe9581200a6c
SUNDANCE,LIQUOR/PACKAGE STORE,OFF,0016 KEARNS RD STE101 104 115,SNOWMASS VILLAGE,CO,81615,1ec5035c-fe4c-47f6-b806-ff7d18eeae83
WOLLASTON WINE CO,LIQUOR/PACKAGE STORE,OFF,54 BEALE ST,WOLLASTON,MA,02170,8d6448b8-6e50-47fa-9315-ea10ac3f2338
Hiawassee Package Inc,LIQUOR/PACKAGE STORE,OFF,405 Brett Way,Hiawassee,GA,30546,709f2f87-ae73-4ddd-9142-08f5362053f4
Stateline Liquor,LIQUOR/PACKAGE STORE,OFF,52 Highway 41,Ringgold,GA,30736,c7eb3cad-a456-4a29-8f63-67ba034c38a1
Whitlock Package Store,LIQUOR/PACKAGE STORE,OFF,940 Whitlock Ave NW,Marietta,GA,30064,6a0c5d4b-70f5-4671-abd2-f01f05035882
Hill Top Beverage,LIQUOR/PACKAGE STORE,OFF,12 Hefner St Ste 103,East Ellijay,GA,30540,4bb028ee-61be-43a7-9271-6c33aff23a75
Toco Giant Package,LIQUOR/PACKAGE STORE,OFF,2941 N Druid Hills Rd NE  Ste A,Atlanta,GA,30329,4a2f4ff6-7208-4d11-a0d5-eaac2f1cf73d
SPEC S 150 WINE MAIN,LIQUOR/PACKAGE STORE,OFF,9500 N CENT EXPRESSWAY STE 200,DALLAS,TX,75231,5cad2208-8ce6-4e0f-aea6-168019870875
RIVERWALK WINE & SPIRITS,LIQUOR/PACKAGE STORE,OFF,34295 HWY 6 UNITS C-1A & C-1B,EDWARDS,CO,81632,df38dd75-7b40-4c74-b308-600ec6ac93ba
Johnnie Ganem Package Shop,LIQUOR/PACKAGE STORE,OFF,501 Habersham St,Savannah,GA,31401,e935c31d-d688-4ee9-b3e8-9e3fec8360a1
SPEC S 062 WINE MAIN,LIQUOR/PACKAGE STORE,OFF,10515 N MOPAC BUILDING K,AUSTIN,TX,78735,cf6d6550-1d71-45e9-a08d-1c22f4e5cc7c
Athens Hwy Package,LIQUOR/PACKAGE STORE,OFF,898 W Ridge Rd,Gainesville,GA,30501,19f24846-08db-4ab9-88b7-59d136c66fcb
ANGIE S WINES & SPIRITS,LIQUOR/PACKAGE STORE,OFF,329 MAMARONECK AVE,MAMARONECK,NY,10543,709a7c0d-40a2-4c08-94a1-118fe6d19e4b
Island Spirit,LIQUOR/PACKAGE STORE,OFF,444 Johnny Mercer Blvd,Savannah,GA,31410,6e031491-6848-4e86-81fc-a7bb1c77bbed
CHOICE LIQUORS,LIQUOR/PACKAGE STORE,OFF,680 WAPITI COURT,RIFLE,CO,81650,c4dcc119-f114-4553-9bc9-07ed813ec59a
World Beverage (Cumming),LIQUOR/PACKAGE STORE,OFF,6190 GA Highway 400,Cumming,GA,30028,14e62cc8-0bf0-43f8-b3a3-8651d85a0a2f
Royal Package,LIQUOR/PACKAGE STORE,OFF,5464 Lawrenceville  NW Hwy 29,Lilburn,GA,30047,11f7644d-93e6-4fdc-8d68-130997421ebb
LUKES LIQUORS,LIQUOR/PACKAGE STORE,OFF,3 WASHINGTON ST,CANTON,MA,02021,1cbfa9e8-1b94-43e6-9be9-00e0e88da69b
LIQUOR TOWN,LIQUOR/PACKAGE STORE,OFF,506 GRANBY RD,S HADLEY,MA,01075,7acc53bf-3d7d-442b-8221-fbeda4fa2ec5
A&M Beverage Company,LIQUOR/PACKAGE STORE,OFF,437 Lewiston Rd Ste 6,Grovetown,GA,30813,d5d743ad-7067-4d9b-9a0d-f43d7664bcf9
BASSER S FINE WINE INC (ON),LIQUOR/PACKAGE STORE,OFF,6240 CORAL RIDGE DR,CORAL SPRINGS,FL,33076,49416a7e-dbff-4e32-9a9b-cae713389bae
Two Guys Beverage & Tobacco NEW,LIQUOR/PACKAGE STORE,OFF,100 Rudell Rd,Vidalia,GA,30474,3edc88d9-9ab2-4d7b-9974-98e6f31c070d
BEACON HILL WINE & SPIRITS,LIQUOR/PACKAGE STORE,OFF,63 CHARLES ST,BOSTON,MA,02114,2c9a1544-b6a9-4ae2-a15b-23bbba7242ac
SIX CORNERS,LIQUOR/PACKAGE STORE,OFF,166 MILL RD,WESTHAMPTON BEACH,NY,11978,a7c15064-54ac-4ffb-863c-d78e7d22f15c
TOP SHELF WINE & SPIRITS,LIQUOR/PACKAGE STORE,OFF,6415 S FORT APACHE RD STE 100,LAS VEGAS,NV,89148,a42142fd-19bf-4096-abb1-9492067caf32
ANTHONY S BEER & WINE,LIQUOR/PACKAGE STORE,OFF,531 LINCOLN ST,MARLBORO,MA,01752,26839eb1-d3c0-45b2-a145-9bc1970d73cb
NORTH GEORGIA LIQUOR INC,LIQUOR/PACKAGE STORE,OFF,200 E LOUISE ST,Clarkesville,GA,30523,71e6d04a-6398-4476-ad95-08b4b170c46a
Jax Superstore,LIQUOR/PACKAGE STORE,OFF,2438 Hancock Dr,Buford,GA,30190,1920bd1f-f609-4211-b86c-672af18a292a
QUENCH LIQUORS INC,LIQUOR/PACKAGE STORE,OFF,217 WAVERLY AVE,PATCHOGUE,NY,11772,33e36581-050d-4f2b-be25-6aabff72b5f5
LEE S LIQUOR #3 LAKE MEAD,LIQUOR/PACKAGE STORE,OFF,7411 W LAKE MEAD BLVD,LAS VEGAS,NV,89128,d486b079-3415-4fac-a881-20f3afa64eb2
LEE S LIQUOR 106 LV BLVD,LIQUOR/PACKAGE STORE,OFF,9110 LAS VEGAS BLVD,LAS VEGAS,NV,89123,8cdbd482-f09a-4cd6-8f13-7f1813575106
LEE S LIQUOR #7 W FLAMINGO,LIQUOR/PACKAGE STORE,OFF,9355 W FLAMINGO RD,LAS VEGAS,NV,89147,4ebf1410-9858-4642-aa70-10cd75f41267
LEE S LIQUOR #2 RANCHO,LIQUOR/PACKAGE STORE,OFF,4421 N RANCHO DR,LAS VEGAS,NV,89130,78b2f03c-1db5-4a65-a685-6311b5d118bf
ROCKVILLE CENTRE WINE & SPIRIT,LIQUOR/PACKAGE STORE,OFF,218 N LONG BEACH RD,ROCKVILLE CENTRE,NY,11570,54b50353-51d8-477b-ac24-894a7d4047d4
LEE S LIQUOR #1 SUNSET,LIQUOR/PACKAGE STORE,OFF,4427 E SUNSET RD,HENDERSON,NV,89014,a0dce27c-9f57-442e-a736-51003faa51ef
RIVERSIDE LIQUORS INC.,LIQUOR/PACKAGE STORE,OFF,2728 BROADWAY,NEW YORK,NY,10025,f1634ad0-bec2-49f9-b05a-b15fa539b96d
SUNNY S WINE & SPIRITS,LIQUOR/PACKAGE STORE,OFF,161 3RD AVE,NEW YORK,NY,10003,ecb9a942-c62c-4f1b-9d0e-073078b113d1
STONEFIELD LIQUOR,LIQUOR/PACKAGE STORE,OFF,3503 S SAM HOUSTON PKWY E STE 100,HOUSTON,TX,77047,f31ab7a8-5f11-4a60-9685-14542aa78b0a
Golden Package,LIQUOR/PACKAGE STORE,OFF,10707 Commerce St,Summerville,GA,30747,0ed50826-548c-436c-b5f7-8fae1a4267ca
RICKY LIQUOR STORE,LIQUOR/PACKAGE STORE,OFF,7818 WOODSIDE AVE,ELMHURST,NY,11373,72d8bdff-5cce-4326-9b6b-dfe4f91ea31e
LITTLE DAISY LIQUOR,LIQUOR/PACKAGE STORE,OFF,401 US HIGHWAY 24 NORTH,BUENA VISTA,CO,81211,dd350ccb-d212-46ae-9be5-842a2f696612
WEST VIEW BOTTLE APOSTLE,LIQUOR/PACKAGE STORE,OFF,14055 GOLDENWEST ST,WESTMINSTER,CA,92683,9733e620-c47d-46c8-87c7-5f88de79c28e
CAMBRIDGE SPIRITS,LIQUOR/PACKAGE STORE,OFF,250 KENDALL ST,CAMBRIDGE,MA,02142,9b6deaf0-15a1-4926-934f-923879de7f69
7 WINE 6 INC,LIQUOR/PACKAGE STORE,OFF,912 ELMWOOD AVE,BUFFALO,NY,14222,67923f56-993b-4753-8489-589ba95164bc
VAL S LIQUORS,LIQUOR/PACKAGE STORE,OFF,1531 3RD ST,NAPA,CA,94559,74f4f8e0-4756-4891-8e92-44980c5a6f57
KENT CELLARS FINE WINE,LIQUOR/PACKAGE STORE,OFF,3475 S UNIVERSITY BLVD,ENGLEWOOD,CO,80113,895295a9-6d73-4824-9b0c-5066ec6d988c
GREAT AMERICAN CRAFT SPIRITS,LIQUOR/PACKAGE STORE,OFF,29911 AVENTURA #E,RCHO STA MARG,CA,92688,6354900c-c1d2-451f-8e60-c6b59ffaf8b3
Rockhouse Beverage,LIQUOR/PACKAGE STORE,OFF,122 RockhouseRoad,Senoia,GA,30276,892ecd65-41f3-455f-bb18-d175e4c81407
QUALITY MART,LIQUOR/PACKAGE STORE,OFF,21 MASS AVE,BOSTON,MA,02115,4481fa78-b229-4feb-b110-f6d38797aad0
Valkyria Group LLC,LIQUOR/PACKAGE STORE,OFF,6035 Peachtree Rd Ste 106,Doraville,GA,30360,47e79510-4bc7-4154-9468-44a4bf8250d2
ABC Warehouse,LIQUOR/PACKAGE STORE,OFF,1100 Eisenhower DR,Savannah,GA,31406,c064eb7e-68ad-4d5f-bab4-5b35ca0f0810
STAR LIQUORS IV,LIQUOR/PACKAGE STORE,OFF,10650 FOREST HILL BLVD,WELLINGTON,FL,33414,f3f2ea9c-fa27-472d-af70-89a0a96725f0
Wilshire Liquor Beer & Wine,LIQUOR/PACKAGE STORE,OFF,1200 Highway 74 S Ste 8,Peachtree City,GA,30269,dc82f2c7-c819-4cd6-8ab0-111f867ca608
BARRELS & STILLS WINES SPIRITS,LIQUOR/PACKAGE STORE,OFF,685 WALT WHITMAN RD,MELVILLE,NY,11747,5672b370-9cae-43ae-b633-f0dab62ae0be
HUDSON WINE & SPIRITS INC,LIQUOR/PACKAGE STORE,OFF,165 HUDSON ST,NEW YORK,NY,10013,23020425-b256-41a3-b2cc-453b25922d3c
LEE S LIQUOR #115 FLAMBOW,LIQUOR/PACKAGE STORE,OFF,4230 S RAINBOW BLVD,LAS VEGAS,NV,89103,ffad9b7e-815e-4ed8-9959-175fc13fd7f5
HAMPTON BAYS WINE AND SPIRITS,LIQUOR/PACKAGE STORE,OFF,46 E. MONTAUK HIGHWAY,HAMPTON BAYS,NY,11946,20f9873f-5ae6-46a6-b1aa-58cf4ff5b908
Brandon s Package Store,LIQUOR/PACKAGE STORE,OFF,101 Petrol Pt,Peachtree City,GA,30269,eabd072d-9e8e-4bf6-98f5-446e0afaa4f9
Sigman Bottle Shop,LIQUOR/PACKAGE STORE,OFF,439 Sigman Rd NW  Ste A,Conyers,GA,30012,3c9220d9-d9b7-47fe-86b2-aeb514eba339
Riverwood Wine & Spirits,LIQUOR/PACKAGE STORE,OFF,5118 Washington Rd,Evans,GA,30809,9c7545b5-96b8-4e0e-878a-60339eb831d8
LEE S LIQUOR #10 WARM SPRINGS,LIQUOR/PACKAGE STORE,OFF,8785 W WARM SPRINGS RD,LAS VEGAS,NV,89148,5be35121-4583-4315-97dd-ff9c007d7b5f
AAA DISCOUNT LIQUORS OUTLET,LIQUOR/PACKAGE STORE,OFF,2175 60TH AVE EAST,ELLENTON,FL,34222,4f56ef0e-7905-4d59-a1c2-bb943ea49606
MAYFAIR LIQUORS,LIQUOR/PACKAGE STORE,OFF,1385 KRAMERIA ST,DENVER,CO,80220,c3b3abbc-9806-42f5-8bd7-8131e4b623b2
RHINO LIQUORS,LIQUOR/PACKAGE STORE,OFF,6820 CO-82,GLENWOOD SPRINGS,CO,81601,d4d33ccc-59f3-4716-998d-e322105a1ea2
HOVER CROSSING WINE & SPIRITS,LIQUOR/PACKAGE STORE,OFF,1844 HOVER ST UNIT E,LONGMONT,CO,80501,5b9711e3-b303-4e9a-bb43-0048a5461f48
LIQUOR PARK,LIQUOR/PACKAGE STORE,OFF,2001 COIT ROAD SUITE 307,PLANO,TX,75075,cad67749-1ecb-4967-9ab5-6950bf4fa2ef
172 BARGAIN LIQUORS,LIQUOR/PACKAGE STORE,OFF,172 SUNRISE HWY.,ROCKVILLE CENTRE,NY,11570,6190be8f-3c68-4119-a210-a47e1eee0a02
LEE S LIQUOR #14 BOULDER,LIQUOR/PACKAGE STORE,OFF,1388 S BOULDER HWY,HENDERSON,NV,89015,689d7e9a-bd81-48c3-8de6-c1a665e84a0a
Hwy 5 Beverage Center,LIQUOR/PACKAGE STORE,OFF,9079 Hwy 5,Douglasville,GA,30134,bbff80fb-1641-4b30-9bf3-ffef641b0283
VILLAGE WAREHOUSE WINES,LIQUOR/PACKAGE STORE,OFF,0101 FAWCETT RD,AVON,CO,81620,3aec65fb-d492-4217-8278-e5c7613f3552
Broughton Street Liquor,LIQUOR/PACKAGE STORE,OFF,14 E Broughton St,Savannah,GA,31401,0a69220d-0101-406e-be4f-6778f28266fc
MARSHFIELD BLANCHARDS INC,LIQUOR/PACKAGE STORE,OFF,700 PLAIN ST,MARSHFIELD,MA,02050,cf918a21-bdb6-46e8-939b-e0df1a4e44be
TUSTIN WINE SPIRITS,LIQUOR/PACKAGE STORE,OFF,14211 REDHILL AVE,TUSTIN,CA,92780,861f303d-fbb6-4377-b661-fd1d85d3c895
LEE S LIQUOR #9 MESQUITE,LIQUOR/PACKAGE STORE,OFF,670 W PIONEER BLVD,MESQUITE,NV,89027,0be84741-7bbc-4013-9ead-90f61797bea0
SAKEONE,LIQUOR/PACKAGE STORE,OFF,820 ELM STREET,FOREST GROVE,OR,97116,b9a7f9a6-79fd-4e88-a6aa-e8d06db9d8ee
THE LIQUOR STORE,LIQUOR/PACKAGE STORE,OFF,7715 DUBLIN BOULEVARD #140,COLORADO SPRINGS,CO,80923,daca3267-7108-42e9-a583-4dda3db3d9ef
NEW GOLDEN WINE & LIQUOR,LIQUOR/PACKAGE STORE,OFF,41-08 BELL BLVD,BAYSIDE,NY,11361,9006a869-a172-44ad-b3b1-fd73ef300647
K & L WINE MERCHANTS,LIQUOR/PACKAGE STORE,OFF,1400-1408 VINE ST,LOS ANGELES,CA,90028,a0ec59be-e946-40af-9fba-c9bc89907de4
FLASK HP,LIQUOR/PACKAGE STORE,OFF,5900 N FIGUEROA ST,LOS ANGELES,CA,90042,c3363896-a411-463e-8f33-83f4be35d109
WINE & LIQUOR DEPOT,LIQUOR/PACKAGE STORE,OFF,207 ISLIP AVE,ISLIP,NY,11751,07188caf-740a-40d3-84b7-4801ea08a180
HAPPY S MARKET & SPIRITS,LIQUOR/PACKAGE STORE,OFF,807 N AVENUE 50 #11,LOS ANGELES,CA,90042,1573f67a-41cc-4209-9bfd-3e2b269ea15e
RED MOUNTAIN LIQUOR,LIQUOR/PACKAGE STORE,OFF,81 GILLASPEY AVE,CRESTED BUTTE,CO,81224,106a0f65-3787-46d7-bc33-bf8c5e7b1c4e
ABC Package,LIQUOR/PACKAGE STORE,OFF,2303 W Broad St,Athens,GA,30606,d4496205-ab37-4a28-8a06-13a01b34e3ff
7 DAYS LIQUOR,LIQUOR/PACKAGE STORE,OFF,1700 VICTORY BL,GLENDALE,CA,91201,b1e64afc-c686-42ff-b3d3-a10d6b2ee986
CANTINA LIQUORS,LIQUOR/PACKAGE STORE,OFF,8310 6TH ST,WELLINGTON,CO,80549,289dc432-9a28-4555-a243-11654f0123e9
CENTRAL LIQUOR,LIQUOR/PACKAGE STORE,OFF,178 ORANGE AV,CORONADO,CA,92118,e5526ec4-6a7b-4524-871d-c5c01f07f4db
SUMMERLAND WINES & SPIRITS,LIQUOR/PACKAGE STORE,OFF,24816 OVERSEAS HWY,SUMMERLAND KEY,FL,33042,9d05faa2-49b1-4620-9915-2836ba3be47c
HIGH MOUNTAIN LIQUOR,LIQUOR/PACKAGE STORE,OFF,901 N MAIN STREET,GUNNISON,CO,81230,141a94a6-b424-4141-b27d-19391f746523
DIMENSION LIQUOR,LIQUOR/PACKAGE STORE,OFF,20761 LAKE FOREST #J,LAKE FOREST,CA,92630,cb67c8f8-fc2f-40f4-b90b-8be709e120ac
DIVINO,LIQUOR/PACKAGE STORE,OFF,1240 S BROADWAY,DENVER,CO,80210,3fb91152-f194-47c1-a3dc-c0bd0ac1c341
GULF DISCOUNT LIQUORS,LIQUOR/PACKAGE STORE,OFF,1535 MADRUGA ST,CORAL GABLES,FL,33146,6058eb83-4226-4c08-97d0-9c7d7466846b
LITTLES LIQUORS INC,LIQUOR/PACKAGE STORE,OFF,2390 S DOWNING STREET,DENVER,CO,80210,433c8d04-2557-471a-a992-d5c5c2172529
WINE BANK,LIQUOR/PACKAGE STORE,OFF,363 5TH AV,SAN DIEGO,CA,92101,5d1d1e00-ffcb-4b01-ae22-4a30e5d3b6e5
BOYNTON WINE & SPIRITS,LIQUOR/PACKAGE STORE,OFF,1550 N FEDERAL HWY,BOYNTON BEACH,FL,33435,ce135dee-337e-441e-a36d-79f719bef0e8
The Bottleshop,LIQUOR/PACKAGE STORE,OFF,101 Southern Way,Columbus,GA,31904,a68e8f1e-05eb-46de-b83d-6070b414c505
DE LUCA S MARKET INC,LIQUOR/PACKAGE STORE,OFF,11 CHARLES ST,BOSTON,MA,02114,db779625-3f53-4488-a303-78cf3cbcc87c
SPRINGS LIQUOR OUTLET,LIQUOR/PACKAGE STORE,OFF,6010 NORTH CAREFREE CIRCLE,COLORADO SPRINGS,CO,80922,aca0fc20-851c-4fe4-8089-11c7704c5bd7
Five Points Bottle Shop,LIQUOR/PACKAGE STORE,OFF,1655 Lumpkin St,Athens,GA,30606,8d2d4b5b-14a9-473a-bfda-3593c7062dbd
CORKED,LIQUOR/PACKAGE STORE,OFF,1520 AVIATION BL,REDONDO BEACH,CA,90278,93126ace-4165-49bf-90f3-e45f9dc5664f
LIQUOR WORLD,LIQUOR/PACKAGE STORE,OFF,235 OLD CONNECTICUT PATH,FRAMINGHAM,MA,01701,cd239476-668c-4409-90be-72bbbb97e415
DANNY S WINE AND SPIRITS,LIQUOR/PACKAGE STORE,OFF,474 BOSTON POST ROAD,SUDBURY,MA,01776,1728ee43-1bd4-4211-8162-f340ce681afe
VILLAGE LIQUOR,LIQUOR/PACKAGE STORE,OFF,2905 HONOLULU AV,LA CRESCENTA,CA,91214,a7c3b5fc-715a-4f75-8203-a9a06b33e61c
DUXBURY WINE & SPIRITS,LIQUOR/PACKAGE STORE,OFF,1-1A WASHINGTON PO 1654,DUXBURY,MA,02332,69156ccb-f9ee-4d72-bfe8-a3f76d0765ba
The Big Chill,LIQUOR/PACKAGE STORE,OFF,1210 Thompson Bridge Rd Unit D1,Gainesville,GA,30501,723eadcd-e2ac-4149-be96-1c8fefacf933
Loganville Package Store,LIQUOR/PACKAGE STORE,OFF,3967 Atlanta Highway,Loganville,GA,30052,775354fc-1118-48ff-8e0f-7d69b8a306b5
RESERVE WINE & SPIRIT,LIQUOR/PACKAGE STORE,OFF,1915 W LEAGUE CITY PKWY STE 180,LEAGUE CITY,TX,77573,3e0d3762-b5d0-429a-bdde-e58c868874da
RJ S WINE & SPIRITS,LIQUOR/PACKAGE STORE,OFF,4321 CORBETT DRIVE SUITE 100,FORT COLLINS,CO,80528,b3947154-0b7d-4ef3-8bd5-42dfcde49651
LEE S LIQUOR #20 HORIZON RIDGE,LIQUOR/PACKAGE STORE,OFF,1450 W HORIZON RIDGE PKWY -415,HENDERSON,NV,89012,c8548931-05dc-4b7b-b60e-bd822cdfa66d
DELUCA S MARKET,LIQUOR/PACKAGE STORE,OFF,239 NEWBURY ST,BOSTON,MA,02116,33bd30fc-997c-42b3-8ccd-e708cbfefcc7
PINYON TREE LIQUORS,LIQUOR/PACKAGE STORE,OFF,321 E MAIN ST 3 AND 4,RANGELY,CO,81648,b779c0eb-6a5f-4c14-87bb-f9f8fef7f0e7
BOONE S WINE & SPIRITS,LIQUOR/PACKAGE STORE,OFF,65 MARKET STREET UNITS 2-7,EAGLE,CO,81631,2a23ac46-d2ad-4df6-9a0b-3651e6b6e6b2
POTTER LIQUOR,LIQUOR/PACKAGE STORE,OFF,412 N FRIENDSWOOD DRIVE,FRIENDSWOOD,TX,77546,0da418f6-39e1-4c9f-907c-0c8d2f787371
LUCKY ME LIQUOR 2,LIQUOR/PACKAGE STORE,OFF,2648 PATTERSON RD STE A B C,GRAND JUNCTION,CO,81506,c4c0655a-f490-4b1b-bac3-2bae67bd53c5
MOUNTAIN CELLARS,LIQUOR/PACKAGE STORE,OFF,8290 RAZORBACK ROAD,COLORADO SPRINGS,CO,80922,ac3be884-fbcf-4a79-9553-5f26e299fcfe
Everest Spirits & Wine Warehouse,LIQUOR/PACKAGE STORE,OFF,135 Ernest W Barrett Pkwy,Marietta,GA,30066,1c224653-3773-4749-852d-830d2e3d2da5
Wine & Spirits at Windsor,LIQUOR/PACKAGE STORE,OFF,464 Windsor St SW Ste 105,Atlanta,GA,30312,9a44e53a-791d-4ec2-9644-181cc378c844
LEE S LIQUOR #21 EL CAPITAN,LIQUOR/PACKAGE STORE,OFF,7752 N EL CAPITAN WAY,LAS VEGAS,NV,89143,4be81b7e-a7ae-4cec-b4cb-41f81f1cb234
PINEY WINE & SPIRITS,LIQUOR/PACKAGE STORE,OFF,26289 HIGHWAY 74,KITTREDGE,CO,80457,4677c7b3-ead3-4292-9d74-8734855a5be3
Rox Wine & Spirits (Cumming),LIQUOR/PACKAGE STORE,OFF,910 Peachtree Pkwy,Cumming,GA,30041,69fdf454-cc24-41f6-8608-9e71fe9df278
Liquor Empire,LIQUOR/PACKAGE STORE,OFF,1014 US Hwy 80 E,Pooler,GA,31322,2e899e80-bc18-4823-a653-8c15ee96946e
Charlie s 2 Beer Wine Spirits,LIQUOR/PACKAGE STORE,OFF,5080 Bells Ferry Rd.,Acworth,GA,30102,da0be14c-30fe-4373-b808-075e02a8bb0d
Hills Package Store,LIQUOR/PACKAGE STORE,OFF,2055 N Druid Hills Rd Ne Ste B,Atlanta,GA,30329,2ecb675b-ebdd-4e28-b449-b0bfc9bdacb0
Beverage City 2,LIQUOR/PACKAGE STORE,OFF,5370 Highway 92  Ste 140,Fairburn,GA,30213,52aeeeb3-3c82-42b4-ba73-1e0acc895132
Beer & Wine Package Store,LIQUOR/PACKAGE STORE,OFF,5039 Buford Hwy,Atlanta,GA,30341,68291548-3e0b-4c4d-a810-4cb7173d9c5a
Cork And Keg,LIQUOR/PACKAGE STORE,OFF,6750 Highway 53  Ste 101,Braselton,GA,30517,9fe91217-1473-4824-9b85-a1c0b7de9920
Rome Liquor & Tobacco,LIQUOR/PACKAGE STORE,OFF,600 E 2nd Ave SW,Rome,GA,30161,65327ebd-73be-438f-b8df-1d55f2f69f50
The Winery 2,LIQUOR/PACKAGE STORE,OFF,2101 Savoy Dr.,Chamblee,GA,30341,77edd87a-e78f-4683-9493-c5ea7299e182
BELLEVIEW WINE AND SPIRITS,LIQUOR/PACKAGE STORE,OFF,7795 E BELLEVIEW AVE UNIT 3,DENVER,CO,80237,8ea7d36f-a445-4a92-a3a8-1ef71a0850e9
Sol s Liquor,LIQUOR/PACKAGE STORE,OFF,186 Courtland St NE,Atlanta,GA,30303,1feeba4d-83ab-4cf8-b7e6-fbd811aad035
Mountain Package Store,LIQUOR/PACKAGE STORE,OFF,5765 Rockbridge Rd  Ste D,Stone Mountain,GA,30087,7cec1bd8-4072-4852-a213-e6bc2308bee3
Bullocks Wine & Spirits Whse,LIQUOR/PACKAGE STORE,OFF,1050 Buckhead Crossing,Woodstock,GA,30189,2289ca96-3621-4918-8187-1914bba71dc0
Rock Hard Spirits,LIQUOR/PACKAGE STORE,OFF,4060 Hwy 53,Hoschton,GA,30548,7f226e3e-a812-40d7-bda1-eff37652fd8b
Beverage World Package Store,LIQUOR/PACKAGE STORE,OFF,6731 Peachtree Industrial Blvd,Doraville,GA,30360,71f98814-1804-4b34-924b-407816a6dbca
Ajax Liquor,LIQUOR/PACKAGE STORE,OFF,1005 Chattahoochee Ave,Atlanta,GA,30318,63c3fc8c-6d07-41e9-93e4-537976513c00
Js Beverage Depot,LIQUOR/PACKAGE STORE,OFF,1570 Holcomb Bridge Rd Ste 610,Roswell,GA,30076,86a20175-5db3-4e81-b34f-c1a64b3e5f5e
Joes Bottle Shop **CLOSED**,LIQUOR/PACKAGE STORE,OFF,3034 Veterans Memorial Hwy SW,Austell,GA,30168,3738864a-d99a-4cfd-ad9f-78b5e05a907b
Z&Z Package Store,LIQUOR/PACKAGE STORE,OFF,4898 Bill Gardner Pkwy,Locust Grove,GA,30248,dcae6391-11c1-431f-a20d-6107aad9a9f9
The Beverage Shoppe,LIQUOR/PACKAGE STORE,OFF,13800 Hwy 9N Ste S,Milton,GA,30004,752beff4-f9e4-463a-a143-f1b1c359065d
Mableton Bottle Shop,LIQUOR/PACKAGE STORE,OFF,757 Veterans Memorial Hwy SW,Mableton,GA,30126,aaec6f6a-ccc3-46d6-917e-ac9074f9dfcd
MSTD Management LLC,LIQUOR/PACKAGE STORE,OFF,287 Elizabeth St NE,Atlanta,GA,30307,2d061363-84ac-4f67-b68f-c7a2dfd817cd
Bonaire Package LLC,LIQUOR/PACKAGE STORE,OFF,518 Ga Hwy 247,Bonaire,GA,31005,017fbcd9-f6f6-409c-b496-a6a1a3c80537
ACE LIQUOR,LIQUOR/PACKAGE STORE,OFF,6025 S DURANGO DRIVE,LAS VEGAS,NV,89113,73e5c9b6-3283-4839-b2e1-0b1fd47cb989
Robins Package,LIQUOR/PACKAGE STORE,OFF,628 S Houston Lake RD,Warner Robins,GA,31088,e1b3e284-28a2-4b50-a750-7efbd3b66eee
Beverage Depot,LIQUOR/PACKAGE STORE,OFF,201 Roberson Mill Rd NE 59018,Milledgeville,GA,31061,66bd8350-2a87-4cae-b7c8-17f86f8c442e
Decatur Wine & Spirits,LIQUOR/PACKAGE STORE,OFF,1789 Lawrenceville Hwy,Decatur,GA,30033,f034bd2a-34c7-4bf9-914d-e0f74f9f0917
CRYSTAL LIQUORS,LIQUOR/PACKAGE STORE,OFF,3655 S DURANGO DR UNIT 21-22,LAS VEGAS,NV,89147,a51ea673-8070-4240-88da-0a191d4ce0a8
Cumming Beverage Mart,LIQUOR/PACKAGE STORE,OFF,1770 Buford Hwy Ste A,Cumming,GA,30041,80402a4a-dc92-489f-9aae-7d27cc457e67
Peachtree Liquor: Duluth,LIQUOR/PACKAGE STORE,OFF,2750 Buford Hwy Ste 4,Duluth,GA,30096,47b1744f-1bb8-4ff0-8c98-564c50424bee
Local Vine/Cobb Liquor Store,LIQUOR/PACKAGE STORE,OFF,3101 Cobb Pkwy SE STE #102,Atlanta,GA,30339,03ff59ba-efb2-4eed-ae93-e137eb36d59e
SHARON CROSSING BEVERAGE,LIQUOR/PACKAGE STORE,OFF,1465 Peachtree Parkway STE B2 & B3,Cumming,GA,30041,289cb30e-9fcb-456e-9036-941dd1595a37
Johnny s Liquor Store,LIQUOR/PACKAGE STORE,OFF,5770 Harris St,Austell,GA,30168,2a18c68a-5926-4330-9fea-3a16a37efa45
LAWLER S LIQUORS,LIQUOR/PACKAGE STORE,OFF,2232 JEFFERSON ST,NAPA,CA,94559,fd88755e-f25d-47d6-859c-f79224370829
CYPRESS CRAFT BEER & LIQUOR,LIQUOR/PACKAGE STORE,OFF,9175 VALLEY VIEW ST,CYPRESS,CA,90630,585419c9-b91e-4e4e-a8d7-5e403679bfea
Captain s Liquor and Wine,LIQUOR/PACKAGE STORE,OFF,10971 Crabapple Rd Ste 1100,Roswell,GA,30075,a3e81bf7-074a-4cb9-88cd-1effb0508acf
Duluth Beverage Locker,LIQUOR/PACKAGE STORE,OFF,Ste C 3576 Buford Highway,Duluth,GA,30096,4164650b-1194-4c73-b5ef-02f826ebe678
Skyview Bottle Shop,LIQUOR/PACKAGE STORE,OFF,800 Maxham Rd Ste C,Lithia Springs,GA,30122,959281ed-8e29-4922-8731-af650538f213
TWIN LIQUORS LP AIRPORT 980,LIQUOR/PACKAGE STORE,OFF,5639 AIRPORT BOULEVARD A & B,AUSTIN,TX,78751,730a0947-72d0-4e2a-bdc9-4b968f0356c1
Jeffrey s Bottle Shop,LIQUOR/PACKAGE STORE,OFF,1012 Memorial Dr Ste 6,Griffin,GA,30223,a04423f5-4b3b-46ed-87dc-83c4086d27d8
Metro Bottle,LIQUOR/PACKAGE STORE,OFF,2225 Marietta Blvd,Atlanta,GA,30318,68ad6fb4-e334-437a-8cae-3d2e4e4e8ad8
Trickum Wine,LIQUOR/PACKAGE STORE,OFF,3333 Trickum Rd Ste 104,Woodstock,GA,30188,470b6c24-3023-4584-a4c8-1a248517dcf2
Tara Package,LIQUOR/PACKAGE STORE,OFF,8525 Tara Blvd,Jonesboro,GA,30236,510f4158-24fe-4a5b-9932-723102973687
Liquor Loft,LIQUOR/PACKAGE STORE,OFF,2120 Vernon St Ste 105,Lagrange,GA,30240,5478056a-da85-449d-9563-5d7674ab84c6
Strongwater Liquor Warehouse,LIQUOR/PACKAGE STORE,OFF,5722 Lawrenceville Hwy,Lilburn,GA,30047,ba783f04-2940-448d-a020-7501688fdede
Wine And Shine,LIQUOR/PACKAGE STORE,OFF,2065 Walton Way,Augusta,GA,30904,576177c6-ec60-4b6c-a68e-5f9fddeecf0b
Dekalb Bottle House,LIQUOR/PACKAGE STORE,OFF,3111 Briarcliff Rd NE,Atlanta,GA,30329,a28edb86-72ff-4f8b-a59d-94150f2ae019
HANDY LIQUOR,LIQUOR/PACKAGE STORE,OFF,3001 ADAMS AVE,SAN DIEGO,CA,92116,a9913d12-1238-4f1c-a80c-b499428051e6
BERGEN PARK LIQUORS,LIQUOR/PACKAGE STORE,OFF,1348 COUNTY ROAD 65,EVERGREEN,CO,80439,ed4a6363-ff11-42da-aa92-69f28e5df3ae
Arbor Place Beverage,LIQUOR/PACKAGE STORE,OFF,7455 Douglas Blvd,Douglasville,GA,30135,9eb31eb4-d1ab-472e-a55c-e75446880827
Brown Bag  The,LIQUOR/PACKAGE STORE,OFF,1608 Boone St,Kingsland,GA,31548,1f640c1a-1ef5-4a94-90c3-eb728a7432f0
Mike s Package Store,LIQUOR/PACKAGE STORE,OFF,2164 Hwy 92,Douglasville,GA,30135,2d86a57e-0430-4f56-af9b-48baf60eb2dd
Serenbe Wine Shop,LIQUOR/PACKAGE STORE,OFF,9135-B Selbourne Lane,Chattahoochee Hills,GA,30268,91c7a4bc-9a3b-4053-9d8e-d3a675b7906a
2B Package,LIQUOR/PACKAGE STORE,OFF,64 McNeal Rd,Winder,GA,30680,0f59ba8b-ab21-421e-99e7-b0ecdbb006cb
CORKED,LIQUOR/PACKAGE STORE,OFF,4100 ATLANTIC AVE,LONG BEACH,CA,90807,c1bcd824-d94c-419b-8df0-ab7b0e65816e
MASOODS LIQUOR & DELI,LIQUOR/PACKAGE STORE,OFF,7970 HWY 9,BEN LOMOND,CA,95005,cd78017b-bacd-4bd0-94b3-64e0d72233c8
The Cellar Wine & Spirits,LIQUOR/PACKAGE STORE,OFF,2405 Jefferson Rd  Ste 1,Athens,GA,30607,e7f34a98-e138-4c00-92db-077a25ebd936
RENEE S LIQUOR & MARKET,LIQUOR/PACKAGE STORE,OFF,800 NOGALES ST,WALNUT,CA,91789,56c1e0c7-631d-4da2-bd15-80e3b582daba
Coal Mountain Package Store,LIQUOR/PACKAGE STORE,OFF,3645 Browns Bridge Rd,Cumming,GA,30028,f94da35c-f6ee-4711-89fa-99e874e6e330
Lafayette Beverage,LIQUOR/PACKAGE STORE,OFF,2068 Hamilton Rd,Lagrange,GA,30241,f44925fc-36e3-4f4b-ad76-d0d13a1a9a20
Cave Springs Package,LIQUOR/PACKAGE STORE,OFF,913 Dallas Highway,Douglasville,GA,30134,449dea7c-0d97-4cca-bdd3-26921d16b72b
Local Vine Johns Creek,LIQUOR/PACKAGE STORE,OFF,5805 State Bridge Rd Ste 200,Johns Creek,GA,30097,783d5845-d3c1-4cd2-b1ff-67bbc935fee8
PATRIOTS LIQUOR,LIQUOR/PACKAGE STORE,OFF,7935 CONSTITUTION AVE STE 140,COLORADO SPRINGS,CO,80951,b11b251b-522f-4b25-93ff-4f6f28fa2ed7
Milton Spirits & Wine,LIQUOR/PACKAGE STORE,OFF,15840 Brimingham Hwy Ste B,Milton,GA,30004,5cb1de31-5f84-4da1-b81b-884c25e4f2d5
East West Package,LIQUOR/PACKAGE STORE,OFF,1025 E West Connector Ste 605,Austell,GA,30106,681b024c-30fe-44fe-962a-5e68ad6ab2e7
Legacy Beverage Center,LIQUOR/PACKAGE STORE,OFF,330 Athens Hwy,Loganville,GA,30052,dbf0e66f-c5b6-4452-890a-e4ce676e9e27
Seven Seas Bottle Shop,LIQUOR/PACKAGE STORE,OFF,4121 Austell Powder Springs Rd,Powder Springs,GA,30127,19af6819-4024-4716-855a-10f6b23d0f16
BRADLEY S FINE WINES & SPIRITS,LIQUOR/PACKAGE STORE,OFF,12932 NEWPORT AV #1,TUSTIN,CA,92780,42e9e73e-638f-4f94-96a5-c2fdde660345
JORDAN WINE AND SPIRITS,LIQUOR/PACKAGE STORE,OFF,17021 LINCOLN AVENUE #G,PARKER,CO,80134,c7e7d0ad-3ba5-4e95-a2d9-f9a738080daf
Chapel Hill Package,LIQUOR/PACKAGE STORE,OFF,2981 Chapel Hill Rd,Douglasville,GA,30135,4b78e51e-189c-4d90-997e-2b67898ca3b2
VOLUME RATE LIQUORS,LIQUOR/PACKAGE STORE,OFF,7805 EAST 35TH AVENUE,DENVER,CO,80238,c691d670-1557-41b3-8530-a017874f7516
Brownsville Package  **CLOSED**,LIQUOR/PACKAGE STORE,OFF,4400 Brownsville Rd  Ste 106,Powder Springs,GA,30127,94aa6fa1-c4e0-4300-934f-ab557d55eee5
Mink s Package Store,LIQUOR/PACKAGE STORE,OFF,2565 Delk Rd SE  C-1,Marietta,GA,30067,1888eccc-aa1e-4626-9f1f-e06659f41591
East Rome Beverage Center,LIQUOR/PACKAGE STORE,OFF,1800 Dean Ave SE,Rome,GA,30161,678bc6f8-4fb0-46c8-99a9-3034c4d55399
ADIRONDAK WINE & LIQUOR,LIQUOR/PACKAGE STORE,OFF,506 LAKE FLOWER AVENUE,SARANAC LAKE,NY,12983,e5fa1f8e-eeb5-46ba-99da-3998ccc00f75
American Package,LIQUOR/PACKAGE STORE,OFF,1954 US Hwy 441S,Dublin,GA,31021,bec0dddf-c22e-4a4e-9c3c-d9ed951bea77
CIRCUS LIQUOR,LIQUOR/PACKAGE STORE,OFF,16416 DELONE ST,SANTA CLARITA,CA,91387,de909f72-8484-45f1-a59f-1b30d08cdc74
Global Beverage Superstore,LIQUOR/PACKAGE STORE,OFF,2157 West Point Rd,Lagrange,GA,30240,f892c14b-0dd9-4569-981e-e1b9647dd0c8
Empire Package,LIQUOR/PACKAGE STORE,OFF,1046 Fayetteville Rd,Atlanta,GA,30316,42328130-eaf8-447e-a861-226a638f5128
Bims Package Store,LIQUOR/PACKAGE STORE,OFF,1015 W. Marietta St. NW,Atlanta,GA,30318,5ebb8ed0-dfd7-4485-a2b6-a4741063de54
Vintage Bottle Shop,LIQUOR/PACKAGE STORE,OFF,1720 Mars Hill Rd NW  Ste 12-14,Acworth,GA,30101,9e3e964d-b218-4c49-a8bf-d74d0fb9523f
STERLING CELLAR WINE & LIQUORS,LIQUOR/PACKAGE STORE,OFF,179 RTE 6,MAHOPAC,NY,10541,f754ff6a-6137-4bf5-b76a-cca892df8c87
Top Shot Package Store,LIQUOR/PACKAGE STORE,OFF,320 Hwy 314,Fayetteville,GA,30214,9e211f5d-d094-4fe8-8351-ecdbb85cdc8c
SPEC S 090 LIQUOR,LIQUOR/PACKAGE STORE,OFF,7777 HINES PLACE BOULEVARD,DALLAS,TX,75235,323de86e-48f5-445c-ac0e-1d917a079241
High Spirits Package,LIQUOR/PACKAGE STORE,OFF,5425 Wendy Bagwell Parkway,Hiram,GA,30141,aa847362-44dd-4738-b768-0f1a1fb41046
Market Place Beverage,LIQUOR/PACKAGE STORE,OFF,50 Market Place Dr.,Newnan,GA,30265,f3f4ac89-f4cb-4056-86a7-07a06a2b7620
BLAKE ST. LIQUOR,LIQUOR/PACKAGE STORE,OFF,1432 BLAKE STREET,DENVER,CO,80202,8dc9596f-4135-4c6d-bef9-8e5f99bc9199
ONE STOP LIQUOR,LIQUOR/PACKAGE STORE,OFF,1405 W HOUSTON STREET,SHERMAN,TX,75092,620a19f5-7654-40a3-b9bc-516ad1f7dcb7
Spring Road Package,LIQUOR/PACKAGE STORE,OFF,1669 A Spring Road SE,Smyrna,GA,30080,41393d4b-048c-40b5-85ac-854a2412c26f
WEST VAIL LIQUOR MART,LIQUOR/PACKAGE STORE,OFF,2151 N FRONTAGE RD,VAIL,CO,81657,7e044f53-dfa5-47ee-bb1b-2a4f7f0afb99
STROH RANCH LIQUORS-AFFIDAVIT,LIQUOR/PACKAGE STORE,OFF,12939 S PARKER RD,PARKER,CO,80134,3a69c685-5073-4571-9460-121699a37b8c
Elite Package Store,LIQUOR/PACKAGE STORE,OFF,2789 Delk Rd SE,Marietta,GA,30067,6d81fef1-d210-4706-ae86-c2f36f3c85e6
SWEET WATERS LIQUOR,LIQUOR/PACKAGE STORE,OFF,701 CHAMBERS AVE,EAGLE,CO,81631,a145b9fd-1543-4ead-8345-ab51c4e89bfd
FRUITVALE LIQUORS,LIQUOR/PACKAGE STORE,OFF,507 30 ROAD UNIT O,GRAND JUNCTION,CO,81504,497d2636-44d5-4809-b585-e87f4642c8ae
Dan s Package Store,LIQUOR/PACKAGE STORE,OFF,8529 Roswell Rd,Sandy Springs,GA,30350,08d7ee85-814e-4e89-a5d6-2c75ceb50052
TOAST! WINE AND SPIRITS,LIQUOR/PACKAGE STORE,OFF,3828 WEST 23RD AVENUE,DENVER,CO,80211,74852d86-42ce-4e17-b40c-fa230a5630cb
Party Liquor,LIQUOR/PACKAGE STORE,OFF,101 Williams Street,Calhoun,GA,30701,4121337b-622f-40f3-a30e-9185da7e4791
Springs Bottle Shop,LIQUOR/PACKAGE STORE,OFF,8885 Roswell Rd,Sandy Springs,GA,30350,2a02d9aa-aeab-4b01-852c-5753fa34c201
Zebulon Package Store,LIQUOR/PACKAGE STORE,OFF,610 Thomaston St,Zebulon,GA,30295,cb60a337-61d6-4043-b594-3cce1870821b
Toast Wine & Beverage,LIQUOR/PACKAGE STORE,OFF,417 Fury s Ferry Rd,Martinez,GA,30907,5d052602-045c-4ada-b844-60b288b9deba
Blue Glass Liquor & Wine,LIQUOR/PACKAGE STORE,OFF,6015 Post Rd Ste C,Cumming,GA,30040,99cc000f-87a5-49a5-adda-2ead96b72d28
Midtown Pantry LLC,LIQUOR/PACKAGE STORE,OFF,536 Decatur St SE,Atlanta,GA,30312,3d8ef833-332f-4dc8-8dc7-ccd93138aac9
Beverage World of Cumming,LIQUOR/PACKAGE STORE,OFF,745 Lanier 400 Pkwy,Cumming,GA,30040,ad3b5d68-7139-4c3a-964b-b54e3c5d877d
Hal s Package Store,LIQUOR/PACKAGE STORE,OFF,1223 Columbia Dr,Decatur,GA,30032,059f7b64-d6a1-4bb2-887d-999ca0166672
Lucky s Beverage World,LIQUOR/PACKAGE STORE,OFF,610 Claremore Professional Way,Woodstock,GA,30188,b8062155-d7ef-47cc-b5e8-c85e4535df0b
CASK AND CRAFT,LIQUOR/PACKAGE STORE,OFF,3744 TEJON ST LOTS 24 & 25 BLK,DENVER,CO,80211,b463a695-e8f8-4eb1-babe-eda2c4622d1e
ALAMO CITY WINE MERCHANTS LLC,LIQUOR/PACKAGE STORE,OFF,16500 N SAN PEDRO AVE STE 291,SAN ANTONIO,TX,78232,3476d1bb-5c3b-46ab-95bb-192907708705
SARATOGA WINE EXCHANGE THE,LIQUOR/PACKAGE STORE,OFF,43 D ROUND LAKE RD,BALLSTON LAKE,NY,12019,1a978cf1-3e45-44ea-8a80-4faaad3c7a65
RIDGE LIQUORS,LIQUOR/PACKAGE STORE,OFF,3331 ARAPAHOE ROAD SUITE 10,ERIE,CO,80516,499811d9-b085-4bdf-88ce-095ac2b89e9d
MEDFIELD PACKAGE,LIQUOR/PACKAGE STORE,OFF,20 NORTH ST,MEDFIELD,MA,02052,fdad8973-b488-4b52-b537-5703e0a0a32b
SHOWCASE WINE & SPIRITS,LIQUOR/PACKAGE STORE,OFF,1390-92 N LAKE AV,PASADENA,CA,91104,7194fdd0-247c-44a3-a939-7e028bdc2d31
BREMERS WINE & LIQUOR,LIQUOR/PACKAGE STORE,OFF,4684 COMMERCIAL DR,NEW HARTFORD,NY,13413,070c6362-fa0a-49af-a423-cfe95f21d00c
HENRY S LIQUOR STORE,LIQUOR/PACKAGE STORE,OFF,324 WEATHERLY,BORGER,TX,79007,b14d7d97-3aaa-40de-a073-54289e51894b
BLANCHARD S LIQUORS - REVERE,LIQUOR/PACKAGE STORE,OFF,286 AMERICAN LEGION HWY,REVERE,MA,02151,01268b10-ba3d-4a34-abe5-953b6a619fe0
NEEDHAM CENTER FINE WINES,LIQUOR/PACKAGE STORE,OFF,1013 GREAT PLAIN AVE,NEEDHAM,MA,02492,091bae40-3360-433e-8b60-5c53501b1d79
REED STREET BOTTLE SHOP  THE,LIQUOR/PACKAGE STORE,OFF,34 REED ST,COXSACKIE,NY,12051,2eabd77b-1887-43dd-814d-bf8ab0f9f647
NORMAN S LIQUORS #2,LIQUOR/PACKAGE STORE,OFF,5200 CLARK ROAD,SARASOTA,FL,34238,ff0e1be8-437e-4c1b-af87-a717df3c5348
FONTAINEBLEAU LAS VEGAS,HOTEL/ MOTEL,ON,2777 LAS VEGAS BLVD S,LAS VEGAS,NV,89109,ad63a31e-2ad2-4ce8-800d-9fb1da7bdec6
BREAKERS HOTEL,HOTEL/ MOTEL,ON,ONE SOUTH COUNTY RD C,PALM BEACH,FL,33480,7e5268a3-c7de-4e0a-be68-187f510aaea7
MARTINIQUE ON BROADWAY,HOTEL/ MOTEL,ON,1260 BROADWAY,NEW YORK,NY,10001,a84edd2c-233f-4abd-9996-8b7233c3f709
1 HOTEL SOUTH BEACH,HOTEL/ MOTEL,ON,2341 COLLINS AVENUE,MIAMI BEACH,FL,33139,bf81252b-38be-4e2b-8ef8-d41235076808
EVELYN HOTEL,HOTEL/ MOTEL,ON,4 E 28TH STREET - BASEMENT DEL,NEW YORK,NY,10016,e356d5c7-6b0a-4534-b4e5-fd4030a65a7f
MOXY LES,HOTEL/ MOTEL,ON,141 151 BOWERY,NEW YORK,NY,10002,e8d5f84e-846e-4df5-b05b-77c636319da4
MONTAUK BEACH HSE,HOTEL/ MOTEL,ON,55 S ELMWOOD AVE,MONTAUK,NY,11954,0a9b7bb9-f2de-4aea-974a-48021e28b2af
HOTEL KABUKI,HOTEL/ MOTEL,ON,1625 POST ST,SAN FRANCISCO,CA,94115,9b40e5b8-44c1-4538-adba-7d9c9f392c7e
ACQUALINA RESORT & SPA ON THE,HOTEL/ MOTEL,ON,17875 COLLINS AVENUE,SUNNY ISLES BEACH,FL,33160,0a076d5d-7f31-4cae-9b23-4869f5553220
ORCHARD STREET RESTAURANT MANA,HOTEL/ MOTEL,ON,9 ORCHARD ST,NEW YORK,NY,10002,088df239-0e2f-4b93-bdf1-5d1ad63461e7
INN AT SPANISH BAY,HOTEL/ MOTEL,ON,2800 17 MILE DR,PEBBLE BEACH,CA,93953,27e107ff-ef35-4a74-be1a-e085267893b8
MOLLIE ASPEN,HOTEL/ MOTEL,ON,111 SOUTH GARMISCH STREET,ASPEN,CO,81611,74bea788-4ab0-4877-ab73-466b9083c90d
DUNE DECK  THE,HOTEL/ MOTEL,ON,379 DUNE RD,WESTHAMPTON BEACH,NY,11978,ab0c315f-1285-433e-b22f-a9d7c0856669
PLYMOUTH HOTEL/BLUE RIBBON,HOTEL/ MOTEL,ON,336 21 STREET,MIAMI BEACH,FL,33139,8da4b7b3-0fc0-45a0-8bd7-7e0c11894f28
JW MARRIOTT ESSEX HOUSE NY,HOTEL/ MOTEL,ON,160 CENTRAL PARK SOUTH,NEW YORK,NY,10019,b8ee0f88-b856-4d03-9b13-b86f1d80d799
Waldorf Astoria Atl Buckhead,HOTEL/ MOTEL,ON,3376 Peachtree Rd NE OFC,Atlanta,GA,30326,1505f18c-61f2-4a5b-b004-60ef81f77086
EPIC HOTEL,HOTEL/ MOTEL,ON,270 BISCAYNE BLVD WAY,MIAMI,FL,33131,60015fc2-162a-498c-bac8-791e09539c5c
MAYBOURNE BEVERLY HILLS,HOTEL/ MOTEL,ON,225 N CANON DR,BEVERLY HILLS,CA,90210,5f4940c3-3306-4a79-b304-f308c776cd13
HBY QOZB LLC  HBY ENTERTAINMEN,HOTEL/ MOTEL,ON,200 NORTH ST,KINGSTON,NY,12401,03b47197-9175-4b12-8a04-05cb12974905
LODGE AT PEBBLE BEACH,HOTEL/ MOTEL,ON,LODGE AT PEBBLE BEACH,PEBBLE BEACH,CA,93953,204300d1-9661-4d01-939b-577a5799a8f2
STANDARD EAST VILLAGE  THE,HOTEL/ MOTEL,ON,25 33 COOPER SQUARE,NEW YORK,NY,10003,440e0db8-c0f0-4749-864c-3429b34d7240
WALDORF ASTORIA,HOTEL/ MOTEL,ON,1 MONARCH BEACH RESORT,DANA POINT,CA,92629,e89df7d8-3618-4661-804f-e5a04935cef8
BOCA RATON  BOCA WHIP  CABANA,HOTEL/ MOTEL,ON,501 EAST CAMINO REAL,BOCA RATON,FL,33432,2857824f-dfc9-48ad-b417-abc33056dca7
SEBASTIAN-VAIL,HOTEL/ MOTEL,ON,16 VAIL ROAD,VAIL,CO,81657,1cac9f98-1b9f-42ee-8790-75e98980ad1d
LOEWS CORAL GABLES HOTEL,HOTEL/ MOTEL,ON,2950 COCONUT GROVE DRIVE,CORAL GABLES,FL,33134,edb79b24-494a-4fc9-855e-9422407fcd7f
RESORTS WORLD LAS VEGAS,HOTEL/ MOTEL,ON,3000 S LAS VEGAS BLVD,LAS VEGAS,NV,89109,3eca9f9b-c23d-4990-a976-f747c836342d
INNESS,HOTEL/ MOTEL,ON,10 BANK ST,ACCORD,NY,12404,9d32da34-8dba-40be-b2f3-6cda0767c8ee
AC Hotel By Marriott Buckhead,HOTEL/ MOTEL,ON,3586 Peachtree Rd NE,Atlanta,GA,30326,57e4f91a-9ee0-48c6-a183-0739cc3ced3e
POPULUS HOTEL  AN APARIUM,HOTEL/ MOTEL,ON,240 14TH STREET,DENVER,CO,80202,44662088-1cc7-42f2-a19a-00fcad0543fe
FOUR SEASONS RESORT  LAS VEGAS,HOTEL/ MOTEL,ON,3960 LAS VEGAS BLVD SO,LAS VEGAS,NV,89119,9bce66f6-5966-4e6c-8928-c34e21389d1b
Atlanta Hilton (Around the World),HOTEL/ MOTEL,ON,255 Courtland St NE,Atlanta,GA,30303,9a05a3a1-aeff-42ae-89ca-c33c365d83d1
ROMER HELL S KITCHEN,HOTEL/ MOTEL,ON,851 8TH AVE,NEW YORK,NY,10019,15d5a47a-e134-4a95-b9de-a564a2e6857d
PORTOFINO BAY HOTEL,HOTEL/ MOTEL,ON,5601 UNIVERSAL BLVD,ORLANDO,FL,32819,8716b4ef-0b39-4fc9-82ea-304529a7d46d
THE DREY HOTEL,HOTEL/ MOTEL,ON,5630 VILLAGE GLEN DR,DALLAS,TX,75206,108ba3d1-15c3-4a75-a873-4a3b6e6e00d1
WYNDHAM GRAND ORLANDO RESORT,HOTEL/ MOTEL,ON,14651 CHELONIA PARKWAY,ORLANDO,FL,32821,fa7d8d15-bb04-424b-bfcd-91ea45465088
LOEWS ARLINGTON HOTEL,HOTEL/ MOTEL,ON,1601 E RANDOL MILL RD,ARLINGTON,TX,76011,3e3cf427-1eba-41ba-b072-7f00be0b3c75
RITZ CARLTON HOTEL COMPANY,HOTEL/ MOTEL,ON,1185 BROADWAY,NEW YORK,NY,10001,475af21f-e565-4600-8427-2b585c444a0b
JW MARRIOTT MIAMI TURNBERRY,HOTEL/ MOTEL,ON,19999 WEST COUNTRY CLUB DRIVE,AVENTURA,FL,33180,6144b6ac-97a4-4ca9-a44b-c55e4e6e9dbe
SOF-XI KAUAI PV HOTEL LP,HOTEL/ MOTEL,ON,5520 KA HAKU RD,PRINCEVILLE,HI,96722,fccb0c74-f385-4dbb-94dc-2f3ff1fb408c
The Candler Hotel,HOTEL/ MOTEL,ON,127 Peachtree St NW,Atlanta,GA,30303,efb99947-6915-4524-ae96-a4f0f377288f
Renaissance Atl Airport Gateway,HOTEL/ MOTEL,ON,2081 Convention Center Concourse,College Park,GA,30337,768753db-dd75-44a5-ae2f-3a6f5a486aef
Reverb Hotel Atlanta,HOTEL/ MOTEL,ON,89 Centennial Olympic Park Drive NW,Atlanta,GA,30313,f44f4941-f455-4851-a65f-44eddedae66a
LODGE AT SONOMA,HOTEL/ MOTEL,ON,1325 BROADWAY,SONOMA,CA,95476,fb172902-4022-4d61-aa5f-59a6116e4ae8
HARD ROCK HOTEL,HOTEL/ MOTEL,ON,5800 UNIVERSAL BLVD,ORLANDO,FL,32819,b679d7e4-d4bb-4fe5-99d7-9fe0d3473bba
ROYAL PACIFIC RESORT,HOTEL/ MOTEL,ON,6300 HOLLYWOOD WAY,ORLANDO,FL,32819,69a85801-a160-402f-a8f5-32239f7b6728
PIER SIXTY-SIX HOTEL,HOTEL/ MOTEL,ON,2301 SE 17TH ST,FORT LAUDERDALE,FL,33316,dda80db4-7eb7-4b10-8d42-0e52e261b96f
Loews Atlanta Hotel,HOTEL/ MOTEL,ON,1065 Peachtree St NE,Atlanta,GA,30309,a306132b-6769-4295-92a7-d733c6466935
The Kimpton Sylvan**CLOSED**,HOTEL/ MOTEL,ON,374 E Paces Ferry Rd NE,Atlanta,GA,30305,39934bc6-7cba-47cb-9d7e-a5de41e81496
Four Seasons Hotel Atl,HOTEL/ MOTEL,ON,75 14th Street NE,Atlanta,GA,30309,37b48181-93d8-4cee-bff2-7acf6e563e97
A-FRAME CLUB WINTER PARK,HOTEL/ MOTEL,ON,1008 WINTER PARK DRIVE,WINTER PARK,CO,80482,20377c91-772d-411b-9c49-3f6aaccbb505
WEST HOLLYWOOD EDITION THE,HOTEL/ MOTEL,ON,9040 SUNSET BLVD,WEST HOLLYWOOD,CA,90069,e1b35af6-17b9-4d90-9911-45fda687b22b
GRAVITY HAUS,HOTEL/ MOTEL,ON,315 E HYMAN AVENUE,ASPEN,CO,81611,5edd135f-adac-4aa4-8559-8b9d61b2e4a2
SEAGATE HOTEL& SPA/BOURBON,HOTEL/ MOTEL,ON,1020 E ATLANTIC AVE,DELRAY BEACH,FL,33483,9e087547-c1c8-47cd-8edd-488ee60047d6
(THE) BETSY SOUTH BEACH,HOTEL/ MOTEL,ON,1440 OCEAN DRIVE & 1433 COLLIN,MIAMI BEACH,FL,33139,d4fd8c02-b708-49b0-a2bc-936ecffd50b1
RESIDENCE INN CUPERTINO,HOTEL/ MOTEL,ON,19429 STEVENS CREEK BLVD,CUPERTINO,CA,95014,921802f5-9531-47bd-81cb-ecb8fa4f3ba3
LOEW S CORONADO BAY,HOTEL/ MOTEL,ON,4000 CORONADO BAY RD,CORONADO,CA,92118,61a7c67d-003f-4e18-9119-6e0570932f67
W Atl Downtown/Destination****,HOTEL/ MOTEL,ON,45 Ivan Allen Jr Blvd NW,Atlanta,GA,30308,e51ebbfe-51ab-4e10-923d-97b1a43fb189
HYATT HOUSE,HOTEL/ MOTEL,ON,2719 K ST,SACRAMENTO,CA,95816,414fc2e9-b868-4273-ae65-063caa775c32
BOCA BEACH CLUB/BEACHES BAR,HOTEL/ MOTEL,ON,900 SOUTH OCEAN BLVD,BOCA RATON,FL,33432,39430785-d27f-4f3e-b31f-97c70ce542c7
MARQUESA HOTEL,HOTEL/ MOTEL,ON,600 FLEMING STREET,KEY WEST,FL,33040,787cef80-d590-412e-ae28-c49744bf86bc
VILLA ROYALE,HOTEL/ MOTEL,ON,1620 INDIAN TRAIL,PALM SPRINGS,CA,92264,a76d6eb2-84a1-42ef-97f2-72ed6e7ee6ca
GURNEYS MONTAUK RESORT AND,HOTEL/ MOTEL,ON,290 OLD MONTAUK HGHY,MONTAUK,NY,11954,df39e2d1-1674-42d3-a13d-037c11e66685
CRAFT & ART WINES & SP/PAR-SAM,OTHER ON PREMISE,ON,15751-55 TAPIA STREET,IRWINDALE,CA,91702,e1dc417c-180f-4082-b6d2-7ad6076bb2bc
SAKE ONO/PARK STREET IMP -SAMP,OTHER ON PREMISE,ON,5286 PO BX 660367,DALLAS,TX,75266,46221ae8-44bd-4e1f-9942-e5152ba2bf71
SGWS-HOUSE SAMPLE M02(SUPP) ON,OTHER ON PREMISE,ON,1600 NW 163RD ST,MIAMI,FL,33169,64a74cc2-485e-476b-b0e1-e5961494b3d2
SOBE - GTV SOUTH,OTHER ON PREMISE,ON,1600 NW 163RD ST,MIAMI,FL,33169,d54b1d7a-b099-425e-a870-c48a90700c01
SAKE ONO/PARK STREET IMP- SAMP,OTHER ON PREMISE,ON,5286 PO BX 660367,DALLAS,TX,75266,f27dbb66-2929-46e0-b274-bcaba528d7cd
SOBE-DANIEL BOULUD DINNER,OTHER ON PREMISE,ON,255 BISCAYNE BLVD WAY,MIAMI,FL,33015,37b26436-f2d0-4448-a8e3-0b85434a6b86
SOBE-JET TILA DINNER FRI,OTHER ON PREMISE,ON,1701 COLLINS AVENUE,MIAMI BEACH,FL,33109,55fb827e-24ce-420e-ae0c-680819ce5279
SOBE-SUSHI MASTER CLASS,OTHER ON PREMISE,ON,801 BRICKELL AVENUE,MIAMI,FL,33131,24b87937-fd7a-4406-b361-80be997beee0
SGWS KEY WEST HOLIDAY TRADE SH,OTHER ON PREMISE,ON,1600 NW 163RD ST,MIAMI,FL,33169,5ec1571e-0d99-41a8-8a37-d4c8c000319a
SOBE- A SUSHI OMAKASE COLLECTI,OTHER ON PREMISE,ON,2105 N MIAMI AVENUE,MIAMI,FL,33127,2c925072-0654-4a09-8635-a2179040fd79
SOBE-SIP & SWIRL,OTHER ON PREMISE,ON,1737 N BAYSHORE DRIVE,MIAMI,FL,33132,cba65dcf-a38b-4bc5-a762-50bca28020fe
BAKER S BAY GOLF & OCEA,OTHER ON PREMISE,ON,GREAT GUANA CAY MARSH HARBOUR,** INTERNATIONAL **,FL,2,a159cfc5-414b-4466-b2d1-47aa37095eae
SOBE - GTV SPONSOR VILLAGE,OTHER ON PREMISE,ON,1600 NW 163RD ST,MIAMI,FL,33169,855d7b66-54bb-43a4-bddc-6a95f0bb2cb4
SGWS-HOUSE SMP  M05(CONSUMER),OTHER ON PREMISE,ON,1600 NW 163RD ST,MIAMI,FL,33169,5d51809b-f7d7-41b1-a42d-b5540ee5c63b
UNIVERSAL HELIOS GRAND HOTEL,OTHER ON PREMISE,ON,8505 SOUTH KIRKMAN ROAD,ORLANDO,FL,32819,8dcd1147-5b81-463b-be1f-1b9ce53e606b
SHEEHAN MCCOY SAMPLES,OTHER ON PREMISE,ON,155 KAPALULU PLACE STE 300,HONOLULU,HI,96819,6e63e861-21e7-494f-92c1-f18e1b96de91
JEFFERY SMITH SAMPLES,OTHER ON PREMISE,ON,155 KAPALULU PL STE 300,HONOLULU,HI,96819,088a5eb1-ef13-4cce-9107-680e5962495d
TEAM #089 WISNER,OTHER ON PREMISE,ON,93321 DOWE AVE,UNION CITY,CA,94587,3fae7974-235d-4343-a914-27e3a180dc08
TEAM #102 BARBER,OTHER ON PREMISE,ON,33321 DOWE AVE,UNION CITY,CA,94587,0fbfbc38-f5b9-4998-b8ce-9031fb61a1d7
TEAM #182 KILIAN,OTHER ON PREMISE,ON,33321 DOWE AVE,UNION CITY,CA,94587,9bb2fed5-9615-4738-ba00-33467f8cebb6
SAKE ONE,OTHER ON PREMISE,ON,820 ELM STREET,FOREST GROVE,OR,97116,e10338cf-5ec3-49c0-b83a-a618c4acb0e7
CRAFT & ART WINES & SPIRITS/PA,OTHER OFF PREMISE,OFF,1000 BRICKELL AVENUE SUITE 915,MIAMI,FL,33131,4a895631-3ea4-494c-8f95-61f097838101
SAKE ONO/PARK STREET/SAMPLES,OTHER OFF PREMISE,OFF,22800 E. 19TH AVE,AURORA,CO,80019,972c1353-0363-46de-b096-f8948e19fb27
HD 200 PARK LLC,OTHER OFF PREMISE,OFF,200 PARK AVE,NEW YORK,NY,10166,988be759-1baf-45cd-8e00-ed0ad8406b8a
VOM FASS OF SAN DIEGO (OFF),OTHER OFF PREMISE,OFF,1440 INNOVATIVE DR #400,SAN DIEGO,CA,92154,e547363d-4137-4b6b-91be-26185aefb8ab
NYCWFF-ASIAN BITES-FRIDAY,OTHER OFF PREMISE,OFF,117 WEST STREET,NEW YORK,NY,10006,fbd9d59d-d6c9-43ab-b50d-788caf48c2b1
SAKE ONO/PARK STREET IMPORTS,OTHER OFF PREMISE,OFF,5286 POST OFFICE BOX 660367,DALLAS,TX,75266,6d1ca0e8-47fe-4846-9ca5-c82a8a9cebd1
FULL GLASS ENTERPRISES,OTHER OFF PREMISE,OFF,3525 V ST NE,WASHINGTON,DC,20008,217c6ded-aadf-4bf7-bc0b-3a00ff2fb0ac
SAKEONE/SAMPLES,OTHER OFF PREMISE,OFF,5270 FOX STREET,DENVER,CO,80216,b0bdd570-eb19-4922-b154-068fb92b63c2
CRAFT & ART WINE/SAMPLES,OTHER OFF PREMISE,OFF,22800 E 19TH,AURORA,CO,80019,1089043a-4c0e-4d3a-b158-4689414623fa
NYCWFF-GRAND TASTING-SATURDAY,OTHER OFF PREMISE,OFF,80 58TH STREET  PIER 4,BROOKLYN,NY,11220,4641835e-2ea7-49d7-be86-4b333d7b5022
NYCWFF-OYSTER BASH SUN.,OTHER OFF PREMISE,OFF,BRIDGE PARK DR  PIER 6,BROOKLYN,NY,11201,5e80b86b-8e43-4f29-b583-4245a9043698
SAMPLE GRAND ANNUAL TASTING,OTHER OFF PREMISE,OFF,99 EAST 52ND STREET,NEW YORK,NY,10022,28f21c64-bb0e-42c2-90c4-04eb3d5a1c2a
SAMPLE GSM,OTHER OFF PREMISE,OFF,SYOSSET,SYOSSET,NY,11791,24beba70-d1e5-49ff-a89c-5a090fe9e75c
ENDS MEAT LLC,OTHER OFF PREMISE,OFF,220 36TH ST UNIT B104,BROOKLYN,NY,11232,897ce482-e377-414f-8c9e-bccb2e912612
NYCWFF-KYU DINNER-SUNDAY.,OTHER OFF PREMISE,OFF,324 LAFAYETTE STREET,NEW YORK,NY,10012,df47756b-7d87-47db-9677-633c1696046b
NYCWFF-JET TILA DINNER THURS.,OTHER OFF PREMISE,OFF,20 SPRING STREET,NEW YORK,NY,10012,4caaeebf-6edf-47cd-8ce0-4f174b898521
NYCWFF-NARO DINNER THURS.,OTHER OFF PREMISE,OFF,610 5TH AVENUE  #04,NEW YORK,NY,10020,d3057f3e-9a92-4bb2-a2e3-1d9b2302c427
SGWS- SUPPLIER SAMPLES,OTHER OFF PREMISE,OFF,3125 V STREET NE,WASHINGTON,DC,20018,ad7eb660-c6c6-4423-a9ee-122a88e25c58
PARK ST/CRAFT&ARTS TRANSFER,OTHER OFF PREMISE,OFF,1000 BRICKELL AVENUE SUITE 915,MIAMI,FL,33131,cef8aaa0-6285-4352-bbd4-e91295eaa47f
PALAZZO DEL SOL,OTHER OFF PREMISE,OFF,6800 FISHER ISLAND DRIVE,FISHER ISLAND,FL,33109,b74cc5f3-867f-437f-9a57-b70ffa301e4f
NYCWFF-SOCIAL HOUR SAT.,OTHER OFF PREMISE,OFF,25 W 28TH STREET,NEW YORK,NY,10001,c0960bd7-1a7a-4ac6-ba4a-d5a5e241f3d2
MISSION LIQUOR & WINES WHSE,OTHER OFF PREMISE,OFF,445-447 MADERA STREET,SAN GABRIEL,CA,91776,b508a14b-66a9-4bfe-b69b-cd636dc1d10a
NYCWFF-ALEX G DINNER-FRIDAY,OTHER OFF PREMISE,OFF,1100 AVENUE OF AMERICAS,NEW YORK,NY,10023,0fa3ca31-1490-4a1c-8de4-fca33529137d
SAMPLE BRENDAN MCCREA,OTHER OFF PREMISE,OFF,W/HOUSE PICK-UP,SYOSSET,NY,11791,73b3959a-7965-4deb-9c98-575f9fced489
NYCWFF-PAVLOVA CLASS SUN.,OTHER OFF PREMISE,OFF,225 LIBERTY STREET,NEW YORK,NY,10281,4dbb9384-0015-42a6-8ef7-70768749c235
NYCWFF-FRIED CHICKEN SUN.,OTHER OFF PREMISE,OFF,225 LIBERTY STREET,NEW YORK,NY,10281,cb74b0eb-53d2-4b07-ab7c-077496313ffc
AVANTI F&B,OTHER OFF PREMISE,OFF,458 VAIL VALLEY DRIVE UNIT C-5,VAIL,CO,81657,ffd8a66f-d6aa-4fe7-8aca-eacd986a63c3
SAMPLE REP DIANE NEWMAN,OTHER OFF PREMISE,OFF,W/HOUSE PICK-UP,SYOSSET,NY,11791,573f33b5-4d48-43e6-bf56-cbc7c42b3203
SAMPLE NICHOLAS SLATER,OTHER OFF PREMISE,OFF,W/HOUSE PICK-UP,SYOSSET,NY,11791,f0e43902-abaf-4ba9-9388-70d24b683c0a
SGWS- TEAM SAMPLES,OTHER OFF PREMISE,OFF,3125 V STREET NE,WASHINGTON,DC,20018,ca8df0ff-8671-499f-b19a-7e8b39a4dc4a
SAMPLE REP CHRISTIAN CACERES,OTHER OFF PREMISE,OFF,W/HOUSE PICK UP,SYOSSET,NY,11791,9f2cce80-d541-4aa3-8373-a0985b95afc8
SGWS DONATIONS,OTHER OFF PREMISE,OFF,8400 S JONES BLVD,LAS VEGAS,NV,89108,4b82dede-54ce-41b0-8d71-67153a1550ca
TEAM #009 CHO,OTHER OFF PREMISE,OFF,17101 VALLEY VIEW AV,CERRITOS,CA,90703,88e0031c-06d6-49dd-b173-576b379f4064
SAMPLE REP DONALD CHOI,OTHER OFF PREMISE,OFF,W/HOUSE PICK-UP,SYOSSET,NY,11791,e910f8d5-23e3-4a89-91a1-0fdc5d750040
SAMPLE SYOSSET ARIEL ABRAMOV,OTHER OFF PREMISE,OFF,W/HOUSE PICK-UP,SYOSSET,NY,11791,703c7ccd-f996-4da9-8591-5ea62b36cf78
WARREN SHON SAMPLE,OTHER OFF PREMISE,OFF,155 KAPALULU PL STE 300,HONOLULU,HI,96819,df955471-0ada-469c-a634-5c0b53a65caf
TEAM #065 KILIAN,OTHER OFF PREMISE,OFF,17101 VALLEY VIEW AV,CERRITOS,CA,90703,d680e5a3-77a3-458f-9c32-6a8f463d1abe
SGWS-HOUSE SAMPLE F01 (MISC),OTHER OFF PREMISE,OFF,2385 ROCKFILL ROAD,FORT MYERS,FL,33916,79d7bd58-0f65-43cb-ad4c-d6757701ad6d
SAMPLE ADRIAN CHIOTA,OTHER OFF PREMISE,OFF,W/HOUSE PICK-UP,SYOSSET,NY,11791,91debac6-4938-41a3-9ef6-61c6b65f170e
DOUBLE SHOT HOSPITALITY,OTHER OFF PREMISE,OFF,3950 PATRICK LANE STE 203,LAS VEGAS,NV,89120,cb06d3ed-91eb-4830-aec5-8bbd5b16ffbb
TEAM #061 GARCIA,OTHER OFF PREMISE,OFF,33321 DOWE AVE,UNION CITY,CA,94587,289bd3bc-5b66-41dc-960e-4dec3f21ba18
TEAM #041 BONAMIGO,OTHER OFF PREMISE,OFF,17101 VALLEY VIEW AV,CERRITOS,CA,90703,b4b1d31d-c023-42a8-acf0-085f3d979aec
SAMPLE REP FRANK MISSONE,OTHER OFF PREMISE,OFF,W/HOUSE PICK-UP,SYOSSET,NY,11791,a7fd0c24-b2ab-46c6-862b-b229d75c1bfe
SAMPLE REP PATRICIA HOPE,OTHER OFF PREMISE,OFF,W-HOUSE PICK UP,SYOSSET,NY,11773,c286da19-e064-49cb-a97d-9ebede980de8
SAMPLE REP EVAN RAPPAPORT,OTHER OFF PREMISE,OFF,W/HOUSE PICK-UP,SYOSSET,NY,11791,2997cad2-78c7-4669-9ca8-d435c0b518ab
SAMPLE RYAN MOORE,OTHER OFF PREMISE,OFF,99 RAILROAD AVE,ALBANY,NY,12205,80a463c4-5227-47fd-92b8-07373c2c9e6a
RAZEE  SEAN,OTHER OFF PREMISE,OFF,SW&S,DENVER,CO,80217,18608b0a-882c-4f21-8f06-d7f081767121
SAMPLE REP SUNG KIM,OTHER OFF PREMISE,OFF,W/HOUSE PICK-UP,SYOSSET,NY,11791,e6c5892e-4422-43c4-b84b-10ffaf741efb
SAMPLE REP PAUL ENGCHUAN,OTHER OFF PREMISE,OFF,W/HOUSE PICK-UP,SYOSSET,NY,11791,1188a3c0-c364-4fea-a1ea-d7dc8fa19dfe
SGWS-HOUSE SMP  O03(NEW PROD),OTHER OFF PREMISE,OFF,7101 TPC DRIVE SUITE 150,ORLANDO,FL,32822,049f7217-f63e-4a1a-b654-3aa750c259e2
SAMPLE AGUSTINA HOBBS,OTHER OFF PREMISE,OFF,W/HOUSE PICK UP,SYOSSET,NY,11791,72bd2a09-6451-414c-bc5f-9ff40ba9e43e
TEAM #089 HUPP ALLISON,OTHER OFF PREMISE,OFF,33321 DOWE AVE,UNION CITY,CA,94587,1241a9b2-6d2f-490f-b77d-5119f851b01b
TEAM #121 HUPP,OTHER OFF PREMISE,OFF,17101 VALLEY VIEW AV,CERRITOS,CA,90703,f27deb92-5a76-4c3d-8d8e-ca15b49c2712
SAMPLE REP SHASTA HAMILTON,OTHER OFF PREMISE,OFF,W/HOUSE PICK-UP,SYOSSET,NY,11791,03387ceb-8b6a-4891-a95a-1144f7be983b
SAMPLE REP KRISTIN MAURITZ,OTHER OFF PREMISE,OFF,W/HOUSE PICK-UP,SYOSSET,NY,11791,8cd081c2-36a8-40a4-8a11-591d701f04fb
SAMPLE JOSH LENHARD,OTHER OFF PREMISE,OFF,2436 INNOVATION WAY,ROCHESTER,NY,14624,e5bcce4e-2451-4ec6-a21d-e949a265029c
SAMPLE JESSICA MERMAGEN,OTHER OFF PREMISE,OFF,3063 COURT STREET,SYRACUSE,NY,13208,731dc171-dd8d-4500-a9b4-6f1f0971b260
SAMPLE ADAM MERSINCAVAGE,OTHER OFF PREMISE,OFF,99 RAILROAD AVE,ALBANY,NY,12205,0740bbce-8cfe-44a0-a75a-c327d8a3ea1b
LAHUE  DEVLIN,OTHER OFF PREMISE,OFF,SW&S FIELD MGR,DENVER,CO,80217,6c3d338c-abfa-4d70-bc04-c77705d4610b
TEAM #OPN,OTHER OFF PREMISE,OFF,17101 VALLEY VIEW AVE,CERRITOS,CA,90703,af2e035b-2577-4e9a-98a6-c6794da1ae0a
SAMPLE REP MICHAEL STROHL,OTHER OFF PREMISE,OFF,W/HOUSE PICK-UP,SYOSSET,NY,11791,881e8423-642a-45ca-9a1d-b9111548040d
TEAM #262 LAURO,OTHER OFF PREMISE,OFF,17101 VALLEY VIEW AV,CERRITOS,CA,90703,0de57705-3312-4bf8-ab5a-13fd289b12ea
CONROY  PATRICK,OTHER OFF PREMISE,OFF,SW&S,DENVER,CO,80216,05f67a34-bd17-41e4-900b-bbbb08220309
TEAM #003 OPEN,OTHER OFF PREMISE,OFF,33321 DOWE AVE,UNION CITY,CA,94587,f3cd3af4-93c6-4b17-8a52-45c72fedf3af
TEAM #089 AVILA  DUART,OTHER OFF PREMISE,OFF,33321 DOWE AVE,UNION CITY,CA,94587,6d47a3c6-9c23-4600-9978-acf724bf2f8b
SAMPLE GINA BOGGIO,OTHER OFF PREMISE,OFF,W/HOUSE PICK-UP,SYOSSET,NY,11791,2d7568b2-10bc-44cf-9b85-c7d335850ac5
ADAM LACAGNINA SAMPLES,OTHER OFF PREMISE,OFF,155 KAPALULU PLACE STE 300,HONOLULU,HI,96819,38d56f0b-7689-45b0-9536-abaa27faaa80
EXEC WITHDRAWAL LARRY RUVO,OTHER OFF PREMISE,OFF,123,LAS VEGAS,NV,89103,6e1daa2f-67a6-4a33-8bee-9d652ed3ed4d
SAMPLE REP BRYAN GAMZA,OTHER OFF PREMISE,OFF,W/HOUSE PICK-UP,SYOSSET,NY,11791,2ea137f9-9551-4fda-ae30-3ac7294e26ae
SAMPLE REP JACKLYN MCFARLAND,OTHER OFF PREMISE,OFF,A/HOUSE PICK UP,SYOSSET,NY,11791,df3dbf8c-e76e-4429-8015-5b8e50a7a3bb
SAMPLE REP RYAN ATKINSON,OTHER OFF PREMISE,OFF,W/HOUSE PICK UP,SYOSSET,NY,11791,052c17e1-b76a-408a-91d4-a0ec4ea7f4e4
SAMPLE REP ANDREA COLUCCI,OTHER OFF PREMISE,OFF,W/HOUSE PICK-UP,SYOSSET,NY,11791,9bee81e2-80e1-490d-b5a2-22f27d650ac4
SAMPLE REP JASON SHUFFLER,OTHER OFF PREMISE,OFF,W/HOUSE PICK-UP,SYOSSET,NY,11791,56482e27-db40-428f-9b8e-8550aa9fd7b1
SGWS-HOUSE SAMPLE P02(SUPP) ON,OTHER OFF PREMISE,OFF,40 SOUTH NICK WILSON WAY,FREEPORT,FL,32439,61e075aa-f230-4d12-88e6-40806aabddc0
SAMPLE REP MARCO NAZARIO,OTHER OFF PREMISE,OFF,W/HOUSE PICK-UP,SYOSSET,NY,11791,bbdbe7f9-f103-4d2c-af37-db2021612c2f
SGWS-HOUSE SAMPLE J01(MISC) ON,OTHER OFF PREMISE,OFF,6867 STUART LN S,JACKSONVILLE,FL,32254,476c9e9b-bb29-4b2d-8e88-49dd43c77cab
JACKSON  RHONDA,OTHER OFF PREMISE,OFF,5270 FOX STREET,DENVER,CO,80216,b5efe306-bb15-41ce-b48d-7e58c424afaf
EMPLOYEE PURCHASES,OTHER OFF PREMISE,OFF,22800 EAST 19TH AVE,AURORA,CO,80019,947aa75f-cf9b-41fc-9df0-6217bf9f49c7
ASNES  MATT,OTHER OFF PREMISE,OFF,SW&S,DENVER,CO,80217,28d0d4bc-2002-41cd-88e9-f5fc2257cc13
WATSON  SARAH,OTHER OFF PREMISE,OFF,22800 E 19TH AVE,AURORA,CO,80019,80b28d96-faab-4515-ad69-1a564584ea7e
RAITT  CARLA,OTHER OFF PREMISE,OFF,SW&S,DENVER,CO,80217,dbc0b2ea-4534-4023-96db-bb307813f77f
TEAM #032 MAGLIOCCO,OTHER OFF PREMISE,OFF,17101 VALLEY VIEW AV,CERRITOS,CA,90703,abd02cb2-6ec6-4a6a-b702-a051ac340c96
TEAM #247 TRZEBIATOWSKI,OTHER OFF PREMISE,OFF,17101 VALLEY VIEW AV,CERRITOS,CA,90703,859abb40-3fe5-469a-9ef4-5f45c5cd5992
TEAM #063 ORVIS,OTHER OFF PREMISE,OFF,33321 DOWE AVE,UNION CITY,CA,94587,0d583d42-c741-4078-b2ff-67e8b72a94a7
TEAM #055 LAURO,OTHER OFF PREMISE,OFF,33321 DOWE AVE,UNION CITY,CA,94587,3d1a66ef-5ee6-4be6-8c5f-ba8bed56a494
DENNIS CHINN SAMPLES,OTHER OFF PREMISE,OFF,155 KAPAHULU PLACE #300,HONOLULU,HI,96813,a7818019-9ad0-4dfb-9a94-3fc321095249
SAMPLE REP ALLISON CULLEY,OTHER OFF PREMISE,OFF,W/HOUSE PICK-UP,SYOSSET,NY,11791,d2452e62-24ff-4e85-9ffa-d799d1f3972a
ZOZAYA  NICK,OTHER OFF PREMISE,OFF,5270 FOX ST,DENVER,CO,80217,411c3ab3-ef5d-4ce8-ab0c-c0d079383a4d
LEE MELISSA,OTHER OFF PREMISE,OFF,5270 FOX ST,DENVER,CO,80216,22a72662-8560-46ef-b96e-cd39c8da33c0
BROOM  CARSON,OTHER OFF PREMISE,OFF,SW&S,DENVER,CO,80217,6bdc4357-c5db-42d8-971e-c59f6bd5e389
BELLAGIO-MGM MIRAGE SSC AP#132,GOLF/ COUNTRY CLUB,ON,3600 LAS VEGAS BLVD S,LAS VEGAS,NV,89177,cb178b9b-bf75-41f5-a894-ddf5b6c264b4
ZZ S SUSHI BAR,GOLF/ COUNTRY CLUB,ON,151 NE 41 STREET,MIAMI,FL,33137,46176e82-3bdf-43e2-a9b8-f7c251eaf615
THE COSMOPOLITAN OF LV WHSE,GOLF/ COUNTRY CLUB,ON,6025 PROCYON,LAS VEGAS,NV,89118,8c648ef7-b972-4bf8-a88f-cf7490245474
ZERO BOND,GOLF/ COUNTRY CLUB,ON,0 BOND ST A/K/A 670 BROADWAY,NEW YORK,NY,10012,ecad5e53-f19e-4329-9d56-b3c1cf2b16dd
GRANDMASTER RECORDERS,GOLF/ COUNTRY CLUB,ON,1518 CAHUENGA BLVD,LOS ANGELES,CA,90028,7bc8dedd-3758-4668-b519-36a15a9e25cc
CAESARS PALACE - POST BK,GOLF/ COUNTRY CLUB,ON,3570 LAS VEGAS BLVD S,LAS VEGAS,NV,89109,2e6e1f5a-da13-4ce3-aac1-1603f480f7c0
SUMMIT CLUB,GOLF/ COUNTRY CLUB,ON,11750 SUMMIT CLUB DR,LAS VEGAS,NV,89135,187ab7be-ac6f-466e-bf9e-9be5662da103
LADERA GOLF CLUB,GOLF/ COUNTRY CLUB,ON,69501 LEMON BLOSSOM LN,THERMAL,CA,92274,edd6e102-b61f-4f99-bc90-d7bc7e7a29b8
CIRCA RESORT & CASINO,GOLF/ COUNTRY CLUB,ON,8 FREMONT ST,LAS VEGAS,NV,89101,30c4e19e-c5bd-475c-aae3-31312f4836cf
AVERY FISHER HALL,GOLF/ COUNTRY CLUB,ON,100 COLUMBUS AVENUE,NEW YORK,NY,10023,4834a5f0-9440-4462-a7bc-d56bcb2c4701
HARBOUR CLUB,GOLF/ COUNTRY CLUB,ON,1766 BAY RD,MIAMI BEACH,FL,33139,00d8b924-72b8-4eae-a2d5-6dbf6cc2a59a
BALLERINA,GOLF/ COUNTRY CLUB,ON,10201 COLLINS AVENUE,BAL HARBOUR,FL,33154,cb1af41c-df33-498b-bb8b-587bbb079ba2
CARIBOU CLUB LTD,GOLF/ COUNTRY CLUB,ON,411 E HOPKINS,ASPEN,CO,81611,69187fdf-84c8-434d-a11f-cb34b93dc86b
RIVIERA CC R2089-4412,GOLF/ COUNTRY CLUB,ON,1250 CAPRI DR,PACIFIC PALISADES,CA,90272,16f0fb7a-7da5-4f1a-b64d-bc12fde189dd
DRIFTWOOD FOOD & BEVERAGE LLC A,GOLF/ COUNTRY CLUB,ON,11100 FM 967,BUDA,TX,78610,ee71b50d-671b-4193-89a7-6057453066fb
GREEN VALLEY RANCH STATION A/P,GOLF/ COUNTRY CLUB,ON,2300 PASEO VERDE PKWY,HENDERSON,NV,89052,221d114a-eb19-48ff-bec6-af370906f098
COUNTRY CLUB OF FLA (THE),GOLF/ COUNTRY CLUB,ON,22 COUNTRY ROAD,VILLAGE OF GOLF,FL,33436,397e56bb-5a83-44ac-83d8-3cc5ce810f8d
VENETIAN RESORT HOTEL CASINO,GOLF/ COUNTRY CLUB,ON,3325 LAS VEGAS BLVD S,LAS VEGAS,NV,89109,b1685835-95a5-494b-b230-cc0667fe20cd
SOHO HOUSE WEST HOLLYWOOD,GOLF/ COUNTRY CLUB,ON,9200 SUNSET BL SKY PENTHOUSE,WEST HOLLYWOOD,CA,90069,0be28b30-1baf-4725-aa29-a694527dbe8e
RIVER CLUB OF NEW YORK INC,GOLF/ COUNTRY CLUB,ON,447 E.52ST.,NEW YORK,NY,10022,722f7979-3346-4073-8893-8e90b63066cc
THE BRIDGE GOLF CLUB INC,GOLF/ COUNTRY CLUB,ON,1180 MILLSTONE RD,BRIDGEHAMPTON,NY,11932,73d87185-56d2-48d9-80f2-752bd01418bf
HUNTERS RUN,GOLF/ COUNTRY CLUB,ON,3500 CLUBHOUSE LN,BOYNTON BEACH,FL,33425,b95f82de-948d-4618-bf21-1dd1d3c4aa3b
SPHERE LAS VEGAS LLC,GOLF/ COUNTRY CLUB,ON,255 SANDS AVE.,LAS VEGAS,NV,89169,6dd3645b-012b-4a37-893d-8dac8a42c223
SILO RIDGE CLUB BEVERAGE CORP,GOLF/ COUNTRY CLUB,ON,4651 RTE 22,AMENIA,NY,12501,7cf393c6-5408-466a-bcb7-cd8a89291a4f
JONATHAN S LANDING GOLF,GOLF/ COUNTRY CLUB,ON,16823 CAPTAIN KIRLE DR,JUPITER,FL,33477,1f334a90-729d-4d26-a223-b894e5ecac7f
BROKEN SOUND CLUB,GOLF/ COUNTRY CLUB,ON,2401 WILLOW SPRING DR.,BOCA RATON,FL,33496,02f882ee-04a9-49e8-b591-c7809d9ae004
LEVY-THE MUSIC CENTER,GOLF/ COUNTRY CLUB,ON,135 N GRAND AVE,LOS ANGELES,CA,90012,a7eb7b0a-d01e-4ea7-9d99-e9d8980895df
SPACE PING PONG LOUNGE & BAR,GOLF/ COUNTRY CLUB,ON,22 W 32ND ST,NEW YORK,NY,10001,913912c5-e8fd-447f-82e7-15859d351bc2
NEWPORT BEACH COUNTRY CLUB,GOLF/ COUNTRY CLUB,ON,1 CLUBHOUSE DR,NEWPORT BEACH,CA,92660,5bcf04d3-6250-4228-ab32-dbbc6b5720d3
MILL RIVER CLUB,GOLF/ COUNTRY CLUB,ON,103 MILL RIVER RD.,OYSTER BAY,NY,11771,244f8d9c-880a-4f1d-9593-772f3ecb6c95
NANEA GOLF CLUB  INC.,GOLF/ COUNTRY CLUB,ON,72-2921 KAUPULEHU,KAILUA KONA,HI,96740,85c70fe4-a9c2-4309-8874-9458b08fa8fd
KILOHANA RESTAURANT,GOLF/ COUNTRY CLUB,ON,5415 MAKENA ALANUI ROAD,KIHEI,HI,96753,baef7765-e1a6-47c4-a2c6-6a87771f4fba
THE BATH CLUB,GOLF/ COUNTRY CLUB,ON,5937 COLLINS AVENUE,MIAMI BEACH,FL,33140,2e29bc7e-8ba3-42c0-bf9f-78fccb059b5c
MIDNIGHT THEATRE/ HIDDEN L,GOLF/ COUNTRY CLUB,ON,442 W 33RD ST,NEW YORK,NY,10001,ebdc3cd6-efe7-4681-bd33-fe004de658e8
MIZNER COUNTRY CLUB,GOLF/ COUNTRY CLUB,ON,16104 MIZNER CLUB DRIVE,DELRAY BEACH,FL,33446,a66d17f7-3700-4b6b-a1b4-9e3240a0b3a0
Piedmont Driving Club    Main,GOLF/ COUNTRY CLUB,ON,1215 Piedmont Ave NE,Atlanta,GA,30309,32ffb324-1aa5-49c2-82fe-42bfd5da7550
Buckhead Club,GOLF/ COUNTRY CLUB,ON,3344 Peachtree Rd NE  26th Floor,Atlanta,GA,30326,ab691912-78de-4c4b-8cf5-e456f75699ca
Foxhall Additional Facility,GOLF/ COUNTRY CLUB,ON,8000 Capps Ferry Rd,Douglasville,GA,30135,0396bc5b-5133-441f-a983-d4229e9726e7
ENGINEER S COUNTRY CLUB,GOLF/ COUNTRY CLUB,ON,55 GLENWOOD RD,ROSLYN,NY,11576,0c67ea1d-2bd4-4948-916a-9d0e118b7ee4
ALEXANDRIA THE,GOLF/ COUNTRY CLUB,ON,835 INDUSTRIL RD STE 161,SAN CARLOS,CA,94070,69781117-402f-4d20-886c-9a7969d5b996
ATLANTIC FIELDS,GOLF/ COUNTRY CLUB,ON,5485 SE POLO CLUB DRIVE,HOBE SOUND,FL,33455,11ae1da1-d5bd-4968-b9db-848baeb242cd
COIN OP GAME ROOM,GOLF/ COUNTRY CLUB,ON,28588 OLD TOWN FRONT ST 100,TEMECULA,CA,92590,0c25cc8f-3d33-49bf-8c58-7d76adeed067
TPC OF BOSTON,GOLF/ COUNTRY CLUB,ON,405 ARNOLD PALMER BLVD,NORTON,MA,02766,17bc1414-4c05-41a9-adc1-1e63160afdf1
BELMONT PARK ENTERTAINMENT,GOLF/ COUNTRY CLUB,ON,3125 OCEAN FRONT WALK,SAN DIEGO,CA,92109,c42ecfb4-287f-4492-af3c-621430e205b7
VERO BCH YACHT CLUB,GOLF/ COUNTRY CLUB,ON,3601 RIO VISTA BLVD,VERO BEACH,FL,32963,fab59615-aa65-48c5-ab0a-14799f4cf758
Craft & Art,NON-RETAIL,OFF,1000 Brickell Ave STE 215,Miami,FL,33131,59644425-81dd-43df-90c6-20fa47c520bb
Sake Ono,NON-RETAIL,OFF,1000 Brickell Ave STE 215,Miami,FL,33131,04f004aa-651c-4973-83cb-616896c65281
NIMA ALAHMAD,NON-RETAIL,OFF,685 Hartman Road,Austell,GA,30168,ab684243-e17c-4830-8361-d340358aca5e
Rose Finkelstein,NON-RETAIL,OFF,685 Hartman Road,Austell,GA,30168,b2cab09d-e96f-4a43-be35-8720113e35a1
JAMES KEMP,NON-RETAIL,OFF,312 UN Court,Augusta,GA,30813,4acd291c-94d2-450c-928a-a44cebfea930
Kurt Pieper,NON-RETAIL,OFF,685 Hartman Road,Austell,GA,30168,45fc10de-1b4b-4e0a-8875-73cb0aa000f0
Lee McDaniel,NON-RETAIL,OFF,685 Hartman Road,Austell,GA,30168,679d34f4-24f5-4bdb-b44a-6ee31fd94596
KRISTA ADAMS,NON-RETAIL,OFF,685 Hartman Road,Austell,GA,30168,8a559f23-3e7b-4fa1-9895-c65ce745bff0
Daniel Thomas,NON-RETAIL,OFF,685 Hartman Rd,Austell,GA,30168,98b4991e-d296-4f1d-a041-8cf555ba9acc
Charles Bolden,NON-RETAIL,OFF,685 Hartman Rd,Austell,GA,30168,8314ad95-63e1-4551-8127-2c6616e873b9
Alexandra Mackey,NON-RETAIL,OFF,685 Hartman Rd,Austell,GA,30168,5d0d4820-a7ce-4ba6-a6bb-d52fac99bf59
Christopher Smith,NON-RETAIL,OFF,685 Hartman Rd,Austell,GA,30168,7a95d6b5-bc3e-485e-9759-d35af22b537f
JEREMY GOLDEN,NON-RETAIL,OFF,685 Hartman Road,Austell,GA,30168,2b5abae8-a516-49d1-953d-1ec3c5549580
DAVID CONNOLLY,NON-RETAIL,OFF,685 Hartman Road,Austell,GA,30168,8fd96ea7-399a-4458-a514-ee773a067efa
MARC CABALLERO,NON-RETAIL,OFF,685 Hartman Road,Austell,GA,30168,a9cdb28e-1cc5-4864-9b09-672bf45bee7e
Charlotte Ussery,NON-RETAIL,OFF,685 Hartman Rd,Austell,GA,30168,03707b8f-bc4c-49f8-be4f-c0d09359fbb8
Christopher Dean,NON-RETAIL,OFF,685 Hartman Rd,Austell,GA,30168,37f53c76-0bda-4532-9ef0-246b73b7dea2
Gabrielle Sikes,NON-RETAIL,OFF,Bldg J 1101 Chatham Parkway,Savannah,GA,31408,2f19ddc4-5ade-4961-8e0a-50935ae52f9e
Nicholas Caruso,NON-RETAIL,OFF,685 Hartman Rd,Austell,GA,30168,d4c30d7d-3f7f-4c6a-bc53-19ab77e631b8
JIM NICHOLS,NON-RETAIL,OFF,685 Hartman Road,Austell,GA,30168,32627642-290b-4eba-9fe6-c372a9c2e612
Megan Sharpley,NON-RETAIL,OFF,1101 Chatham Pkwy,Savannah,GA,31408,5e4372c4-65a9-49a4-8732-f8e94b2d5dc7
Alexandra Wright,NON-RETAIL,OFF,685 Heartman Rd,Austell,GA,30168,663a9a6d-50bf-4794-9b84-3df860790f6d
Anthony Thornton,NON-RETAIL,OFF,685 Hartman Rd,Austell,GA,30168,4792e5ed-36bf-489d-b8ec-239b8c1543ec
Abigail Branch,NON-RETAIL,OFF,685 Hartman Rd,Austell,GA,30168,76b68b06-2a54-4404-bd24-33d9e6f843db
William Godsil,NON-RETAIL,OFF,685 Hartman Rd,Austell,GA,30168,8e87498c-6af0-4882-97b6-4d3d24c82f7c
DOUG NEWTON,NON-RETAIL,OFF,Bldg J 1101 Chatham Parkway,Savannah,GA,31408,65b3deb7-4a98-44a5-aee5-a518da41a833
Macy Moe,NON-RETAIL,OFF,685 Hartman Rd,Austell,GA,30168,c041ac8f-2aee-42cb-b680-ad8eed643bfc
Matt Dimon,NON-RETAIL,OFF,685 Hartman Rd,Austell,GA,30168,6a711861-cc1f-432b-8060-0c9bc5b3e7bd
Susanne Gee,NON-RETAIL,OFF,685 Hartman Rd,Austell,GA,30168,9a0e424c-200f-4125-a428-8bbe4a64b2ce
Nicholas Defelice,NON-RETAIL,OFF,685 Hartman Rd,Austell,GA,30168,a14016c2-27d3-4547-9057-7ca65f7bf17c
Kelsey Hall,NON-RETAIL,OFF,685 Hartman Rd,Austell,GA,30168,6994cc69-e63f-4c17-92a0-fe19275f527a
Matthew Spengler,NON-RETAIL,OFF,685 Hartman Road,Austell,GA,30168,df536430-b196-46c8-a77c-5e1ccf73d7d1
ADAM SMITH,NON-RETAIL,OFF,Bldg J 1101 Chatham Parkwy,Savannah,GA,31408,1bdca268-d41d-46ad-a9fa-74caa1531003
James Brooks,NON-RETAIL,OFF,685 Hartman Road,Austell,GA,30168,58b164b0-fa00-4313-b1e1-ef308a9dee69
Christen Entrekin,NON-RETAIL,OFF,685 Hartman Road,Austell,GA,30168,205c9276-45ff-4376-b198-880b01b3dca0
Jamie Stone,NON-RETAIL,OFF,685 Hartman Rd,Austell,GA,30168,6be42a01-b930-4207-ac07-caf9befcf9da
KELLY WILSON,NON-RETAIL,OFF,Bldg J 1101 CHatham Parkway,Savannah,GA,31408,3e89e682-1377-4db7-a276-d6ea52b8c479
JOHN ROBERT HAYNES,NON-RETAIL,OFF,685 Hartman Road,Austell,GA,30168,33292a0d-a8ef-49d7-a1b2-eebbc7ee3081
Robert Labartino,NON-RETAIL,OFF,685 Hartman Road,Austell,GA,30168,53bbc214-b51e-4e1d-8646-69b497f37a83
JIMMY TWARDOS,NON-RETAIL,OFF,685 Hartman Road,Austell,GA,30168,b3f9fe80-8772-4645-a4cf-ea827f2538c1
Thomas Feeney,NON-RETAIL,OFF,685 Hartman Road,Austell,GA,30168,e6a36b1a-2fb8-4341-9e3d-1ed393f77a2b
Vivian Jago,NON-RETAIL,OFF,685 Hartman Road,Austell,GA,30168,b47a3a07-2b0e-421e-9539-c21b0fb82a86
CHRISTOPHER BURKE,NON-RETAIL,OFF,Bldg J 1101 Chatham Parkway,Savannah,GA,31408,fc144fc2-5110-4e50-a417-f828284e421f
Garrison Wood,NON-RETAIL,OFF,685 Hartman Rd,Austell,GA,30168,3333b682-2b7b-4177-8cbc-df95eee280c8
Lorenzo Walker Jr,NON-RETAIL,OFF,685 Hartman Rd,Austell,GA,30168,4bacec01-067d-4118-91ac-304cb7f794ed
Nico Bottoni,NON-RETAIL,OFF,685 Hartman Rd,Austell,GA,30168,35227ca4-c46e-49d7-9e73-b6ec2731bdf2
Jordan Mason,NON-RETAIL,OFF,685 Hartman Rd,Austell,GA,30168,baaed372-76b0-43e0-9951-8568ae0c7163
9435 UNCLASSIFIED ACCOUNT,UNASSIGNED,,8400 S Jones Blvd,Las Vegas,NV,89139,724c2af7-e2e7-4e88-b673-3e2d041bb3e1
2246 UNCLASSIFIED ACCOUNT,UNASSIGNED,,4849 Alpha Rd Ste 100,Dallas,TX,75244,8b23b361-282d-4a9f-ad29-5949f2396ff2
20696 UNCLASSIFIED ACCOUNT,UNASSIGNED,,9350 E Point Dr,Houston,TX,77054,7adfa919-28fd-4e9c-b7cb-16acf38170e8
9783 UNCLASSIFIED ACCOUNT,UNASSIGNED,,960 United Cir,Sparks,NV,89431,240d859a-f03d-48fa-8431-4e2270248ba1
ROBERT S OF WOODSIDE,SUPERMARKET,OFF,3015 WOODSIDE RD,WOODSIDE,CA,94062,c037f5d0-af32-4341-babe-9d294a5993f1
PLUM MARKET,SUPERMARKET,OFF,17801 BISCAYNE BLVD,MIAMI,FL,33160,84533921-7a87-43d2-8567-bf9128d805a4
HILLTOP RED APPLE MARKET,SUPERMARKET,OFF,2701 BEACON AVE S,SEATTLE,WA,98144,51a7215e-ec8c-4269-b49a-3c416f76e295
YES ORGANIC MARKET,SUPERMARKET,OFF,410 8TH ST SE,WASHINGTON,DC,20003,547dc818-da76-4421-8a8d-d33522eb5b96
QFC #807,SUPERMARKET,OFF,2746 N.E. 45TH,SEATTLE,WA,98105,c76350c4-1b9e-4e25-8b89-363500de14a1
BIANCHINI S MARKET,SUPERMARKET,OFF,3130 ALPINE RD #415,PORTOLA VALLEY,CA,94028,3e6bd9a5-7b1e-4d00-8ffe-f6c62f0ea3bd
MILAMS MARKET #3,SUPERMARKET,OFF,2969 SW 32 AVE,MIAMI,FL,33133,38aa11a9-ad6e-4423-b9fc-df29f839dc99
HEB CENTRAL MARKET 055,SUPERMARKET,OFF,1425 E SOUTHLAKE BOULEVARD,SOUTHLAKE,TX,76092,6091e510-a723-4c23-8c9f-784b17d5a959
VILLAGE MARKET THRIFTWAY,SUPERMARKET,OFF,20126 BALLINGER WAY,SHORELINE,WA,98155,ad5c3bd3-ae6b-40fe-a3a5-2ee89f853377
HEB CENTRAL MARKET 491,SUPERMARKET,OFF,3815 WESTHEIMER,HOUSTON,TX,77027,869962f1-975d-432e-9ebf-7f1cf5a19b3a
Super H Market Duluth,SUPERMARKET,OFF,2550 Pleasant Hill Rd,Duluth,GA,30096,71381d71-e730-4f56-9a67-de8d8ec6e5f1
Buford Hwy Farmers Market,SUPERMARKET,OFF,5600 Buford Hwy NE Ste Z,Doraville,GA,30340,706724cf-aeee-40ae-a612-fac0a3607e86
ROBERT S OF PORTOLA VALLEY,SUPERMARKET,OFF,4420 ALPINE RD,PORTOLA VALLEY,CA,94028,20eb9adb-e07d-40b7-9b0c-a9b56735e994
WILLOW MARKET,SUPERMARKET,OFF,60 MIDDLEFIELD RD,MENLO PARK,CA,94025,e4305732-b19b-454c-ad00-4f550dd8b0eb
JOHNNIE S SUPERSTORE,SUPERMARKET,OFF,370 PECKS RD,PITTSFIELD,MA,01201,91a9729b-2241-4fc5-aa93-6c3942884764
SUPER H MART,SUPERMARKET,OFF,2625 OLD DENTON ROAD SUITE 200,CARROLLTON,TX,75007,fc0464a3-b16a-4531-ac95-0df19ea2b334
STREETS MARKET & CAFE - 14TH S,SUPERMARKET,OFF,2400 14TH ST NW,WASHINGTON,DC,20009,5fc30465-5ca7-41bc-8cbb-617b8fe8efb2
CARDIFF SEASIDE MARKET,SUPERMARKET,OFF,2087 SAN ELIJO AV,CARDIFF BY THE SEA,CA,92007,2c374631-a974-430c-a0ce-5282afd94a14
QFC #839,SUPERMARKET,OFF,7823 28TH ST,MERCER ISLAND,WA,98040,b025a093-d40e-4476-a756-46675c8844ae
LEEVERS LOCAVORE,SUPERMARKET,OFF,2630 W 38TH AVENUE SUITE 101,DENVER,CO,80211,59bf143c-1e49-4ae2-a600-bce2834dfd62
VILLAGE MARKET,SUPERMARKET,OFF,12 E CARMEL VALLEY RD,CARMEL VALLEY,CA,93924,dc2e6c4f-d52e-474e-a053-73699d48fca0
JOSEPHS CLASSIC MARKET,SUPERMARKET,OFF,6000 GLADES RD,BOCA RATON,FL,33431,98717d9b-6934-4171-b8a7-6451fcf334ab
JOSEPHS CLASSIC MARKET,SUPERMARKET,OFF,2791 SOUTH DIXIE HIGHWAY,WEST PALM BEACH,FL,33405,01ca5ddf-e3e1-49c5-8a52-df2c99de3305
HEB CENTRAL MARKET 545,SUPERMARKET,OFF,4651 W FWY SUITE 100,FORT WORTH,TX,76107,8e9fe05c-3891-4c28-bcca-c90b09ff5bf5
HEB CENTRAL MARKET 552,SUPERMARKET,OFF,5750 E LOVERS LANE,DALLAS,TX,75206,0be7c281-fba4-4f62-8022-d47a965130cc
HEB CENTRAL MARKET 653,SUPERMARKET,OFF,10720 PRESTON ROAD STE.1018,DALLAS,TX,75230,b2d84d9d-c369-4f49-81f7-fbe14e4e6345
BIG JOHN S MARKET,SUPERMARKET,OFF,1345 HEALDSBURG AVE,HEALDSBURG,CA,95448,ce98ebac-0d0c-4c9a-b26a-5b4fc9440b14
ROXYS SPIRITS,SUPERMARKET,OFF,119 ASPEN AIRPORT BUSINESS,ASPEN,CO,81611,cbf84fb4-4679-4384-96d0-7056b4af5d92
MITSUWA MARKETPLACE,SUPERMARKET,OFF,100 LEGACY DRIVE SUITE 110,PLANO,TX,75023,b2c2c1d9-3a7f-4ebb-aeb8-908390e38f6f
MILAM S MARKET #7,SUPERMARKET,OFF,11701 SOUTH DIXIE HWY,PINECREST POSTAL STO,FL,33156,952a789a-9b24-450f-a2e8-0459dcc2e6ea
WINDMILL FARMS,SUPERMARKET,OFF,6386 DEL CERRO BL,SAN DIEGO,CA,92120,c100c18c-25f2-4abc-8ecb-3bac8d855540
H MART,SUPERMARKET,OFF,3320 K AVENUE,PLANO,TX,75074,4e3caa19-97a9-40ce-b8b8-19cdf12ebe18
SEIWA MARKET A,SUPERMARKET,OFF,1801 S DAIRY ASHFORD ROAD  116,HOUSTON,TX,77077,3fa44178-e936-4b51-9434-591712710bff
SUMMIT STORE,SUPERMARKET,OFF,24197 SUMMIT RD,LOS GATOS,CA,95033,51f97240-99c7-4690-9973-0512fd075d8b
PINK DOT,SUPERMARKET,OFF,8495 SUNSET BL,WEST HOLLYWOOD,CA,90069,aa0e5b8d-6bcc-4a4c-b5ba-195077ab9b3e
SHORELINE CENTRAL MARKET,SUPERMARKET,OFF,15505 WESTMINSTER WY,SEATTLE,WA,98133,446dee70-c766-487f-817f-31dcd708e4a7
ARAMARK,CONCESSIONAIRE,ON,1801 BRYANT STREET SUITE 200,DENVER,CO,80204,601368bc-4bc1-449b-89e5-66284622ab04
HARD ROCK STADIUM,CONCESSIONAIRE,ON,2269 NW 199 STREET,MIAMI,FL,33109,c7c027c4-9c1b-4d9e-ba7b-ce01652c6bb6
BELMONT SPORTSERVICE INC,CONCESSIONAIRE,ON,2400 HEMPSTEAD TPKE,ELMONT,NY,11003,ccfd00f5-adaf-46ed-9f3a-850322459472
OMA ROOFTOP LLC,CONCESSIONAIRE,ON,1 MADISON AVE,NEW YORK,NY,10010,81eac01c-25c3-44de-bfb9-64ae9ca6b288
FACILITY CONCESSION SERVICE,CONCESSIONAIRE,ON,3200 LAS VEGAS BLVD S #600,LAS VEGAS,NV,89109,b95b1be5-1c9f-43e0-a695-c8bcf9a60e09
CLOUD CATERING,CONCESSIONAIRE,ON,4281 HUNTER ST,LONG ISLAND CITY,NY,11101,14b60cdf-54ff-46a9-8e88-38935069e7d3
YANN NURY NYC,CONCESSIONAIRE,ON,598 BROADWAY,NEW YORK,NY,10012,f4a03644-2cc3-42aa-a39c-d0b176974d47
ONTEORA MOUNTAIN HOUSE,CONCESSIONAIRE,ON,96 PINEY POINT ROAD,BOICEVILLE,NY,12412,bacfbc10-a7e4-4889-9b73-d419806a0bf7
COOKS CHAPEL,CONCESSIONAIRE,ON,440 S ANAHEIM BLVD  UNIT 112,ANAHEIM,CA,92805,683e6595-8e9d-4a2a-929f-6da3f76d9239
Tower Beer & Wine,WHOLESALE CLUB,OFF,2161 Piedmont Rd NE,Atlanta,GA,30324,493b5d40-df7f-4235-ac1d-d270a2693853
Doraville Liquor Store  (TOWER),WHOLESALE CLUB,OFF,5877 Buford Hwy NE,Doraville,GA,30340,f530b60a-d64a-4343-9064-e799f8554c73
H Mart Doraville Inc,CONVENIENCE/ GAS,OFF,6035 Peachtree Rd,Doraville,GA,30360,3100c60b-4fcd-47e7-ad87-496f88e68509
Mega Mart,CONVENIENCE/ GAS,OFF,2100 Pleasant Hill Rd #141,Duluth,GA,30096,e7bcf710-b24e-43be-b94c-a669d211e293
Two Guys Food Mart,CONVENIENCE/ GAS,OFF,Ste 410 520 Fair Rd,Statesboro,GA,30458,a41515a4-605d-491c-a615-a79f77e1e220
Shell Food Mart,CONVENIENCE/ GAS,OFF,890 Atlanta St,Roswell,GA,30095,3c32b339-8a1a-4db0-bdc3-4b7d3bc1e22b
EON Petroleum Corp,CONVENIENCE/ GAS,OFF,1334 Atlanta Hwy,Auburn,GA,30011,d4404572-04a1-40e0-baee-0a0bcd523e31
SMOKE & SLURP B,CONVENIENCE/ GAS,OFF,12570 BRIAR FOREST DR STE C,HOUSTON,TX,77077,b1545e91-b5aa-4f70-a6f9-462fec6b3819
General Store 30474,CONVENIENCE/ GAS,OFF,112 Church St,Vidalia,GA,30474,f8267995-4e55-484f-aa23-407c4ee12bd2
CITY MARKET 11,CONVENIENCE/ GAS,OFF,333 N PLACENTIA AV,FULLERTON,CA,92831,266a0005-5bb6-4933-9c91-d809acedf724
Shell Station,CONVENIENCE/ GAS,OFF,1521 Peachtree St Ne,Atlanta,GA,30309,817632b7-2a6a-41cb-9558-7a163c43a8f1
CORK & BREW MARKET,CONVENIENCE/ GAS,OFF,2700 S CONGRESS AVE,AUSTIN,TX,78704,09c742fd-0152-418e-9448-e53f351b6b3c
JEFFERSON MARKET,CONVENIENCE/ GAS,OFF,1704 JEFFERSON ST,NAPA,CA,94559,00bb070e-d037-43f7-a3d5-c604be268f78
Nifty Neighbor,CONVENIENCE/ GAS,OFF,250 Pharr Rd NE Suite C-1,Atlanta,GA,30305,817a99fe-baa6-4bac-a7f1-f904efd6c77a
GG MARKET,CONVENIENCE/ GAS,OFF,7655 TOWN SQUARE LANE #117,RENO,NV,89523,74ec84ad-b087-4570-aced-6d29b994e2e9
Roswell Mini Mart,CONVENIENCE/ GAS,OFF,146 Norcross St,Roswell,GA,30075,ba133220-8e89-4959-9801-6fdf98f53191
BP Gas Station,CONVENIENCE/ GAS,OFF,1989 Hosea L Williams Dr SE,Atlanta,GA,30317,dadfa1f1-9c15-49e7-86b1-9a3e928798bf
The Synovus Toast of the Town,SPECIAL EVENT/ TEMPORARY LICENSE,ON,801 Front Ave,Columbus,GA,31901,690abe66-9bc3-44fe-9927-58b242aa5b3e
,,,,,,,3def42ab-8f7a-4443-a029-3de0c89b6d2f
,Report Created on 4/15/2025 6:44:47 PM,,,,,,a7da32d9-ef48-40e5-9407-0fee26fd2cac
