id,created_at,std_account_name,raw_vip_name,city,state,class_of_trade,on_off_premise,address,zip_code
00061cc9-3004-4aea-b4a6-16f81c6426c2,2025-05-18 19:50:41.054755+00,Royal Package,,Lilburn,GA,LIQUOR/PACKAGE STORE,OFF,5464 Lawrenceville  NW Hwy 29,30047
00ccc7fe-4ad0-4af1-a056-bc1fa377cebf,2025-05-18 19:50:41.054755+00,LA COMPAGNIE WINE BAR/EXPERIME,,NEW YORK,NY,BAR/TAVERN,ON,6 WEST 24TH ST,10010
0114fab9-e30b-4fe8-bd21-4faaaa968a3a,2025-05-18 19:50:41.054755+00,CIRCUS LIQUOR,,NORTH HOLLYWOOD,CA,LIQUOR/PACKAGE STORE,OFF,5600 VINELAND AV,91601
0169ad77-221f-4f1f-9eed-f086f898b50a,2025-05-18 19:50:41.054755+00,KATAMI A,,HOUSTON,TX,RESTAURANT,ON,2701 W DALLAS ST,77019
01b348a8-1a96-4f96-91b9-1ab55be25150,2025-05-18 19:50:41.054755+00,SUSHI SAKE,,RICHARDSON,TX,RESTAURANT,ON,2150 N COLLINS BOULEVARD,75080
0213f1e0-afb3-498e-9f6e-ed3d8f5c6908,2025-05-18 19:50:41.054755+00,SPEC S 090 LIQUOR,,DALLAS,TX,LIQUOR/PACKAGE STORE,OFF,7777 HINES PLACE BOULEVARD,75235
0226d487-33d0-4162-a18d-db84e8fe5403,2025-05-18 19:50:41.054755+00,CHRISTOPHER BURKE,,Savannah,GA,NON-RETAIL,OFF,Bldg J 1101 Chatham Parkway,31408
023872ac-3540-4513-8fbf-0126e7b25e18,2025-05-18 19:50:41.054755+00,LIQUOR PARK,,PLANO,TX,LIQUOR/PACKAGE STORE,OFF,2001 COIT ROAD SUITE 307,75075
02406ef7-e45a-468b-8dad-3a27ceb675cf,2025-05-18 19:50:41.054755+00,SAKE ONO/PARK STREET IMPORTS,,DALLAS,TX,OTHER OFF PREMISE,OFF,5286 POST OFFICE BOX 660367,75266
027b7351-db4b-4800-b8b1-9a2cd8f4baaa,2025-05-18 19:50:41.054755+00,PAPERFISH/BARSECCO,,MIAMI,FL,RESTAURANT,ON,1421 SOUTH MIAMI AVENUE,33131
0298f627-1857-46c5-8d13-a25fc40d989c,2025-05-18 19:50:41.054755+00,BONNELL S FINE TEXAS CUISINE,,FORT WORTH,TX,RESTAURANT,ON,4259 BRYANT IRVIN ROAD,76109
02d2a7d7-35be-4b59-aac2-aba3e1d39c9c,2025-05-18 19:50:41.054755+00,Osha Thai And Sushi Galleria,,Atlanta,GA,RESTAURANT,ON,1820 Peachtree St NW,30309
02d6c8e5-f0d0-4b6e-a757-8ea9c851d2d1,2025-05-18 19:50:41.054755+00,M and S Liquor Store,,Hinesville,GA,LIQUOR/PACKAGE STORE,OFF,2367 Ga Hwy 196 W,31313
02eda71e-ac2c-4eb5-82a8-4787a02c0dc0,2025-05-18 19:50:41.054755+00,Rome Liquor & Tobacco,,Rome,GA,LIQUOR/PACKAGE STORE,OFF,600 E 2nd Ave SW,30161
02f6fc98-5d52-4d42-b1b7-e393cfa732ff,2025-05-18 19:50:41.054755+00,Decatur Wine & Spirits,,Decatur,GA,LIQUOR/PACKAGE STORE,OFF,1789 Lawrenceville Hwy,30033
03045f21-615d-4758-a63f-c4e15573b74e,2025-05-18 19:50:41.054755+00,BROOM  CARSON,,DENVER,CO,OTHER OFF PREMISE,OFF,SW&S,80217
0307a85f-211d-439a-bfd8-41a67f7e3167,2025-05-18 19:50:41.054755+00,ONEELEVEN HIFI LLC,,BROOKLYN,NY,BAR/TAVERN,ON,119 INGRAHAM ST,11237
0318cb71-267c-4931-b1ff-1cf316e8fb56,2025-05-18 19:50:41.054755+00,Christopher Smith,,Austell,GA,NON-RETAIL,OFF,685 Hartman Rd,30168
0358f05e-a6da-4586-b4a3-6f5577b5f256,2025-05-18 19:50:41.054755+00,KA THAI MIDTOWN,,DALLAS,TX,RESTAURANT,ON,8185 WALNUT HILL LN STE 1410,75231
0404e0fa-b531-4a67-a001-2c98e22706bd,2025-05-18 19:50:41.054755+00,VACATION,,SANTA ANA,CA,RESTAURANT,ON,204 W 4TH ST,92701
04157b45-650b-4f00-9c8e-b752b664e44f,2025-05-18 19:50:41.054755+00,William Godsil,,Austell,GA,NON-RETAIL,OFF,685 Hartman Rd,30168
0420862e-d783-4efb-b519-c13154b7618c,2025-05-18 19:50:41.054755+00,AB Liquor Store,,Columbus,GA,LIQUOR/PACKAGE STORE,OFF,1901 Manchester Expressway Ste B,31904
04267c2d-867e-4dd4-a0ac-8491a2a02987,2025-05-18 19:50:41.054755+00,FLAGAMI LIQUORS LLC,,MIAMI,FL,LIQUOR/PACKAGE STORE,OFF,751-753 NW 37 AVENUE,33125
043b2145-3832-4df3-9fdc-e3935ccf77b3,2025-05-18 19:50:41.054755+00,CYPRESS CRAFT BEER & LIQUOR,,CYPRESS,CA,LIQUOR/PACKAGE STORE,OFF,9175 VALLEY VIEW ST,90630
045b378f-fcca-4586-89f2-80532dbc4585,2025-05-18 19:50:41.054755+00,EMILIOS BEVERAGE WAREHOUSE,,BELLFLOWER,CA,LIQUOR/PACKAGE STORE,OFF,17251 LAKEWOOD BL,90706
0471f724-9406-48aa-a31d-2a7903bdf508,2025-05-18 19:50:41.054755+00,PORTOFINO WINE BANK,,MIAMI BEACH,FL,LIQUOR/PACKAGE STORE,OFF,500 SOUTH POINT DRIVE #110,33139
04dd8f9f-4af5-4889-b330-0d79c50eb1a1,2025-05-18 19:50:41.054755+00,ROMER HELL S KITCHEN,,NEW YORK,NY,HOTEL/ MOTEL,ON,851 8TH AVE,10019
05779cd3-6d8a-41e0-8cc9-da045490d1ea,2025-05-18 19:50:41.054755+00,ALLEYCAT,,BOCA RATON,FL,RESTAURANT,ON,297 EAST PALMETTO PARK ROAD,33432
05de0fca-e3eb-400c-9450-3939225c9609,2025-05-18 19:50:41.054755+00,G & I WINE & SPIRITS INC.,,BROOKLYN,NY,LIQUOR/PACKAGE STORE,OFF,48 WILLOUGHBY ST,11201
062c7b4d-a38d-4a93-a83d-dccd017c8a1e,2025-05-18 19:50:41.054755+00,SHORELINE CENTRAL MARKET,,SEATTLE,WA,SUPERMARKET,OFF,15505 WESTMINSTER WY,98133
06377821-292c-4b4c-acdf-8dbc722f7960,2025-05-18 19:50:41.054755+00,BASILICO,,LAS VEGAS,NV,RESTAURANT,ON,6111 S BUFFALO DR STE 100,89113
06a92614-c3f1-4bae-878a-25f7f05a1129,2025-05-18 19:50:41.054755+00,HEB CENTRAL MARKET 055,,SOUTHLAKE,TX,SUPERMARKET,OFF,1425 E SOUTHLAKE BOULEVARD,76092
06b37446-642c-4ba5-b71f-2dce6ceebfbd,2025-05-18 19:50:41.054755+00,TAO UPTOWN,,NEW YORK,NY,RESTAURANT,ON,42 44 EAST 58TH STREET,10022
06bf0b89-a702-49da-9eed-44e7568d89a1,2025-05-18 19:50:41.054755+00,CLOUD CATERING,,LONG ISLAND CITY,NY,CONCESSIONAIRE,ON,4281 HUNTER ST,11101
06d59fc4-ea7e-43ea-a399-743e76cfe999,2025-05-18 19:50:41.054755+00,CAESARS PALACE - POST BK,,LAS VEGAS,NV,GOLF/ COUNTRY CLUB,ON,3570 LAS VEGAS BLVD S,89109
06f2b278-7323-4df8-8656-5f99b7a71cd9,2025-05-18 19:50:41.054755+00,SAMPLE REP EVAN RAPPAPORT,,SYOSSET,NY,OTHER OFF PREMISE,OFF,W/HOUSE PICK-UP,11791
06f509d1-8548-4fb4-a785-b0172dc0bdf1,2025-05-18 19:50:41.054755+00,KAPPY S FINE WINE & SPIRITS,,MEDFORD,MA,LIQUOR/PACKAGE STORE,OFF,10 REVERE BEACH PKWY,02155
06fc4276-3910-404d-bd86-fbd0104b8448,2025-05-18 19:50:41.054755+00,NYCWFF-PAVLOVA CLASS SUN.,,NEW YORK,NY,OTHER OFF PREMISE,OFF,225 LIBERTY STREET,10281
073fa5f8-7873-42c5-80fe-1aabf4e47880,2025-05-18 19:50:41.054755+00,DELUCA S MARKET,,BOSTON,MA,LIQUOR/PACKAGE STORE,OFF,239 NEWBURY ST,02116
075d8199-0799-41f1-b5df-c34cae294b9c,2025-05-18 19:50:41.054755+00,KAPPY S FINE WINE & SPIRITS,,PEABODY,MA,LIQUOR/PACKAGE STORE,OFF,175 ANDOVER ST,01960
079ee4ad-58f0-4d50-8afe-38cc77005d23,2025-05-18 19:50:41.054755+00,PORTOFINO BAY HOTEL,,ORLANDO,FL,HOTEL/ MOTEL,ON,5601 UNIVERSAL BLVD,32819
07cff3b9-cd43-482e-97c9-048150cdf727,2025-05-18 19:50:41.054755+00,LE CHICK ROTISSERIE,,MIAMI,FL,RESTAURANT,ON,310 NW 24TH STREET,33127
08625bdb-35ad-4b9e-9c4a-cfff27523e2a,2025-05-18 19:50:41.054755+00,LOCAL YOCAL BBQ & GRILL,,MCKINNEY,TX,RESTAURANT,ON,350 E LOUISIANA STREET SUITE A,75069
086597df-51c4-4731-a650-7bde26061eba,2025-05-18 19:50:41.054755+00,9435 UNCLASSIFIED ACCOUNT,,Las Vegas,NV,UNASSIGNED,,8400 S Jones Blvd,89139
08aad558-9198-4bb2-8749-02a5d4ccf429,2025-05-18 19:50:41.054755+00,MAVERICKS MONTAUK LLC,,MONTAUK,NY,RESTAURANT,ON,51 S EDGEMERE ST,11954
08dc8185-9949-4750-8b47-2a80bd90896e,2025-05-18 19:50:41.054755+00,Jax Superstore,,Buford,GA,LIQUOR/PACKAGE STORE,OFF,2438 Hancock Dr,30190
08f0240d-1119-4cf4-91ee-ec82b2c8f726,2025-05-18 19:50:41.054755+00,Guyton Liquors LLC,,Guyton,GA,LIQUOR/PACKAGE STORE,OFF,109 W Central Blvd,31312
0979fb76-3451-413b-b901-34d26e05f888,2025-05-18 19:50:41.054755+00,MILADY S,,NEW YORK,NY,BAR/TAVERN,ON,160 PRINCE ST,10012
0a897e2c-5a41-468b-b747-4b8a7ef3d675,2025-05-18 19:50:41.054755+00,SGWS-HOUSE SAMPLE F01 (MISC),,FORT MYERS,FL,OTHER OFF PREMISE,OFF,2385 ROCKFILL ROAD,33916
0abb2ece-f860-45f4-8eab-5c87a9cc6770,2025-05-18 19:50:41.054755+00,FOUR SEASONS RESORT  LAS VEGAS,,LAS VEGAS,NV,HOTEL/ MOTEL,ON,3960 LAS VEGAS BLVD SO,89119
0ace3158-2608-4359-bb39-4ec894053efa,2025-05-18 19:50:41.054755+00,HOVER CROSSING WINE & SPIRITS,,LONGMONT,CO,LIQUOR/PACKAGE STORE,OFF,1844 HOVER ST UNIT E,80501
0b4458b4-9896-4d8d-9a1e-c14ec72910d9,2025-05-18 19:50:41.054755+00,ROYAL LIQUORS,,SAN JOSE,CA,LIQUOR/PACKAGE STORE,OFF,3144 WILLIAMS RD,95117
0b5da8d8-dbc9-4475-be28-cbfe59fa4f98,2025-05-18 19:50:41.054755+00,PLUM MARKET,,MIAMI,FL,SUPERMARKET,OFF,17801 BISCAYNE BLVD,33160
0b909557-3a5a-4119-adb8-1d3e49289395,2025-05-18 19:50:41.054755+00,KAPPY S FINE WINE & SPIRITS,,HYANNIS,MA,LIQUOR/PACKAGE STORE,OFF,333 IYANNOUGH RD,02601
0bb054bd-1fb1-4b75-976b-bf4776dba37a,2025-05-18 19:50:41.054755+00,A-FRAME CLUB WINTER PARK,,WINTER PARK,CO,HOTEL/ MOTEL,ON,1008 WINTER PARK DRIVE,80482
0c077af7-c021-45ea-9873-21eae868cdf8,2025-05-18 19:50:41.054755+00,MOUNTAIN CELLARS,,COLORADO SPRINGS,CO,LIQUOR/PACKAGE STORE,OFF,8290 RAZORBACK ROAD,80922
0c22f6a2-2706-45c7-889f-5144360015eb,2025-05-18 19:50:41.054755+00,RUSTIC CANYON,,SANTA MONICA,CA,RESTAURANT,ON,1119 WILSHIRE BL,90401
0c6ef706-90d9-48fa-89dc-aa5dbb97cdda,2025-05-18 19:50:41.054755+00,Vintage Bottle Shop,,Acworth,GA,LIQUOR/PACKAGE STORE,OFF,1720 Mars Hill Rd NW  Ste 12-14,30101
0c849893-1d60-479e-96c0-b1a56231889b,2025-05-18 19:50:41.054755+00,THE X POT @ PALAZZO,,LAS VEGAS,NV,RESTAURANT,ON,3377 LAS VEGAS BLVD S #2884,89109
0ccc0a76-f1db-4d18-b512-7b54a1180c41,2025-05-18 19:50:41.054755+00,BOONE S WINE & SPIRITS,,EAGLE,CO,LIQUOR/PACKAGE STORE,OFF,65 MARKET STREET UNITS 2-7,81631
0cd27c91-adb7-42db-9c3d-f549d666eaac,2025-05-18 19:50:41.054755+00,GUGU ROOM NYC,,NEW YORK,NY,RESTAURANT,ON,143 ORCHARD ST,10002
0d5df972-af07-4bc8-85d9-725053a2b96b,2025-05-18 19:50:41.054755+00,JEFFERSON MARKET,,NAPA,CA,CONVENIENCE/ GAS,OFF,1704 JEFFERSON ST,94559
0d6fdb1c-4dcb-4f71-a773-d059e48adcad,2025-05-18 19:50:41.054755+00,PALAZZO DEL SOL,,FISHER ISLAND,FL,OTHER OFF PREMISE,OFF,6800 FISHER ISLAND DRIVE,33109
0dc3c61a-5912-465d-8024-ae283a6a2558,2025-05-18 19:50:41.054755+00,LEE S LIQUOR #2 RANCHO,,LAS VEGAS,NV,LIQUOR/PACKAGE STORE,OFF,4421 N RANCHO DR,89130
0ddc7652-a0ee-4ea6-874a-a0d84dcaaae9,2025-05-18 19:50:41.054755+00,COLONIAL SPIRITS,,ACTON,MA,LIQUOR/PACKAGE STORE,OFF,BOX 2350 87 GREAT RD,01720
0dfb8755-d674-4bf3-9180-0d63f71d8773,2025-05-18 19:50:41.054755+00,DIVINO,,DENVER,CO,LIQUOR/PACKAGE STORE,OFF,1240 S BROADWAY,80210
0e1a48e7-d94d-48ac-876e-43beef488a8a,2025-05-18 19:50:41.054755+00,Canton Wine & Spirits Warehouse,,Canton,GA,LIQUOR/PACKAGE STORE,OFF,2017 Marietta Highway,30114
0e4b75fa-4282-4218-a1cb-01400cc1c9b8,2025-05-18 19:50:41.054755+00,CENTRAL LIQUOR,,CORONADO,CA,LIQUOR/PACKAGE STORE,OFF,178 ORANGE AV,92118
0e9ba854-7f2d-4963-b856-29da272c47d2,2025-05-18 19:50:41.054755+00,ARAMARK,,DENVER,CO,CONCESSIONAIRE,ON,1801 BRYANT STREET SUITE 200,80204
0ebd27d9-086b-4ed6-852a-c2765206aa47,2025-05-18 19:50:41.054755+00,WINE GEMS,,BRONXVILLE,NY,LIQUOR/PACKAGE STORE,OFF,495 NEW ROCHELLE RD,10708
0ef35ae2-d7e2-4959-b153-9f9a1801d01f,2025-05-18 19:50:41.054755+00,SAMPLE REP MARCO NAZARIO,,SYOSSET,NY,OTHER OFF PREMISE,OFF,W/HOUSE PICK-UP,11791
0efb2d3c-9582-4e35-8b4a-3b348440bba4,2025-05-18 19:50:41.054755+00,1936 WINE & SPIRITS,,NEW YORK,NY,LIQUOR/PACKAGE STORE,OFF,65 E 34TH ST,10016
0f08ae61-74da-4ffe-bf6c-a3e95d565f8f,2025-05-18 19:50:41.054755+00,BASIL & WICKS,,NORTH CREEK,NY,RESTAURANT,ON,3195 STATE ROUTE 28,12853
0fa1ca51-fd92-4a45-b224-5a223e979def,2025-05-18 19:50:41.054755+00,ADIRONDAK WINE & LIQUOR,,SARANAC LAKE,NY,LIQUOR/PACKAGE STORE,OFF,506 LAKE FLOWER AVENUE,12983
0fcbfe2f-32cc-41df-a684-e7cdfb3d4209,2025-05-18 19:50:41.054755+00,WARREN SHON SAMPLE,,HONOLULU,HI,OTHER OFF PREMISE,OFF,155 KAPALULU PL STE 300,96819
100ed97b-17e9-4d52-bd8c-a2ee7c341c0e,2025-05-18 19:50:41.054755+00,SUSHI CHEF,,MIAMI,FL,RESTAURANT,ON,3100 CORAL WAY,33145
101b0203-2e36-4013-b8ed-23749b3b17fa,2025-05-18 19:50:41.054755+00,THE MONARCH,,ASPEN,CO,RESTAURANT,ON,411 S MONARCH,81611
10802790-8891-40b5-8cde-e9b597683af2,2025-05-18 19:50:41.054755+00,JEFFERY SMITH SAMPLES,,HONOLULU,HI,OTHER ON PREMISE,ON,155 KAPALULU PL STE 300,96819
10850f08-b8a0-4953-ab60-b73c8ddb972b,2025-05-18 19:50:41.054755+00,BAKER S BAY GOLF & OCEA,,** INTERNATIONAL **,FL,OTHER ON PREMISE,ON,GREAT GUANA CAY MARSH HARBOUR,2
10e24636-da52-446d-8c10-a3497c2655da,2025-05-18 19:50:41.054755+00,LEE S LIQUOR 118 BLUE DIAMOND,,LAS VEGAS,NV,LIQUOR/PACKAGE STORE,OFF,4605 BLUE DIAMOND RD,89139
11044eab-e053-4fa0-b739-e393d64218e1,2025-05-18 19:50:41.054755+00,BREAKERS HOTEL,,PALM BEACH,FL,HOTEL/ MOTEL,ON,ONE SOUTH COUNTY RD C,33480
111f4df4-991c-4623-991d-3caded9ab563,2025-05-18 19:50:41.054755+00,INN AT SPANISH BAY,,PEBBLE BEACH,CA,HOTEL/ MOTEL,ON,2800 17 MILE DR,93953
113bddb1-fca3-48a2-a85f-ed06bcaf3697,2025-05-18 19:50:41.054755+00,VILLAGE LIQUOR,,LA CRESCENTA,CA,LIQUOR/PACKAGE STORE,OFF,2905 HONOLULU AV,91214
1153bce4-98da-451a-8616-667601219991,2025-05-18 19:50:41.054755+00,TWIN LIQUORS LP AIRPORT 980,,AUSTIN,TX,LIQUOR/PACKAGE STORE,OFF,5639 AIRPORT BOULEVARD A & B,78751
119869b0-03eb-4ef2-a3ff-eeb123addf1c,2025-05-18 19:50:41.054755+00,DOUG NEWTON,,Savannah,GA,NON-RETAIL,OFF,Bldg J 1101 Chatham Parkway,31408
11a658cf-2473-458b-8fe8-34320d8292e9,2025-05-18 19:50:41.054755+00,TODAY S LIQUOR,,GLENDALE,CA,LIQUOR/PACKAGE STORE,OFF,333 N VERDUGO RD,91206
1256e995-c986-434c-a7db-98700e023d76,2025-05-18 19:50:41.054755+00,OUTBACK LIQUORS,,ELIZABETH,CO,LIQUOR/PACKAGE STORE,OFF,113 S ELIZABETH,80107
1267bcfe-50fa-49b3-a499-23df68672ec5,2025-05-18 19:50:41.054755+00,MARTINIS FINE WINE & SPIRITS,,ISLAMORADA,FL,LIQUOR/PACKAGE STORE,OFF,81650 OVERSEAS HWY UNIT A,33036
1274427d-e366-4aeb-9676-e931663d6d3c,2025-05-18 19:50:41.054755+00,MEAT & CHEESE,,ASPEN,CO,RESTAURANT,ON,319 EAST HOPKINS AVE UNIT 103,81611
1278444c-3f15-454a-ad47-eaa0661b97fb,2025-05-18 19:50:41.054755+00,BOCA BEACH CLUB/BEACHES BAR,,BOCA RATON,FL,HOTEL/ MOTEL,ON,900 SOUTH OCEAN BLVD,33432
12e52001-8e10-4b14-8de3-cec1a83dc600,2025-05-18 19:50:41.054755+00,GG MARKET,,RENO,NV,CONVENIENCE/ GAS,OFF,7655 TOWN SQUARE LANE #117,89523
130ac585-ec3a-40f9-a2a1-6fec5878df39,2025-05-18 19:50:41.054755+00,ONE STOP LIQUOR,,SHERMAN,TX,LIQUOR/PACKAGE STORE,OFF,1405 W HOUSTON STREET,75092
131306ce-c7d6-4cf8-988c-259ff566ae84,2025-05-18 19:50:41.054755+00,SOBE - GTV SPONSOR VILLAGE,,MIAMI,FL,OTHER ON PREMISE,ON,1600 NW 163RD ST,33169
131e69ab-6925-44de-aadb-c1192a85d85e,2025-05-18 19:50:41.054755+00,Lafayette Beverage,,Lagrange,GA,LIQUOR/PACKAGE STORE,OFF,2068 Hamilton Rd,30241
13201bf5-5408-4885-8e81-423bafc1d90d,2025-05-18 19:50:41.054755+00,GRAND CRU WINE & SPIRITS,,NEW YORK,NY,LIQUOR/PACKAGE STORE,OFF,555 WEST 42 ST UNIT 1,10036
132c79d1-84f8-41af-ac8b-aaa319beba0f,2025-05-18 19:50:41.054755+00,1 HOTEL SOUTH BEACH,,MIAMI BEACH,FL,HOTEL/ MOTEL,ON,2341 COLLINS AVENUE,33139
134dca7a-3d90-4918-b180-53e0023c71a5,2025-05-18 19:50:41.054755+00,NUNOS BISTRO & BAR,,UPLAND,CA,RESTAURANT,ON,2440 W ARROW RTE  STE #4A,91786
137ce881-4d8d-48b4-a6a3-4d62c5aa921b,2025-05-18 19:50:41.054755+00,MARTINI BAR,,MIAMI,FL,BAR/TAVERN,ON,3450 NW 83 AVENUE,33122
13c8828e-032a-4bb8-90b6-3257a73ea686,2025-05-18 19:50:41.054755+00,Fukuro Bar and Sushi,,Evans,GA,RESTAURANT,ON,5100 Washington Road,30809
13d02a4b-7d20-401c-8071-9762d4816c73,2025-05-18 19:50:41.054755+00,MILL RIVER CLUB,,OYSTER BAY,NY,GOLF/ COUNTRY CLUB,ON,103 MILL RIVER RD.,11771
13ee9f1b-b852-4800-b91e-0016534ea64d,2025-05-18 19:50:41.054755+00,SEIWA MARKET A,,HOUSTON,TX,SUPERMARKET,OFF,1801 S DAIRY ASHFORD ROAD  116,77077
142b711f-6fca-4287-9a81-21a8da36830a,2025-05-18 19:50:41.054755+00,SOBE-MAKOTO OKUWA DINNER,,BAL HARBOUR,FL,RESTAURANT,ON,9700 COLLINS AVENUE,33154
145ac714-e7a3-4337-b6a2-952750a7f1e0,2025-05-18 19:50:41.054755+00,COLUMBUS AVE WINE & SPIRITS,,NEW YORK,NY,LIQUOR/PACKAGE STORE,OFF,730 COLUMBUS AVE,10025
14804d37-2c2b-4610-9b42-d4351e9e90f7,2025-05-18 19:50:41.054755+00,KOSEN,,TAMPA,FL,RESTAURANT,ON,307 W PALM AVE,33602
148d6e34-94c5-4057-8381-264f6d08451b,2025-05-18 19:50:41.054755+00,THE BLUE FISH,,DALLAS,TX,RESTAURANT,ON,3519 GREENVILLE AVENUE,75206
14f84da1-b42b-41db-bc21-34043ac93837,2025-05-18 19:50:41.054755+00,Basils Restaurant & Bar,,Atlanta,GA,RESTAURANT,ON,2985 Grandview Ave,30305
151985c4-1485-47d0-95ce-fb7a2ee934bc,2025-05-18 19:50:41.054755+00,COOL CULINARY LLC,,NEW YORK,NY,BAR/TAVERN,ON,119 ESSEX ST,10002
15615020-fb6e-4830-957a-8a86e121b77a,2025-05-18 19:50:41.054755+00,HATCH YAKITORI,,LOS ANGELES,CA,RESTAURANT,ON,700 W 7TH ST  STE G600,90017
15966d13-47b1-4b86-a0e7-199e0952f66c,2025-05-18 19:50:41.054755+00,CASK AND CRAFT,,DENVER,CO,LIQUOR/PACKAGE STORE,OFF,3744 TEJON ST LOTS 24 & 25 BLK,80211
159e5a87-43fb-4cdb-b0dc-25ce8f44d17e,2025-05-18 19:50:41.054755+00,Antico Pizza Battery,,Atlanta,GA,RESTAURANT,ON,Ste 420 2605 Circle 75 Pkwy SE,30339
15b3423a-d7fc-4f28-8fdc-85ea80ff74a0,2025-05-18 19:50:41.054755+00,LOULOU,,NEW YORK,NY,RESTAURANT,ON,176 8TH AVE,10011
16518449-d1e2-476a-90f4-ab1b05dae57a,2025-05-18 19:50:41.054755+00,MASOODS LIQUOR & DELI,,BEN LOMOND,CA,LIQUOR/PACKAGE STORE,OFF,7970 HWY 9,95005
16b19c1a-554c-43fc-af54-6d0cda4435f8,2025-05-18 19:50:41.054755+00,CLARKS HOUSTON,,HOUSTON,TX,RESTAURANT,ON,3807 MONTROSE BLVD,77006
170c7d41-f3f3-4d61-b293-189687970550,2025-05-18 19:50:41.054755+00,Susanne Gee,,Austell,GA,NON-RETAIL,OFF,685 Hartman Rd,30168
171d49fa-b601-454c-bc8f-7f96c43fc665,2025-05-18 19:50:41.054755+00,HARD ROCK HOTEL,,ORLANDO,FL,HOTEL/ MOTEL,ON,5800 UNIVERSAL BLVD,32819
173cb541-3a6c-4c5b-ae37-8540a220dc53,2025-05-18 19:50:41.054755+00,AKASHI SUSHI FUSION CUISINE,,KATY,TX,RESTAURANT,ON,416 9550 Spring Green Boulevard,77494
175534c2-ca23-444c-bcba-26adbc458db6,2025-05-18 19:50:41.054755+00,CRESCENT BISTRO,,PLEASANT HILL,CA,RESTAURANT,ON,45 CRESCENT DR #11 C,94523
17dcd9ea-cfe3-4d6a-8033-e72fc6a7e6bb,2025-05-18 19:50:41.054755+00,Beverage Depot,,Milledgeville,GA,LIQUOR/PACKAGE STORE,OFF,201 Roberson Mill Rd NE 59018,31061
17e92f39-0d78-45ce-b40e-bb716cac4f85,2025-05-18 19:50:41.054755+00,SPEC S 000 WAREHOUSE WINE MAIN,,HOUSTON,TX,LIQUOR/PACKAGE STORE,OFF,2410 SMITH ST,77006
17ebda76-8d3c-4572-a37a-be1f03ce9a47,2025-05-18 19:50:41.054755+00,Harry & Sons,,Atlanta,GA,RESTAURANT,ON,820 N Highland Ave NE,30306
185cd8d8-3d4e-44d3-8897-b80e6b46f9ef,2025-05-18 19:50:41.054755+00,FULL GLASS ENTERPRISES,,WASHINGTON,DC,OTHER OFF PREMISE,OFF,3525 V ST NE,20008
187b01ec-7738-4589-92b4-44aa572c917d,2025-05-18 19:50:41.054755+00,WALDORF ASTORIA,,DANA POINT,CA,HOTEL/ MOTEL,ON,1 MONARCH BEACH RESORT,92629
18d78e64-2e5d-4c97-b916-4bc39822d1f4,2025-05-18 19:50:41.054755+00,QWIK KORNER,,PLACENTIA,CA,LIQUOR/PACKAGE STORE,OFF,1170 E YORBA LINDA BLVD,92870
18e79685-4832-4dcf-826b-71ab4e6dbe99,2025-05-18 19:50:41.054755+00,NEW GOLDEN WINE & LIQUOR,,BAYSIDE,NY,LIQUOR/PACKAGE STORE,OFF,41-08 BELL BLVD,11361
19548474-a5f8-4361-9952-81c63d185340,2025-05-18 19:50:41.054755+00,WAYFARE TAVERN,,SAN FRANCISCO,CA,RESTAURANT,ON,201 PINE ST,94104
1965ad75-3a85-41b2-8a94-3ff53e13b6d5,2025-05-18 19:50:41.054755+00,Brown Bag  The,,Kingsland,GA,LIQUOR/PACKAGE STORE,OFF,1608 Boone St,31548
19b967a8-44f6-4adc-9063-7c826a34d72a,2025-05-18 19:50:41.054755+00,The Beverage Superstore of Grayson,,Grayson,GA,LIQUOR/PACKAGE STORE,OFF,2265 Loganville Hwy,30017
1aa0a722-2737-4360-820e-9b76a75bb4b8,2025-05-18 19:50:41.054755+00,New York Butcher Shoppe,,Marietta,GA,RESTAURANT,ON,4475 Roswell Rd Ste 1030,30062
1b40531f-aebd-4426-84b5-1878b15bd3f0,2025-05-18 19:50:41.054755+00,THE BLUE FISH,,PLANO,TX,RESTAURANT,ON,5760 HWY 121 SUITE 175,75024
1b5d205f-7e52-49d0-8ce6-550c84059a87,2025-05-18 19:50:41.054755+00,MUSUME RESTAURANT,,DALLAS,TX,RESTAURANT,ON,2330 FLORA SUITE 100,75201
1b65870c-6ec0-4b99-a003-ab9303564b5c,2025-05-18 19:50:41.054755+00,LE COLONIAL,,DENVER,CO,RESTAURANT,ON,255 N FILLMORE ST SUITE 120,80206
1bb8f06e-6422-4618-bb48-098457d39215,2025-05-18 19:50:41.054755+00,STROH RANCH LIQUORS-AFFIDAVIT,,PARKER,CO,LIQUOR/PACKAGE STORE,OFF,12939 S PARKER RD,80134
1bceab91-79e4-41bf-af62-c5b2bb0a5b76,2025-05-18 19:50:41.054755+00,KRU CONTEMPORARY JAPANESE,,SACRAMENTO,CA,RESTAURANT,ON,3135 FOLSOM BLVD,95816
1c206f16-f0a7-43ca-86e9-b79d6da9da38,2025-05-18 19:50:41.054755+00,UMEKES FISH MARKET BAR & GRILL,,KAILUA KONA,HI,RESTAURANT,ON,74-5599 PAWAI PLACE BLDG A,96740
1c33ac38-4edd-4e20-abb0-2eeb4f12e5cb,2025-05-18 19:50:41.054755+00,VINYA WINE AND MARKET,,KEY BISCAYNE,FL,LIQUOR/PACKAGE STORE,OFF,328 CRANDON BLVD UNITS 122-123,33149
1c52ee29-37f5-4763-9b64-9c6da5218a76,2025-05-18 19:50:41.054755+00,RED DOOR HIBACHI STEAK HOUSE,,NORTH MIAMI BEACH,FL,RESTAURANT,ON,3881 NE 163RD STREET,33160
1cbc3a49-b70b-4fa0-9f30-a2561f820149,2025-05-18 19:50:41.054755+00,Atlanta Hwy Package,,Gainesville,GA,LIQUOR/PACKAGE STORE,OFF,1652 Atlanta Hwy,30504
1cc8417a-0362-4ae5-abed-a24ee3851c9c,2025-05-18 19:50:41.054755+00,FAIR OAKS BREW PUB,,FAIR OAKS,CA,BAR/TAVERN,ON,7988 CALIFORNIA AVE,95628
1d17025c-cbde-41c5-8f3f-7d8ed03118d5,2025-05-18 19:50:41.054755+00,RIVIERA CC R2089-4412,,PACIFIC PALISADES,CA,GOLF/ COUNTRY CLUB,ON,1250 CAPRI DR,90272
1d200772-15fe-41b3-b951-8844348e12fb,2025-05-18 19:50:41.054755+00,HARBOUR CLUB,,MIAMI BEACH,FL,GOLF/ COUNTRY CLUB,ON,1766 BAY RD,33139
1d2c1fa0-7cfb-4f07-96f0-b3f5a73ff16a,2025-05-18 19:50:41.054755+00,Lorenzo Walker Jr,,Austell,GA,NON-RETAIL,OFF,685 Hartman Rd,30168
1d2d8dce-a46e-4c10-a4a4-c00e522bedbb,2025-05-18 19:50:41.054755+00,IBIS LIQUORS,,WEST PALM BEACH,FL,LIQUOR/PACKAGE STORE,OFF,10130 NORTHLAKE BLVD,33412
1d31b16f-6098-4206-be2c-c79d7226f30f,2025-05-18 19:50:41.054755+00,124 Package (Lithonia),,Lithonia,GA,LIQUOR/PACKAGE STORE,OFF,7980 Rockbridge Rd,30058
1d6cb0b8-c7a9-4462-a18c-b8f1989bbb40,2025-05-18 19:50:41.054755+00,Hiawassee Package Inc,,Hiawassee,GA,LIQUOR/PACKAGE STORE,OFF,405 Brett Way,30546
1dd69e7c-1063-4b44-8d5d-1acb5d46af27,2025-05-18 19:50:41.054755+00,BEST BUY LIQUORS,,BROOKLYN,NY,LIQUOR/PACKAGE STORE,OFF,1613 NEPTUNE AVE,11224
1e1102bf-460d-4cc9-bc5c-e9c1aafb9d03,2025-05-18 19:50:41.054755+00,Mazzy s Sports Bar & Grill,,Marietta,GA,RESTAURANT,ON,2217 Roswell Rd Ste A-200,30062
1e4110e2-24dd-4765-a8a2-59be129715c0,2025-05-18 19:50:41.054755+00,PARTAGE,,LAS VEGAS,NV,RESTAURANT,ON,3829-3839 SPRING MOUNTAIN RD,89102
1e78f05f-f978-4f45-82f4-86f7e9afc541,2025-05-18 19:50:41.054755+00,K & L WINE MERCHANTS,,SAN CARLOS,CA,LIQUOR/PACKAGE STORE,OFF,920 BING ST,94070
1e7c4cd3-edf4-48b8-aa38-0d16209e746f,2025-05-18 19:50:41.054755+00,GREENPOINT WINE & LIQUORS,,BROOKLYN,NY,LIQUOR/PACKAGE STORE,OFF,89 NASSAU AVE,11222
1ec0b0f3-d8fb-4406-a48f-52b2fb7f0666,2025-05-18 19:50:41.054755+00,HARRY S BEACH HOUSE,,SEATTLE,WA,RESTAURANT,ON,2676 ALKI AVE SW,98116
1f332940-7a80-4938-9c80-080fb87145c0,2025-05-18 19:50:41.054755+00,TEAM #OPN,,CERRITOS,CA,OTHER OFF PREMISE,OFF,17101 VALLEY VIEW AVE,90703
1ff84a1c-cf01-4fed-9d4b-bc059f8cde74,2025-05-18 19:50:41.054755+00,JOSEPHS CLASSIC MARKET,,WEST PALM BEACH,FL,SUPERMARKET,OFF,2791 SOUTH DIXIE HIGHWAY,33405
206b9610-1075-409e-a3b7-19342ba5e73d,2025-05-18 19:50:41.054755+00,CHOICE LIQUORS,,RIFLE,CO,LIQUOR/PACKAGE STORE,OFF,680 WAPITI COURT,81650
20fcd9bf-49d8-4f35-8f70-9aa612ee3139,2025-05-18 19:50:41.054755+00,Richmond Hill Liquor(Brown Bag),,Richmond Hill,GA,LIQUOR/PACKAGE STORE,OFF,9701 Ford Ave,31324
210075d4-605d-440d-94e1-696487637260,2025-05-18 19:50:41.054755+00,James Brooks,,Austell,GA,NON-RETAIL,OFF,685 Hartman Road,30168
21053844-d377-4174-aa36-764ba87b1ffb,2025-05-18 19:50:41.054755+00,GOLDEN GRILL ON THE BAY,,PORT ORCHARD,WA,RESTAURANT,ON,1014 BAY ST,98366
213bb097-85de-4736-916d-f88f42abbd79,2025-05-18 19:50:41.054755+00,LEE S LIQUOR #8 EASTERN,,HENDERSON,NV,LIQUOR/PACKAGE STORE,OFF,10935 S EASTERN AVE,89052
21637638-474d-4957-b231-33222ed49b99,2025-05-18 19:50:41.054755+00,Matt Dimon,,Austell,GA,NON-RETAIL,OFF,685 Hartman Rd,30168
2171d503-83e5-443a-8645-d5002932bf7c,2025-05-18 19:50:41.054755+00,CLARK S OYSTER BAR,,AUSTIN,TX,BAR/TAVERN,ON,1200 W 6TH STREET SUITE A,78703
217aa917-2f5d-4325-af4d-2dab7d87e7a1,2025-05-18 19:50:41.054755+00,SAMPLE REP DONALD CHOI,,SYOSSET,NY,OTHER OFF PREMISE,OFF,W/HOUSE PICK-UP,11791
21d42d5c-6928-499f-b01f-6052e6d6814b,2025-05-18 19:50:41.054755+00,Elite Package Store,,Marietta,GA,LIQUOR/PACKAGE STORE,OFF,2789 Delk Rd SE,30067
22647dd0-92ad-43a0-af82-838a2ffd9c38,2025-05-18 19:50:41.054755+00,BELMONT SPORTSERVICE INC,,ELMONT,NY,CONCESSIONAIRE,ON,2400 HEMPSTEAD TPKE,11003
2272f6de-23e9-4f41-9629-7ea0903a5100,2025-05-18 19:50:41.054755+00,Calvert s,,Augusta,GA,RESTAURANT,ON,475 Highland Ave,30909
2295914b-4516-450b-ac4a-c943d821ae97,2025-05-18 19:50:41.054755+00,Sensu Sushi Resturaunt and Bar,,Fayetteville,GA,RESTAURANT,ON,300 Trilith Pkwy STE 270/275,30214
22a4812f-37ac-409a-8aa1-c0b241a998c2,2025-05-18 19:50:41.054755+00,KYU,,NEW YORK,NY,RESTAURANT,ON,324 LAFAYETTE ST,10012
22ada53c-6bf4-4f43-8aed-4e8dfb62eb9b,2025-05-18 19:50:41.054755+00,LAHUE  DEVLIN,,DENVER,CO,OTHER OFF PREMISE,OFF,SW&S FIELD MGR,80217
22cf51f5-82f0-41c8-89f5-36b6001fe6ee,2025-05-18 19:50:41.054755+00,Charlotte Ussery,,Austell,GA,NON-RETAIL,OFF,685 Hartman Rd,30168
22f1668f-050a-4f02-b0c8-ef55cab5a417,2025-05-18 19:50:41.054755+00,RIDGE LIQUORS,,ERIE,CO,LIQUOR/PACKAGE STORE,OFF,3331 ARAPAHOE ROAD SUITE 10,80516
231c9cb8-c407-477f-9017-599bf0422ed9,2025-05-18 19:50:41.054755+00,VENETIAN RESORT HOTEL CASINO,,LAS VEGAS,NV,GOLF/ COUNTRY CLUB,ON,3325 LAS VEGAS BLVD S,89109
2390bf2f-e484-4b2d-8353-88f8e55b3a06,2025-05-18 19:50:41.054755+00,Pour Taproom Midtown,,Atlanta,GA,RESTAURANT,ON,1180 Peachtree St NE Ste A,30309
24103dfb-c1f3-4508-a16f-4ae5f1b27ccf,2025-05-18 19:50:41.054755+00,LOTUS OF SIAM,,LAS VEGAS,NV,RESTAURANT,ON,620 E FLAMINGO RD,89119
241ea33a-38c0-4b39-9614-25de62e03303,2025-05-18 19:50:41.054755+00,WINE HOUSE,,LOS ANGELES,CA,LIQUOR/PACKAGE STORE,OFF,2311 COTNER AV,90064
246aac90-57fb-4d38-9aaa-c91f9da5fa3b,2025-05-18 19:50:41.054755+00,WOLLASTON WINE CO,,WOLLASTON,MA,LIQUOR/PACKAGE STORE,OFF,54 BEALE ST,02170
2486360f-85b3-4306-9820-f9bb03157214,2025-05-18 19:50:41.054755+00,SAMPLE REP BRYAN GAMZA,,SYOSSET,NY,OTHER OFF PREMISE,OFF,W/HOUSE PICK-UP,11791
24fb39fb-1409-4362-acd5-27f0124def6f,2025-05-18 19:50:41.054755+00,THE BRIDGE GOLF CLUB INC,,BRIDGEHAMPTON,NY,GOLF/ COUNTRY CLUB,ON,1180 MILLSTONE RD,11932
2504b3fb-4377-4582-8a98-1490792b4826,2025-05-18 19:50:41.054755+00,Thrive,,Atlanta,GA,RESTAURANT,ON,101 Marietta St NW,30303
251bb540-6c8f-4c68-bb2c-d6f6f726a0b1,2025-05-18 19:50:41.054755+00,Nicholas Defelice,,Austell,GA,NON-RETAIL,OFF,685 Hartman Rd,30168
25201430-23c5-4307-8e2f-3e2c6e09381c,2025-05-18 19:50:41.054755+00,NATIVE SON RC,,RANCHO CUCAMONGA,CA,BAR/TAVERN,ON,8443 HAVEN AVE #189,91730
2535f3fa-c654-4c3c-a881-cd3168819c32,2025-05-18 19:50:41.054755+00,Gabrielle Sikes,,Savannah,GA,NON-RETAIL,OFF,Bldg J 1101 Chatham Parkway,31408
2557dded-3375-485a-91a4-0a5eb98bdca8,2025-05-18 19:50:41.054755+00,CEVICHE TAPAS BAR AND REST,,SAINT PETERSBURG,FL,BAR/TAVERN,ON,332 BEACH DRIVE NE,33701
259f3219-2f95-4cee-bde1-8e06226b108a,2025-05-18 19:50:41.054755+00,CRAFT & ART WINE/SAMPLES,,AURORA,CO,OTHER OFF PREMISE,OFF,22800 E 19TH,80019
25d2bf0e-c15c-4216-9988-05b896ebb15c,2025-05-18 19:50:41.054755+00,Trickum Wine,,Woodstock,GA,LIQUOR/PACKAGE STORE,OFF,3333 Trickum Rd Ste 104,30188
25d41607-77a6-46cc-8841-674da46fcc02,2025-05-18 19:50:41.054755+00,SENS,,SAN FRANCISCO,CA,RESTAURANT,ON,4 EMBARCADERO CTR POD,94111
25e6d8ff-fe8a-4ace-95d8-7c11c17c6aae,2025-05-18 19:50:41.054755+00,SOHO HOUSE WEST HOLLYWOOD,,WEST HOLLYWOOD,CA,GOLF/ COUNTRY CLUB,ON,9200 SUNSET BL SKY PENTHOUSE,90069
25ebba22-7e7f-45b3-85fd-0ac885d9e3df,2025-05-18 19:50:41.054755+00,PALATE,,LAS VEGAS,NV,RESTAURANT,ON,1301 S MAIN ST #110,89104
25f78254-977e-4c12-9912-0f4a64ccd9df,2025-05-18 19:50:41.054755+00,FOLKLORE,,NAPA,CA,BAR/TAVERN,ON,1226 3RD STREET,94559
260256be-7156-4ecc-8ec8-217d13afc617,2025-05-18 19:50:41.054755+00,The Big Chill,,Gainesville,GA,LIQUOR/PACKAGE STORE,OFF,1210 Thompson Bridge Rd Unit D1,30501
262cf279-3cf5-4eac-97ed-0d6e9fe704ef,2025-05-18 19:50:41.054755+00,JAMES KEMP,,Augusta,GA,NON-RETAIL,OFF,312 UN Court,30813
2633170a-a27a-42d1-a864-f5f1b6a40782,2025-05-18 19:50:41.054755+00,CENTRAL PARK LIQUOR OF STEAMBO,,STEAMBOAT SPRINGS,CO,LIQUOR/PACKAGE STORE,OFF,1835 CENTRAL PARK DRIVE,80487
26956fd1-25c9-43e7-aa19-d2a6ad0b5469,2025-05-18 19:50:41.054755+00,SPARROW & WOLF,,LAS VEGAS,NV,RESTAURANT,ON,4480 SPRING MOUNTAIN RD STE100,89102
26bbfeb7-bbb8-4d15-ba7e-96d799875de1,2025-05-18 19:50:41.054755+00,FRANKS LIQUOR & MARKET,,WEST LOS ANGELES,CA,LIQUOR/PACKAGE STORE,OFF,10559 SANTA MONICA,90025
26cf9ee4-e317-49d7-971c-fcbb22b89606,2025-05-18 19:50:41.054755+00,SANTA MONICA LIQUOR,,SANTA MONICA,CA,LIQUOR/PACKAGE STORE,OFF,1001 WILSHIRE BL,90401
271c1b4e-fd5b-489e-954e-97178c423f58,2025-05-18 19:50:41.054755+00,ROCKVILLE CENTRE WINE & SPIRIT,,ROCKVILLE CENTRE,NY,LIQUOR/PACKAGE STORE,OFF,218 N LONG BEACH RD,11570
27402b74-65bf-48ab-a030-194830ec2eaa,2025-05-18 19:50:41.054755+00,Westside Pizzeria,,Atlanta,GA,RESTAURANT,ON,2260 Marietta Blvd NW Ste 107,30318
275d7fc8-e5fb-4f00-ba2c-69ff26731467,2025-05-18 19:50:41.054755+00,Memphis Smokehouse (Sea Salt),,Atlanta,GA,RESTAURANT,ON,1801 Howell Mill Rd NW Ste 400,30318
27dd7a39-6a5a-4d10-b674-b9fc75bf8fe0,2025-05-18 19:50:41.054755+00,HARD ROCK STADIUM,,MIAMI,FL,CONCESSIONAIRE,ON,2269 NW 199 STREET,33109
27e11617-1a3e-40d8-bc91-3dfea55651b8,2025-05-18 19:50:41.054755+00,WINE BANK,,SAN DIEGO,CA,LIQUOR/PACKAGE STORE,OFF,363 5TH AV,92101
27e6d15b-6a62-40cd-8ea3-f7fcdfe98f76,2025-05-18 19:50:41.054755+00,SAMPLE REP FRANK MISSONE,,SYOSSET,NY,OTHER OFF PREMISE,OFF,W/HOUSE PICK-UP,11791
27ef66a1-941c-451f-9830-e9abcebe23aa,2025-05-18 19:50:41.054755+00,WILLIAMS & GRAHAM / OCCIDENTAL,,DENVER,CO,RESTAURANT,ON,3150-3160 TEJON STREET,80211
285fd0af-4c30-49d4-9db9-5798929f4a06,2025-05-18 19:50:41.054755+00,SAMPLE JOSH LENHARD,,ROCHESTER,NY,OTHER OFF PREMISE,OFF,2436 INNOVATION WAY,14624
288e3a08-d1dd-4c86-987a-6e9e08b456a1,2025-05-18 19:50:41.054755+00,QC Party Store,,Gainesville,GA,LIQUOR/PACKAGE STORE,OFF,711-B Industrial Blvd,30501
288e9531-0d08-4495-8782-de980336e87c,2025-05-18 19:50:41.054755+00,Kizuna,,Blue Ridge,GA,RESTAURANT,ON,140 Progress Circle  #3,30513
289b4137-b6cb-4b72-9521-7e931fbf6497,2025-05-18 19:50:41.054755+00,REED STREET BOTTLE SHOP  THE,,COXSACKIE,NY,LIQUOR/PACKAGE STORE,OFF,34 REED ST,12051
28c183e0-f877-41fd-88ea-fbcf71bc6600,2025-05-18 19:50:41.054755+00,LEE S LIQUOR 106 LV BLVD,,LAS VEGAS,NV,LIQUOR/PACKAGE STORE,OFF,9110 LAS VEGAS BLVD,89123
28d24b86-c7b6-4ed3-8542-37a06b14e549,2025-05-18 19:50:41.054755+00,Dacula Cork And Bottle,,Dacula,GA,LIQUOR/PACKAGE STORE,OFF,2200 Hurricane Shola Rd,30019
28d71ff1-fc24-4d54-bfe2-aa26c12f1c65,2025-05-18 19:50:41.054755+00,Jeffrey s Bottle Shop,,Griffin,GA,LIQUOR/PACKAGE STORE,OFF,1012 Memorial Dr Ste 6,30223
28db0a74-8d87-4952-8ef7-02f2f14be78f,2025-05-18 19:50:41.054755+00,Oakhurst Market,,Decatur,GA,RESTAURANT,ON,650 E Lake Dr Ste A,30030
29058927-5add-4d9b-be2b-c71016b27a51,2025-05-18 19:50:41.054755+00,Nico Bottoni,,Austell,GA,NON-RETAIL,OFF,685 Hartman Rd,30168
2922c663-e341-4a81-b220-2edfaafd0f98,2025-05-18 19:50:41.054755+00,Buckhead Club,,Atlanta,GA,GOLF/ COUNTRY CLUB,ON,3344 Peachtree Rd NE  26th Floor,30326
293450c3-f0c9-469c-907e-5219ce684a4b,2025-05-18 19:50:41.054755+00,Charles Bolden,,Austell,GA,NON-RETAIL,OFF,685 Hartman Rd,30168
293b2d46-0283-4234-87b7-1ab4c54a3141,2025-05-18 19:50:41.054755+00,Rockhouse Beverage,,Senoia,GA,LIQUOR/PACKAGE STORE,OFF,122 RockhouseRoad,30276
298ae26e-36fb-467a-9700-9826bbdf407d,2025-05-18 19:50:41.054755+00,JOONAS & BEAR DEN ASPEN,,ASPEN,CO,RESTAURANT,ON,301 EAST HOSPKINS AVENUE,81611
299bf69b-19d2-466e-8901-77982853183d,2025-05-18 19:50:41.054755+00,NEEDHAM CENTER FINE WINES,,NEEDHAM,MA,LIQUOR/PACKAGE STORE,OFF,1013 GREAT PLAIN AVE,02492
29adbb81-a454-4fbd-bf35-b8ec996decaf,2025-05-18 19:50:41.054755+00,Hometown Spirits  (SKS),,Flowery Branch,GA,LIQUOR/PACKAGE STORE,OFF,4856 Hog Mountain Rd,30542
29efad80-d298-40b6-b4cc-5c17308954aa,2025-05-18 19:50:41.054755+00,Local Vine/Cobb Liquor Store,,Atlanta,GA,LIQUOR/PACKAGE STORE,OFF,3101 Cobb Pkwy SE STE #102,30339
29f1223e-2525-4f03-bc96-d23f62f8e8d5,2025-05-18 19:50:41.054755+00,SAMPLE REP SUNG KIM,,SYOSSET,NY,OTHER OFF PREMISE,OFF,W/HOUSE PICK-UP,11791
29f1bd4f-95b1-4add-a1e9-43a206bd523a,2025-05-18 19:50:41.054755+00,Whitlock Package Store,,Marietta,GA,LIQUOR/PACKAGE STORE,OFF,940 Whitlock Ave NW,30064
2a0752bc-6211-4ba6-b295-3368f1b985a0,2025-05-18 19:50:41.054755+00,JACK S,,SAN JOSE,CA,BAR/TAVERN,ON,167 E TAYLOR ST,95112
2aea7d2e-7069-45c5-a34b-1c58883f189b,2025-05-18 19:50:41.054755+00,JIMOTO RAMEN,,ASPEN,CO,RESTAURANT,ON,616 EAST HYMAN,81611
2aeb85d3-4462-464a-910d-0d409fdb1791,2025-05-18 19:50:41.054755+00,Ruby Chow s,,Atlanta,GA,RESTAURANT,ON,620 Glen Iris Dr NE #C-1,30308
2b0eb4ab-38cd-42b1-979e-078db46fb0fc,2025-05-18 19:50:41.054755+00,PATISSERIE CHANSON,,NEW YORK,NY,RESTAURANT,ON,20 W23RD ST,10010
2b68f8f2-de2c-44c6-92e2-843c5a8487eb,2025-05-18 19:50:41.054755+00,MING S CAFE CARBONDALE,,CARBONDALE,CO,RESTAURANT,ON,901 HIGHWAY 133 #F,81623
2b80c5c9-e47a-47a2-83d3-d2bbe4b4d8c3,2025-05-18 19:50:41.054755+00,MONTECITO CLARK S,,SANTA BARBARA,CA,RESTAURANT,ON,1212 COAST VILLAGE RD,93108
2baf69a5-c2f1-4cb8-baf9-001186cfc5ab,2025-05-18 19:50:41.054755+00,Kelley s Tavern & Grill LLC,,Gainesville,GA,RESTAURANT,ON,628 EE Butler Parkway,30501
2bbf79bf-33ec-4e5a-9c5d-9879d352ce88,2025-05-18 19:50:41.054755+00,ROYAL PACIFIC RESORT,,ORLANDO,FL,HOTEL/ MOTEL,ON,6300 HOLLYWOOD WAY,32819
2bfce95d-3eea-444d-acc6-f5f783c6facb,2025-05-18 19:50:41.054755+00,SAKEONE/SAMPLES,,DENVER,CO,OTHER OFF PREMISE,OFF,5270 FOX STREET,80216
2c06c929-a28f-4337-bee3-d1442cf1a45b,2025-05-18 19:50:41.054755+00,SOCO SOCIAL HOUSE,,GRAND JUNCTION,CO,BAR/TAVERN,ON,209 1/2 COLORADO AVENUE,81501
2c0cf9e8-10e2-4694-96a7-7bb346f43530,2025-05-18 19:50:41.054755+00,KEG N BOTTLE 5,,SAN DIEGO,CA,BAR/TAVERN,ON,6380 DEL CERRO BL,92120
2c24aa26-ad8e-484a-bb38-ac85a89949de,2025-05-18 19:50:41.054755+00,BOSS LIQUOR,,THORNTON,CO,LIQUOR/PACKAGE STORE,OFF,5781 EAST 128TH AVENUE #160,80602
2c766208-4b79-45c8-b673-5705ce4eee89,2025-05-18 19:50:41.054755+00,CORKED,,REDONDO BEACH,CA,LIQUOR/PACKAGE STORE,OFF,1520 AVIATION BL,90278
2c928584-9ee0-4bb9-97b1-a84aa6018a53,2025-05-18 19:50:41.054755+00,BUNGALOW KITCHEN,,BELVEDERE TIBURON,CA,RESTAURANT,ON,5 MAIN ST,94920
2cc510e8-0412-42f3-bf2b-19d3e6c4fcd6,2025-05-18 19:50:41.054755+00,Cru Food & WIne Bar,,Alpharetta,GA,RESTAURANT,ON,300 Avalon Blvd,30009
2cd5e5a9-9b64-48de-a365-1a37c6ecf992,2025-05-18 19:50:41.054755+00,111 LEX LIQUORS INC,,NEW YORK,NY,LIQUOR/PACKAGE STORE,OFF,111 LEXINGTON AVE,10016
2ce22546-575f-4611-a8d7-973d9b4ba28d,2025-05-18 19:50:41.054755+00,KENT CELLARS FINE WINE,,ENGLEWOOD,CO,LIQUOR/PACKAGE STORE,OFF,3475 S UNIVERSITY BLVD,80113
2d02aa3d-442c-4fc6-95bc-d3502357decc,2025-05-18 19:50:41.054755+00,BOKA  SUSHI NONAKA,,NEW YORK,NY,RESTAURANT,ON,410 AMSTERDAM AVE,10024
2d17c72e-44a8-4a55-8a46-e4d8f102bc4f,2025-05-18 19:50:41.054755+00,VERDUGO,,LOS ANGELES,CA,BAR/TAVERN,ON,3408 VERDUGO RD,90065
2d1dca6e-856d-48e2-9708-615c492471cd,2025-05-18 19:50:41.054755+00,HERBERT & RIST INC,,SOUTHAMPTON,NY,LIQUOR/PACKAGE STORE,OFF,63 JOBS LANE,11968
2d425443-350a-4ee6-abcc-327b88c6d1fc,2025-05-18 19:50:41.054755+00,Umi Sushi,,Atlanta,GA,RESTAURANT,ON,3050 Peachtree Rd Ne,30305
2d925bc5-3563-40e9-8f4e-f0355bd1869f,2025-05-18 19:50:41.054755+00,K & L WINE MERCHANT,,SAN FRANCISCO,CA,LIQUOR/PACKAGE STORE,OFF,855 HARRISON ST,94107
2dcdd91c-78fc-48f3-ab3e-6d9afcf1bc01,2025-05-18 19:50:41.054755+00,SOBE-RAW BAR MASTER CLASS,,MIAMI,FL,RESTAURANT,ON,210 NE 18TH STREET,33132
2e24f8cd-61db-4a61-a493-53ec28671984,2025-05-18 19:50:41.054755+00,Dunwoody Beverage,,Dunwoody,GA,LIQUOR/PACKAGE STORE,OFF,1418 Dunwoody Vilg Pkwy,30338
2e8c6c0b-35d2-4010-876f-a29d2ac4fe1a,2025-05-18 19:50:41.054755+00,Toast Wine & Beverage,,Martinez,GA,LIQUOR/PACKAGE STORE,OFF,417 Fury s Ferry Rd,30907
2ecd98f5-c6d2-46c2-86f1-f0b26daa053f,2025-05-18 19:50:41.054755+00,AVIARY,,SACRAMENTO,CA,RESTAURANT,ON,712 K ST,95814
2edf7fa5-713f-49a8-97b2-bbefc9f61fe0,2025-05-18 19:50:41.054755+00,QFC #839,,MERCER ISLAND,WA,SUPERMARKET,OFF,7823 28TH ST,98040
2f8fee1b-3a50-4908-b252-c84ccccb6517,2025-05-18 19:50:41.054755+00,TOSCANA MARE,,KEY BISCAYNE,FL,RESTAURANT,ON,1121 CRANDON BLVD,33149
2fa62949-4d87-42d1-ab45-1504dfd70148,2025-05-18 19:50:41.054755+00,Athens Hwy Package,,Gainesville,GA,LIQUOR/PACKAGE STORE,OFF,898 W Ridge Rd,30501
2fdb49af-d8d6-4b40-b1ab-959da5b6d939,2025-05-18 19:50:41.054755+00,Sweetwater Package **CLOSED**,,Duluth,GA,LIQUOR/PACKAGE STORE,OFF,3900 Peachtre Ind l Blvd,30096
302353e7-aa1c-45c2-a53e-8da7414477cb,2025-05-18 19:50:41.054755+00,PABU,,SAN FRANCISCO,CA,RESTAURANT,ON,101 CALIFORNIA ST,94111
30835658-a2d4-4d46-83eb-6f0093d9486b,2025-05-18 19:50:41.054755+00,BLUE MAKI,,CARROLLTON,TX,RESTAURANT,ON,2625 OLD DENTON RD STE 444,75007
3088997b-3ca4-4463-954f-9de04dfa8e2f,2025-05-18 19:50:41.054755+00,ZUMA NEW YORK,,NEW YORK,NY,RESTAURANT,ON,261 MADISON AVE,10016
30a32cf1-3722-4703-b618-e5521f0c358b,2025-05-18 19:50:41.054755+00,AYA SUSHI,,BELLAIRE,TX,RESTAURANT,ON,5407 BELLAIRE BLVD STE A,77401
30cb809c-7b52-4a0a-a546-42d0f6a55a89,2025-05-18 19:50:41.054755+00,ZUMA,,BOSTON,MA,BAR/TAVERN,ON,1 DALTON ST,02199
30d78039-7b5f-40c4-a447-77519b07730e,2025-05-18 19:50:41.054755+00,LITTLE DAISY LIQUOR,,BUENA VISTA,CO,LIQUOR/PACKAGE STORE,OFF,401 US HIGHWAY 24 NORTH,81211
310680ef-b3e1-4add-9ce5-592ad83f4554,2025-05-18 19:50:41.054755+00,JW MARRIOTT MIAMI TURNBERRY,,AVENTURA,FL,HOTEL/ MOTEL,ON,19999 WEST COUNTRY CLUB DRIVE,33180
312ac222-c862-42f3-abb1-3d006549c777,2025-05-18 19:50:41.054755+00,ADAM LACAGNINA SAMPLES,,HONOLULU,HI,OTHER OFF PREMISE,OFF,155 KAPALULU PLACE STE 300,96819
3191f7e6-1840-46c6-9c1b-92e4eddddbef,2025-05-18 19:50:41.054755+00,Stevens Creek Spirits,,Augusta,GA,LIQUOR/PACKAGE STORE,OFF,1061Stevens Creek Rd,30907
31a04712-11f1-4af3-961c-99a21ad94959,2025-05-18 19:50:41.054755+00,Bon Ton,,Atlanta,GA,RESTAURANT,ON,214 Ponce DeLeon Ave NE,30308
31a6b3ae-cc59-483f-bb9f-c5fcce7d8e66,2025-05-18 19:50:41.054755+00,LUCKY ME LIQUOR 2,,GRAND JUNCTION,CO,LIQUOR/PACKAGE STORE,OFF,2648 PATTERSON RD STE A B C,81506
31c28224-ca22-4bc6-81b2-e6b9abdc3444,2025-05-18 19:50:41.054755+00,VAN WYCK LIQUORS,,CROTON ON HUDSON,NY,LIQUOR/PACKAGE STORE,OFF,52 MAPLE ST,10520
31dae860-23c4-45b4-87d2-401d6614e2ba,2025-05-18 19:50:41.054755+00,SUPER DUPER LIQUOR,,WEST PALM BEACH,FL,LIQUOR/PACKAGE STORE,OFF,614-B BELVEDERE RD,33403
31fa13d9-aa74-4ed8-a1be-ebd6f7ac9c1c,2025-05-18 19:50:41.054755+00,Max s Bottle Shop,,Johns Creek,GA,LIQUOR/PACKAGE STORE,OFF,6395 Mcginnis Ferry Rd,30005
32019ba5-4d62-4935-a607-ef7a8d65fbee,2025-05-18 19:50:41.054755+00,SEAGATE HOTEL& SPA/BOURBON,,DELRAY BEACH,FL,HOTEL/ MOTEL,ON,1020 E ATLANTIC AVE,33483
320ca112-d8ca-4461-ac60-e740ef6d7bc2,2025-05-18 19:50:41.054755+00,HB LIQUORS @ COSTCO,,YONKERS,NY,LIQUOR/PACKAGE STORE,OFF,20 STEW LEONARD DRIVE,10710
3218d301-ec5c-43cf-920e-ca5a0791459d,2025-05-18 19:50:41.054755+00,BARREL TO BOTTLES WINE&SPIRITS,,NEW YORK,NY,LIQUOR/PACKAGE STORE,OFF,1456 2ND AVE,10075
32199fe6-809a-4372-8ca1-96f1d21693d9,2025-05-18 19:50:41.054755+00,MONDO VINO,,DENVER,CO,LIQUOR/PACKAGE STORE,OFF,3601 W 32ND AVE,80211
3275ae25-b1e9-401e-9e59-eee6e9670a79,2025-05-18 19:50:41.054755+00,MORIMOTO NAPA,,NAPA,CA,RESTAURANT,ON,610 MAIN STREET,94559
328c841d-6668-4dce-98b4-c5213771255b,2025-05-18 19:50:41.054755+00,LEVY-THE MUSIC CENTER,,LOS ANGELES,CA,GOLF/ COUNTRY CLUB,ON,135 N GRAND AVE,90012
33096966-53ac-4743-8210-af258fdb3c82,2025-05-18 19:50:41.054755+00,PRESS,,ST. HELENA,CA,RESTAURANT,ON,587-B S ST HELENA HWY,94574
33248cbd-9cde-4e9a-826b-e15d4b0a2155,2025-05-18 19:50:41.054755+00,Ted s Montana Grill,,Peachtree City,GA,RESTAURANT,ON,314 City Circle #1320,30269
338982e6-6360-48aa-be33-811cab02f2b6,2025-05-18 19:50:41.054755+00,THE BATH CLUB,,MIAMI BEACH,FL,GOLF/ COUNTRY CLUB,ON,5937 COLLINS AVENUE,33140
338eaa90-567e-4515-b327-71c4eb290524,2025-05-18 19:50:41.054755+00,HOTEL KABUKI,,SAN FRANCISCO,CA,HOTEL/ MOTEL,ON,1625 POST ST,94115
33ec6f40-ecdc-4d0b-b07e-163e59a698ac,2025-05-18 19:50:41.054755+00,Broughton Street Liquor,,Savannah,GA,LIQUOR/PACKAGE STORE,OFF,14 E Broughton St,31401
33f96c93-8efc-430c-a9c1-e141843cba0b,2025-05-18 19:50:41.054755+00,Dua Vietnamese Restaurant Inc,,Fayetteville,GA,RESTAURANT,ON,805 Lanier Ave. W,30214
341d4864-a487-4cee-81ef-0c01f993ffd2,2025-05-18 19:50:41.054755+00,NEW YORK WINE EXCHANGE,,NEW YORK,NY,LIQUOR/PACKAGE STORE,OFF,9 BROADWAY,10004
347b7b8c-fa1f-4fd5-921d-f5c3bbebbaf7,2025-05-18 19:50:41.054755+00,LOEWS ARLINGTON HOTEL,,ARLINGTON,TX,HOTEL/ MOTEL,ON,1601 E RANDOL MILL RD,76011
347bbf23-b69d-49c3-8a1d-022e41affdd0,2025-05-18 19:50:41.054755+00,HEATHERS SNOWMASS,,SNOWMASS VILLAGE,CO,RESTAURANT,ON,300 CARRIAGE WAY,81615
3487575a-0b3b-4179-a28f-eec4bac5486e,2025-05-18 19:50:41.054755+00,SOBE-JET TILA DINNER FRI,,MIAMI BEACH,FL,OTHER ON PREMISE,ON,1701 COLLINS AVENUE,33109
34a2d805-4460-4b83-919b-97ea9d65cf4b,2025-05-18 19:50:41.054755+00,2B Package,,Winder,GA,LIQUOR/PACKAGE STORE,OFF,64 McNeal Rd,30680
34e413bc-1721-4ff3-8b01-c8cefd4c0216,2025-05-18 19:50:41.054755+00,SOBE-SUSHI MASTER CLASS,,MIAMI,FL,OTHER ON PREMISE,ON,801 BRICKELL AVENUE,33131
356e6a93-b657-4ef4-bca1-68eeaf55f4b8,2025-05-18 19:50:41.054755+00,Wine And Shine,,Augusta,GA,LIQUOR/PACKAGE STORE,OFF,2065 Walton Way,30904
358f86db-7fdc-49bd-bc91-2407fa17729a,2025-05-18 19:50:41.054755+00,SGWS KEY WEST HOLIDAY TRADE SH,,MIAMI,FL,OTHER ON PREMISE,ON,1600 NW 163RD ST,33169
35b45362-1c49-4171-9b64-d5fd49b06f4b,2025-05-18 19:50:41.054755+00,Anthony Thornton,,Austell,GA,NON-RETAIL,OFF,685 Hartman Rd,30168
35d4c91f-2859-46be-ad63-759b614081bf,2025-05-18 19:50:41.054755+00,EATALY,,SANTA CLARA,CA,RESTAURANT,ON,2855 STEVENS CREEK BLVD,95050
35df8b2e-7c68-4396-aa66-8cf740bb1fcd,2025-05-18 19:50:41.054755+00,The Cellar Wine & Spirits,,Athens,GA,LIQUOR/PACKAGE STORE,OFF,2405 Jefferson Rd  Ste 1,30607
35f77af8-75b0-4269-b2ba-47f504775b69,2025-05-18 19:50:41.054755+00,VILLAGE WAREHOUSE WINES,,AVON,CO,LIQUOR/PACKAGE STORE,OFF,0101 FAWCETT RD,81620
36574931-1ad4-4c83-8ab1-19c42276503e,2025-05-18 19:50:41.054755+00,SSA GROUP,,SEATTLE,WA,RESTAURANT,ON,325 5TH AVE N,98109
365d684e-292a-4434-8c0d-d57dc5b0bb65,2025-05-18 19:50:41.054755+00,American Package,,Dublin,GA,LIQUOR/PACKAGE STORE,OFF,1954 US Hwy 441S,31021
369c5ca2-66be-43f4-8c2f-084e5394afaa,2025-05-18 19:50:41.054755+00,ZIZIKI S,,DALLAS,TX,RESTAURANT,ON,4514 TRAVIS ST SUITE 122,75205
370c8c88-011c-4265-a128-c490d5b7db93,2025-05-18 19:50:41.054755+00,TEAM #089 HUPP ALLISON,,UNION CITY,CA,OTHER OFF PREMISE,OFF,33321 DOWE AVE,94587
375a9a56-30cc-4514-8340-2be7a486e41b,2025-05-18 19:50:41.054755+00,SAMPLE GSM,,SYOSSET,NY,OTHER OFF PREMISE,OFF,SYOSSET,11791
3780d132-ce7e-43f6-a106-6c5343b208f1,2025-05-18 19:50:41.054755+00,SUNNY S LIQUOR,,ALVARADO,TX,LIQUOR/PACKAGE STORE,OFF,5603 HWY 67 EAST,76009
37aa2af5-a30d-42b1-9d95-a035050987f8,2025-05-18 19:50:41.054755+00,LE BAR A VIN    (ON),,PALM BEACH,FL,BAR/TAVERN,ON,380 SOUTH COUNTY ROAD,33480
37af6cff-bda9-4b28-9ebe-7f9309d874fe,2025-05-18 19:50:41.054755+00,LIQUOR WORLD LV WESTERN #112,,LAS VEGAS,NV,LIQUOR/PACKAGE STORE,OFF,3301 WESTERN AVE,89109
37b8437f-f976-4880-8ed8-48caffe2286f,2025-05-18 19:50:41.054755+00,Tomo,,Atlanta,GA,RESTAURANT,ON,3630 Peachtree Rd,30326
38760de3-35d0-444f-8c15-e6d35001017f,2025-05-18 19:50:41.054755+00,MANHATTAN VALLEY W & L CORP,,NEW YORK,NY,LIQUOR/PACKAGE STORE,OFF,980 COLUMBUS AVE,10025
38936c66-4ebc-4313-98e5-9ecf4885eb53,2025-05-18 19:50:41.054755+00,ATLANTIC FIELDS,,HOBE SOUND,FL,GOLF/ COUNTRY CLUB,ON,5485 SE POLO CLUB DRIVE,33455
38f6d083-9617-47d1-a14d-1db7e2205664,2025-05-18 19:50:41.054755+00,Skyview Bottle Shop,,Lithia Springs,GA,LIQUOR/PACKAGE STORE,OFF,800 Maxham Rd Ste C,30122
39537b9d-55c2-4d14-a527-2adfb0e32bb3,2025-05-18 19:50:41.054755+00,MARTINE,,ROCHESTER,NY,BAR/TAVERN,ON,647 SOUTH AVE,14620
396bc75e-87a6-43ad-9904-2d9ae063c049,2025-05-18 19:50:41.054755+00,The Synovus Toast of the Town,,Columbus,GA,SPECIAL EVENT/ TEMPORARY LICENSE,ON,801 Front Ave,31901
396cf9e1-0596-4420-a548-abb7a1be088b,2025-05-18 19:50:41.054755+00,TUCCI NEW YORK,,NEW YORK,NY,RESTAURANT,ON,643 BROADWAY,10012
398200a4-9130-410b-bbf8-a94d679f4638,2025-05-18 19:50:41.054755+00,Johnnie Ganem Package Shop,,Savannah,GA,LIQUOR/PACKAGE STORE,OFF,501 Habersham St,31401
3990f5df-d425-44a9-917b-c404a48b29c6,2025-05-18 19:50:41.054755+00,Zebulon Package Store,,Zebulon,GA,LIQUOR/PACKAGE STORE,OFF,610 Thomaston St,30295
3994c24e-d215-47b2-ad35-08f7a43ade24,2025-05-18 19:50:41.054755+00,ZUZU,,NAPA,CA,RESTAURANT,ON,823 & 825 & 829 MAIN ST,94559
39f704e4-e21c-4c9c-a46e-ffffb5ec39fd,2025-05-18 19:50:41.054755+00,Kuroshio Sushi Bar & Grill,,Smyrna,GA,RESTAURANT,ON,2700 Cobb Pkwy:3B-4B,30080
39fb2c85-c904-419d-82db-ceb09bad2be9,2025-05-18 19:50:41.054755+00,Hajime Restaurant,,Atlanta,GA,RESTAURANT,ON,2345 Cheshire Bridge Rd Unit 1,30324
3a500b74-c0ff-4717-90a7-dbef89140288,2025-05-18 19:50:41.054755+00,CHUBBY CATTLE,,ROWLAND HEIGHTS,CA,RESTAURANT,ON,1388 FULLERTON RD #B,91748
3a6cdcb3-e6d2-4c9b-a758-89aee0832cc3,2025-05-18 19:50:41.054755+00,JORDAN WINE AND SPIRITS,,PARKER,CO,LIQUOR/PACKAGE STORE,OFF,17021 LINCOLN AVENUE #G,80134
3aa6c5d0-1cca-408f-913a-b6f92723c406,2025-05-18 19:50:41.054755+00,BOYNTON WINE & SPIRITS,,BOYNTON BEACH,FL,LIQUOR/PACKAGE STORE,OFF,1550 N FEDERAL HWY,33435
3aaf36d8-a371-461e-b745-c642c8df7c1b,2025-05-18 19:50:41.054755+00,DRIFTWOOD FOOD & BEVERAGE LLC A,,BUDA,TX,GOLF/ COUNTRY CLUB,ON,11100 FM 967,78610
3aef044e-8a01-4663-93c1-e51e5a398a08,2025-05-18 19:50:41.054755+00,GREYHOUND HIGHLAND PARK,,LOS ANGELES,CA,RESTAURANT,ON,5570 N FIGUEROA ST,90042
3b16636c-592a-48f6-a307-d42690cdb747,2025-05-18 19:50:41.054755+00,VINOS ON LAS OLAS,,FORT LAUDERDALE,FL,BAR/TAVERN,ON,901 E LAS OLAS BLVD SUITE 103,33301
3bb48238-4381-4976-a4e9-7e9f7516d6e0,2025-05-18 19:50:41.054755+00,Johnny s Liquor Store,,Austell,GA,LIQUOR/PACKAGE STORE,OFF,5770 Harris St,30168
3bd6a3a2-0251-466a-b9c2-15a1fe39ab74,2025-05-18 19:50:41.054755+00,HEB CENTRAL MARKET 552,,DALLAS,TX,SUPERMARKET,OFF,5750 E LOVERS LANE,75206
3c05c122-6cc4-4930-8785-4428ebf273aa,2025-05-18 19:50:41.054755+00,SAMPLE REP CHRISTIAN CACERES,,SYOSSET,NY,OTHER OFF PREMISE,OFF,W/HOUSE PICK UP,11791
3c184f74-13de-4b34-9e08-90e6717588b7,2025-05-18 19:50:41.054755+00,KAPPY S FINE WINE & SPIRITS,,FALL RIVER,MA,LIQUOR/PACKAGE STORE,OFF,580 WILLIAM S CANNING BL,02721
3c2cebec-6fb5-4d65-aeb5-4e67b1b41966,2025-05-18 19:50:41.054755+00,CARMEL RESTAURANT,,LOS ANGELES,CA,RESTAURANT,ON,7383 W MELROSE AV,90046
3c8b0726-68bd-4d67-804d-5c9af634d073,2025-05-18 19:50:41.054755+00,ITTOKU,,CAMBRIDGE,MA,BAR/TAVERN,ON,1815 MASSACHUSETTS AVE,02140
3c8e96a6-40f4-40e3-a50d-803bc84d1af4,2025-05-18 19:50:41.054755+00,GARY S LIQUORS KGB,,NEW YORK,NY,LIQUOR/PACKAGE STORE,OFF,141 ESSEX ST,10002
3cc2bd38-d883-4b85-9360-cccb7fa5b8f9,2025-05-18 19:50:41.054755+00,K & L MERCHANT,,SAN FRANCISCO,CA,LIQUOR/PACKAGE STORE,OFF,855 HARRISON ST,94107
3cced815-f492-4da7-b5c3-9f122223bbf9,2025-05-18 19:50:41.054755+00,ABSINTHE BRASSERIE & BAR,,SAN FRANCISCO,CA,RESTAURANT,ON,388 & 394 & 398 HAYES ST,94102
3d3727be-a500-4f12-abd9-7243f7f949af,2025-05-18 19:50:41.054755+00,Blue Glass Liquor & Wine,,Cumming,GA,LIQUOR/PACKAGE STORE,OFF,6015 Post Rd Ste C,30040
3d3f1b91-0a51-41f4-8dce-5314392c352e,2025-05-18 19:50:41.054755+00,BASSER S FINE WINE INC (ON),,CORAL SPRINGS,FL,LIQUOR/PACKAGE STORE,OFF,6240 CORAL RIDGE DR,33076
3d5fe046-18f7-4ecb-a4d0-7e087f83376b,2025-05-18 19:50:41.054755+00,Beverage World of Cumming,,Cumming,GA,LIQUOR/PACKAGE STORE,OFF,745 Lanier 400 Pkwy,30040
3dab46eb-3d51-48ad-bed6-8dcf4fcfcd48,2025-05-18 19:50:41.054755+00,,,,,Report Created on 4/15/2025 6:44:47 PM,,,
3dbfa7d3-ebf1-4eda-8c6b-4d7a8a11d542,2025-05-18 19:50:41.054755+00,Cork And Keg,,Braselton,GA,LIQUOR/PACKAGE STORE,OFF,6750 Highway 53  Ste 101,30517
3de36e2b-0973-4433-9f65-809a19a87462,2025-05-18 19:50:41.054755+00,BLUE WHALE RESTAURANT & LOUNGE,,SAN FRANCISCO,CA,RESTAURANT,ON,2033 UNION ST,94123
3e11c332-1cc9-4322-a4e4-b58c4aa10f1c,2025-05-18 19:50:41.054755+00,SGWS- SUPPLIER SAMPLES,,WASHINGTON,DC,OTHER OFF PREMISE,OFF,3125 V STREET NE,20018
3e5842d0-c59e-4a44-83d6-fd3ef5c302a9,2025-05-18 19:50:41.054755+00,STAR LIQUORS IV,,WELLINGTON,FL,LIQUOR/PACKAGE STORE,OFF,10650 FOREST HILL BLVD,33414
3e7270cc-640f-4ab0-8ea7-e40f2c0a6ec3,2025-05-18 19:50:41.054755+00,MOBY S,,EAST HAMPTON,NY,RESTAURANT,ON,341 PANTIGO RD,11937
3ed837e3-1cef-4b4a-aefb-5f2fc0303f1c,2025-05-18 19:50:41.054755+00,FLEMINGS PRIME STEAKHOUSE,,LOS ANGELES,CA,RESTAURANT,ON,800 W OLYMPIC BL #A135,90015
3f5e39e8-4078-4fc2-9172-5f8eb47f9bb2,2025-05-18 19:50:41.054755+00,KELLY WILSON,,Savannah,GA,NON-RETAIL,OFF,Bldg J 1101 CHatham Parkway,31408
3f8ac0af-6edb-43b8-a96d-e200cc2cb735,2025-05-18 19:50:41.054755+00,Alexandra Wright,,Austell,GA,NON-RETAIL,OFF,685 Heartman Rd,30168
3faa3be2-763c-4ba7-9d24-95b3fda05d3d,2025-05-18 19:50:41.054755+00,SAKE ONO/PARK STREET/SAMPLES,,AURORA,CO,OTHER OFF PREMISE,OFF,22800 E. 19TH AVE,80019
3fffd86e-24d8-4235-8e88-fab9245d415e,2025-05-18 19:50:41.054755+00,MARSHFIELD BLANCHARDS INC,,MARSHFIELD,MA,LIQUOR/PACKAGE STORE,OFF,700 PLAIN ST,02050
40132404-e4d0-43cb-bb1c-023f4bb8b6ad,2025-05-18 19:50:41.054755+00,SANDBAR & GRILL,,MONTEREY,CA,RESTAURANT,ON,MUNICIPAL WHARF #2,93940
40408ae7-f7ca-4bbc-9939-3f368dfd1c51,2025-05-18 19:50:41.054755+00,HARBORSIDE WINE & SPIRIT,,SCITUATE,MA,LIQUOR/PACKAGE STORE,OFF,109 FRONT ST,02066
40428033-2f90-4885-99d2-7fa393d02560,2025-05-18 19:50:41.054755+00,NYCWFF-SOCIAL HOUR SAT.,,NEW YORK,NY,OTHER OFF PREMISE,OFF,25 W 28TH STREET,10001
406170de-c964-4d92-8ff2-11e11df6ddc5,2025-05-18 19:50:41.054755+00,SPEC S 221 WINE MAIN,,PFLUGERVILLE,TX,LIQUOR/PACKAGE STORE,OFF,19000 LIMESTONE COMMERCIAL DR,78660
40d0170c-69ee-4bd4-bca8-9d51767c1220,2025-05-18 19:50:41.054755+00,Flock To The Wok LLC,,Savannah,GA,RESTAURANT,ON,37 Whitaker ST,31401
40e5e7d8-b5c9-4e63-8d9d-e13ee2e5b101,2025-05-18 19:50:41.054755+00,CLOVER CLUB,,BROOKLYN,NY,BAR/TAVERN,ON,210 SMITH ST,11201
41136026-ae1e-420f-8512-d6621ed326b4,2025-05-18 19:50:41.054755+00,HYATT HOUSE,,SACRAMENTO,CA,HOTEL/ MOTEL,ON,2719 K ST,95816
41325a80-5454-4828-9c3a-8a08e2ddb0f8,2025-05-18 19:50:41.054755+00,CAMPHOR,,LOS ANGELES,CA,RESTAURANT,ON,923 E 3RD ST #109,90013
41eb0a1f-9396-4896-ac41-0692a83778a6,2025-05-18 19:50:41.054755+00,LEE S LIQUOR #9 MESQUITE,,MESQUITE,NV,LIQUOR/PACKAGE STORE,OFF,670 W PIONEER BLVD,89027
41fa21e4-825a-44f1-a968-3931a21ef4b9,2025-05-18 19:50:41.054755+00,Lilburn Package Store  **CLOSED**,,Lilburn,GA,LIQUOR/PACKAGE STORE,OFF,501 Indian Trail Rd,30047
42157184-3de5-4f62-92f8-32a3697b86d5,2025-05-18 19:50:41.054755+00,BARCHA,,SAN FRANCISCO,CA,RESTAURANT,ON,425 MARKET ST,94105
4224853a-70a8-46b3-9cb7-b8d5bc19c47a,2025-05-18 19:50:41.054755+00,SPEC S 062 WINE MAIN,,AUSTIN,TX,LIQUOR/PACKAGE STORE,OFF,10515 N MOPAC BUILDING K,78735
423b35ce-f7a3-41eb-ad6e-2775f4416181,2025-05-18 19:50:41.054755+00,LA FINA,,ANDOVER,MA,BAR/TAVERN,ON,27 MAIN ST,01810
42497205-735b-4afe-8d0e-4d12c837807b,2025-05-18 19:50:41.054755+00,Liquor Loft,,Lagrange,GA,LIQUOR/PACKAGE STORE,OFF,2120 Vernon St Ste 105,30240
42816c9e-cdd3-47ae-832c-7c62c9fb6f80,2025-05-18 19:50:41.054755+00,NANEA GOLF CLUB  INC.,,KAILUA KONA,HI,GOLF/ COUNTRY CLUB,ON,72-2921 KAUPULEHU,96740
42e93460-4fb2-4ed3-befe-5f8706d0d911,2025-05-18 19:50:41.054755+00,LIQUOR & WINE WAREHOUSE,,BROOKLYN,NY,LIQUOR/PACKAGE STORE,OFF,3090 OCEAN AVE,11235
42fcb24b-87c5-43b2-9036-a637653c5b2c,2025-05-18 19:50:41.054755+00,Beverage Vault,,Newnan,GA,LIQUOR/PACKAGE STORE,OFF,109 Bullsboro Dr,30263
435d45a0-7f8f-4943-897d-8ee14cae08c3,2025-05-18 19:50:41.054755+00,ALEX DISCOUNT LIQUOR&WINE CORP,,BROOKLYN,NY,LIQUOR/PACKAGE STORE,OFF,1645 86TH ST,11214
4364464f-2c4f-447e-8433-8a1a6a29f4a3,2025-05-18 19:50:41.054755+00,Grinds and Wines (Tavern on 74),,Peachtree City,GA,RESTAURANT,ON,288 Hwy 74 N,30269
43a8f659-b2a7-445f-aa6d-11d957945146,2025-05-18 19:50:41.054755+00,NAM Kitchen,,Sandy Springs,GA,RESTAURANT,ON,6400 Blue Stone Rd STE 100,30328
447281f7-9416-43cd-84b2-3d137d23f3a9,2025-05-18 19:50:41.054755+00,SPACE PING PONG LOUNGE & BAR,,NEW YORK,NY,GOLF/ COUNTRY CLUB,ON,22 W 32ND ST,10001
4479925e-244a-480f-a2da-46a2fa662c9d,2025-05-18 19:50:41.054755+00,Riverstone Beverage,,Canton,GA,LIQUOR/PACKAGE STORE,OFF,1554 Riverstone Pkwy Ste 100,30114
447e36f7-8857-4e75-8010-26adaf86e4a2,2025-05-18 19:50:41.054755+00,MamiTaco Inc,,Marietta,GA,RESTAURANT,ON,800 Whitlock Ave NW Ste 207,30064
448cb2bf-0142-4cbb-b395-aac39a493ddf,2025-05-18 19:50:41.054755+00,SUMMIT CLUB,,LAS VEGAS,NV,GOLF/ COUNTRY CLUB,ON,11750 SUMMIT CLUB DR,89135
44ef32b5-640e-40e5-a93b-9ba1dd2db4ac,2025-05-18 19:50:41.054755+00,LIQUOR WORLD,,FRAMINGHAM,MA,LIQUOR/PACKAGE STORE,OFF,235 OLD CONNECTICUT PATH,01701
44f9030e-1dc0-4c37-af4d-ae706dcdf310,2025-05-18 19:50:41.054755+00,GREEN VALLEY RANCH STATION A/P,,HENDERSON,NV,GOLF/ COUNTRY CLUB,ON,2300 PASEO VERDE PKWY,89052
455ebde2-9c58-414f-a4cb-ef9a1fd74f56,2025-05-18 19:50:41.054755+00,The Tabernacle,,Atlanta,GA,RESTAURANT,ON,152 Luckie St NW,30303
45691add-0c3b-4ece-8c75-f8753a9d51d9,2025-05-18 19:50:41.054755+00,SUSHI SEKI,,NEW YORK,NY,RESTAURANT,ON,208 WEST 23 ST,10011
4575be12-2785-47ea-b65f-1a90f3ff3f5c,2025-05-18 19:50:41.054755+00,MIMI CHINESE,,MIAMI BEACH,FL,RESTAURANT,ON,1575 ALTON RD,33139
459778fe-a85f-4064-b5fc-837442883fef,2025-05-18 19:50:41.054755+00,HSU S GOURMET,,Atlanta,GA,RESTAURANT,ON,192 Peachtree Center Ave NE #A039,30303
45a48eab-ecc4-4372-b384-e57a52c7e120,2025-05-18 19:50:41.054755+00,DENNIS CHINN SAMPLES,,HONOLULU,HI,OTHER OFF PREMISE,OFF,155 KAPAHULU PLACE #300,96813
45ac2ec5-f644-4885-b968-fd0e8b4ffce1,2025-05-18 19:50:41.054755+00,BIANCHINI S MARKET,,PORTOLA VALLEY,CA,SUPERMARKET,OFF,3130 ALPINE RD #415,94028
45d93be1-5b3d-43aa-a45d-088c32dcba71,2025-05-18 19:50:41.054755+00,WINE EMPORIUM I,,BOSTON,MA,LIQUOR/PACKAGE STORE,OFF,607 TREMONT ST,02118
45f5103d-564a-4f54-9ee7-87f489304b26,2025-05-18 19:50:41.054755+00,BASIL & MINT VIETNAMESE CAFE,,CAMARILLO,CA,RESTAURANT,ON,350 N LANTANA ST  STE 7,93010
4600bc7c-28a5-4adb-b238-e90a1bb08670,2025-05-18 19:50:41.054755+00,Westside Bottle Shop,,Athens,GA,LIQUOR/PACKAGE STORE,OFF,3685 Atlanta Hwy,30606
4607b95d-54c3-4e31-849b-5a1796d34228,2025-05-18 19:50:41.054755+00,AAIRA LIQUORS A,,SPRING,TX,LIQUOR/PACKAGE STORE,OFF,30668 ALDINE WESTFIELD RD STE C,77386
460f135c-2221-4fa5-b724-f0c5d803e524,2025-05-18 19:50:41.054755+00,BT Cartersville,,Cartersville,GA,LIQUOR/PACKAGE STORE,OFF,20 Apex Dr. SW,30121
46a48c2a-b36f-4ca7-98f2-b616cedd5d23,2025-05-18 19:50:41.054755+00,BOB S STEAK AND CHOP HOUSE,,SAN ANTONIO,TX,RESTAURANT,ON,5815 RIM PASS DR,78257
46ae1922-316c-476a-94c1-0caa447f4628,2025-05-18 19:50:41.054755+00,WINE & SPIRITS DISCOUNT WAREHO,,NEW ROCHELLE,NY,LIQUOR/PACKAGE STORE,OFF,8 JOYCE RD STORE 2,10801
46ea07e4-5ede-4a34-827a-4162d9b44e23,2025-05-18 19:50:41.054755+00,ADEGA WINE AND SPIRITS INC,,ASTORIA,NY,LIQUOR/PACKAGE STORE,OFF,31-25 DITMARS BLVD,11105
4741320c-72ae-40d5-8195-9a5785d0e00f,2025-05-18 19:50:41.054755+00,SAMPLE REP KRISTIN MAURITZ,,SYOSSET,NY,OTHER OFF PREMISE,OFF,W/HOUSE PICK-UP,11791
4780027d-645e-4b88-be3b-bdd19a6cfd0d,2025-05-18 19:50:41.054755+00,DAUGHTER THAI KITCHEN & BAR,,DENVER,CO,RESTAURANT,ON,1700 PLATTE STREET SUITE 140,80202
47bccd8d-1c89-4001-b4a0-569e701fe97c,2025-05-18 19:50:41.054755+00,GA World Of Beverage,,Fairburn,GA,LIQUOR/PACKAGE STORE,OFF,8455 Senoia Rd,30213
47cca880-4536-48bd-98ff-c8200ff47be4,2025-05-18 19:50:41.054755+00,JACKSON  RHONDA,,DENVER,CO,OTHER OFF PREMISE,OFF,5270 FOX STREET,80216
47ff34b5-dfe5-41b3-9162-2ade28139c6b,2025-05-18 19:50:41.054755+00,FACILITY CONCESSION SERVICE,,LAS VEGAS,NV,CONCESSIONAIRE,ON,3200 LAS VEGAS BLVD S #600,89109
4865f51d-32b6-420c-87d2-c73f2aeafdf7,2025-05-18 19:50:41.054755+00,FRENCH GRILL HOUSE,,WEST PALM BEACH,FL,RESTAURANT,ON,427 NORTHWOOD ROAD,33407
4888edb7-6623-40db-8acb-c61d49643908,2025-05-18 19:50:41.054755+00,GULF DISCOUNT LIQUORS,,CORAL GABLES,FL,LIQUOR/PACKAGE STORE,OFF,1535 MADRUGA ST,33146
489a8c10-90b4-4799-96f7-a36d827998fa,2025-05-18 19:50:41.054755+00,SGWS-HOUSE SMP  M05(CONSUMER),,MIAMI,FL,OTHER ON PREMISE,ON,1600 NW 163RD ST,33169
48c3e7f8-b11e-46ee-b354-1b86078ff0db,2025-05-18 19:50:41.054755+00,Nana Thai Eatery,,Marietta,GA,RESTAURANT,ON,2940 Johnson Ferry Rd Ste C,30062
49a96edd-d6e7-4387-97c7-dcb07f0b78db,2025-05-18 19:50:41.054755+00,TEAM #247 TRZEBIATOWSKI,,CERRITOS,CA,OTHER OFF PREMISE,OFF,17101 VALLEY VIEW AV,90703
49c5ceac-811d-4d9d-9e4f-37f3464386d7,2025-05-18 19:50:41.054755+00,Park 82,,Atlanta,GA,RESTAURANT,ON,4403 Northside Pkwy NW #150,30327
49d3509a-eb0c-449a-a09c-e1fe1429482f,2025-05-18 19:50:41.054755+00,BEVERLY LIQUOR,,LOS ANGELES,CA,LIQUOR/PACKAGE STORE,OFF,8253 W 3RD ST,90048
49de19a7-2b3b-43bb-bd90-c3c83db1a898,2025-05-18 19:50:41.054755+00,MURRAYS TAVERN B,,AUSTIN,TX,BAR/TAVERN,ON,2316 WEBBERVILLE RD,78702
4a7aeb70-7e05-48e7-8b09-a20e0f3b6dc5,2025-05-18 19:50:41.054755+00,SAMPLE JESSICA MERMAGEN,,SYRACUSE,NY,OTHER OFF PREMISE,OFF,3063 COURT STREET,13208
4aa7c5cd-476f-4a9a-b099-47e27bd19718,2025-05-18 19:50:41.054755+00,KILOHANA RESTAURANT,,KIHEI,HI,GOLF/ COUNTRY CLUB,ON,5415 MAKENA ALANUI ROAD,96753
4ac45a95-a35b-4302-92e1-72f382bb5ea9,2025-05-18 19:50:41.054755+00,TINY GROCER,,AUSTIN,TX,RESTAURANT,ON,4300 SPEEDWAY UNIT 101,78751
4ac7e8a7-9898-41bf-bc87-1c3ec7566ad5,2025-05-18 19:50:41.054755+00,SENNETT STILL AND BARREL,,AUBURN,NY,LIQUOR/PACKAGE STORE,OFF,354 GRANT AVE,13021
4ae798a7-2b74-4a39-98e0-f67cb3e7a542,2025-05-18 19:50:41.054755+00,MR D,,MIAMI,FL,LIQUOR/PACKAGE STORE,OFF,3020 NW 7TH AVE STE 2,33127
4ae88b12-6a27-4d80-a822-d16fb00ea184,2025-05-18 19:50:41.054755+00,MOG ASU WINE BAR,,TIBURON,CA,BAR/TAVERN,ON,1 BLACKFIELD DR STE 14,94920
4af43068-33cc-4d5f-861f-ef0fef0934e8,2025-05-18 19:50:41.054755+00,FLAMINGO,,SACRAMENTO,CA,BAR/TAVERN,ON,2315 K ST,95816
4b2cdbae-6d0d-4257-8ea0-e32baad23257,2025-05-18 19:50:41.054755+00,UNIVERSAL HELIOS GRAND HOTEL,,ORLANDO,FL,OTHER ON PREMISE,ON,8505 SOUTH KIRKMAN ROAD,32819
4b6b5f3a-a0bf-4f3b-9531-e38ca711a786,2025-05-18 19:50:41.054755+00,BELMONT PARK ENTERTAINMENT,,SAN DIEGO,CA,GOLF/ COUNTRY CLUB,ON,3125 OCEAN FRONT WALK,92109
4b6e9d27-457e-44ca-aee8-ac960a1a55b5,2025-05-18 19:50:41.054755+00,QUALITY MART,,BOSTON,MA,LIQUOR/PACKAGE STORE,OFF,21 MASS AVE,02115
4be0e346-036e-4c00-8f0f-0f575fa2fa4d,2025-05-18 19:50:41.054755+00,NUDIBRANCH,,NEW YORK,NY,RESTAURANT,ON,125 127 1ST AVE,10003
4be63918-b217-42de-96d7-af82bca1188a,2025-05-18 19:50:41.054755+00,BRICKELL WINE BANK,,MIAMI,FL,LIQUOR/PACKAGE STORE,OFF,950 BRICKELL BAY DRIVE #110,33131
4c0e08de-a699-4e52-92fb-03bcb246dd80,2025-05-18 19:50:41.054755+00,CLARK S OYSTER BAR,,ASPEN,CO,RESTAURANT,ON,517 E HYMAN AVENUE,81611
4c25bb86-47a4-4f78-b9a0-6ca50f76b874,2025-05-18 19:50:41.054755+00,KA THAI,,DALLAS,TX,RESTAURANT,ON,3220 MCKINNEY AVE SUITE 120,75204
4ca6ddb1-c854-4bcf-963d-4a461b908a48,2025-05-18 19:50:41.054755+00,TROPICAL SMOKEHOUSE,,WEST PALM BEACH,FL,RESTAURANT,ON,3815 S DIXIE HWY,33405
4d035fd5-2fb5-475f-9105-a270e1c5f539,2025-05-18 19:50:41.054755+00,MISTER FRENCH,,NEW YORK,NY,RESTAURANT,ON,24 E 21ST ST,10010
4dc487d6-f9ff-4faf-925b-6be32d1388f6,2025-05-18 19:50:41.054755+00,ARGONAUT WINE & LIQUOR STORE I,,DENVER,CO,LIQUOR/PACKAGE STORE,OFF,760 E COLFAX AVE,80203
4dd5fb65-bf75-4bd0-9a0e-3b1976bb0672,2025-05-18 19:50:41.054755+00,RHINO LIQUORS,,GLENWOOD SPRINGS,CO,LIQUOR/PACKAGE STORE,OFF,6820 CO-82,81601
4dec083f-74af-4bb4-a426-af1602faf1d9,2025-05-18 19:50:41.054755+00,FONTAINEBLEAU LAS VEGAS,,LAS VEGAS,NV,HOTEL/ MOTEL,ON,2777 LAS VEGAS BLVD S,89109
4df11be3-db72-4ba9-bc10-690521da0f44,2025-05-18 19:50:41.054755+00,Wagyu House,,Atlanta,GA,RESTAURANT,ON,1042 Northside Dr STE 1300,30318
4e32e10b-cb33-473b-a7da-01570e6923bd,2025-05-18 19:50:41.054755+00,The Candler Hotel,,Atlanta,GA,HOTEL/ MOTEL,ON,127 Peachtree St NW,30303
4e3327ec-e2b1-47cb-89fc-680417c27b8a,2025-05-18 19:50:41.054755+00,URBAN SMOKE,,HOUSTON,TX,BAR/TAVERN,ON,3913 RICHMOND AVE,77027
4ee0c7c6-530d-4c71-84b4-c7b6f072214d,2025-05-18 19:50:41.054755+00,Seven Seas Bottle Shop,,Powder Springs,GA,LIQUOR/PACKAGE STORE,OFF,4121 Austell Powder Springs Rd,30127
4f16f9bf-c403-480e-b695-28256c3c406c,2025-05-18 19:50:41.054755+00,QFC #807,,SEATTLE,WA,SUPERMARKET,OFF,2746 N.E. 45TH,98105
4f46d15c-d93c-46fe-a3a4-19abf82a6352,2025-05-18 19:50:41.054755+00,TEAM #063 ORVIS,,UNION CITY,CA,OTHER OFF PREMISE,OFF,33321 DOWE AVE,94587
4f5088e1-1ddc-4535-be77-e64d1a40549e,2025-05-18 19:50:41.054755+00,SHOKUDO,,MIAMI,FL,RESTAURANT,ON,4740 NE 2ND AVENUE,33137
4f5708e0-af91-4707-a854-f07a668dec29,2025-05-18 19:50:41.054755+00,ADI Shakti Trading 07 Inc,,Port Wentworth,GA,LIQUOR/PACKAGE STORE,OFF,Ste B 1116A GA Highway 30,31407
4febff55-270c-459d-a0cd-f64b1ec09adf,2025-05-18 19:50:41.054755+00,Big Man Package Store,,Decatur,GA,LIQUOR/PACKAGE STORE,OFF,2594 Candler Rd.,30034
50378886-7f5a-404e-b25e-b50473900d05,2025-05-18 19:50:41.054755+00,JG MELON,,NEW YORK,NY,RESTAURANT,ON,89 MACDOUGAL ST,10012
507d1d66-637a-480e-b7d3-97fd74665b63,2025-05-18 19:50:41.054755+00,Waldorf Astoria Atl Buckhead,,Atlanta,GA,HOTEL/ MOTEL,ON,3376 Peachtree Rd NE OFC,30326
50ec0b99-c032-4b8f-84b0-0463765e1ce6,2025-05-18 19:50:41.054755+00,ADAM SMITH,,Savannah,GA,NON-RETAIL,OFF,Bldg J 1101 Chatham Parkwy,31408
511d169a-f2d2-42ea-b2cd-139b75699b83,2025-05-18 19:50:41.054755+00,BURGUNDY & WHITE WINE &LIQUOR,,NEW YORK,NY,LIQUOR/PACKAGE STORE,OFF,1219 MADISON AVE,10128
512d4072-ebde-4ca6-b5e6-3c9f680bf6f9,2025-05-18 19:50:41.054755+00,Tannery Row Ale House*CLOSED*,,Buford,GA,RESTAURANT,ON,554 W Main ST C-100,30518
5179dd57-408e-472b-8d36-c51249dd636d,2025-05-18 19:50:41.054755+00,Katana Sushi Hibachi,,Marietta,GA,RESTAURANT,ON,4400 Roswell Rd Ste 152,30062
517b8da8-3aa0-40ab-8e69-58d2d74b3bf6,2025-05-18 19:50:41.054755+00,SGWS DONATIONS,,LAS VEGAS,NV,OTHER OFF PREMISE,OFF,8400 S JONES BLVD,89108
521409ba-1c1a-4ad2-8d0c-5ad4c7d3d043,2025-05-18 19:50:41.054755+00,MSTD Management LLC,,Atlanta,GA,LIQUOR/PACKAGE STORE,OFF,287 Elizabeth St NE,30307
5288c5d4-22dc-473a-a7be-86ac678d8e1c,2025-05-18 19:50:41.054755+00,HBY QOZB LLC  HBY ENTERTAINMEN,,KINGSTON,NY,HOTEL/ MOTEL,ON,200 NORTH ST,12401
528921d3-6e58-44e9-b03f-ab04d2fe2f30,2025-05-18 19:50:41.054755+00,SOF-XI KAUAI PV HOTEL LP,,PRINCEVILLE,HI,HOTEL/ MOTEL,ON,5520 KA HAKU RD,96722
52a10ef5-47c0-4580-89a7-70987e890328,2025-05-18 19:50:41.054755+00,Vivian Jago,,Austell,GA,NON-RETAIL,OFF,685 Hartman Road,30168
535d1a61-3492-413c-8a1a-278e41003ed9,2025-05-18 19:50:41.054755+00,SAGO,,ENCINITAS,CA,RESTAURANT,ON,485 S COAST HWY 101,92024
5381383d-59d3-456a-a154-a588ea488602,2025-05-18 19:50:41.054755+00,ESNAF,,SAN CARLOS,CA,RESTAURANT,ON,1105 SAN CARLOS AVE,94070
53860cbd-4727-4bca-970a-fdd6da471705,2025-05-18 19:50:41.054755+00,Wilshire Liquor Beer & Wine,,Peachtree City,GA,LIQUOR/PACKAGE STORE,OFF,1200 Highway 74 S Ste 8,30269
53d92e3d-a249-4046-8260-f4f8220d105a,2025-05-18 19:50:41.054755+00,Bootleggers Package Store,,Walthourville,GA,LIQUOR/PACKAGE STORE,OFF,5782 W Oglethorpe Hwy,31333
53e2fb1a-6edd-47a6-852c-28f732826609,2025-05-18 19:50:41.054755+00,Strongwater Liquor Warehouse,,Lilburn,GA,LIQUOR/PACKAGE STORE,OFF,5722 Lawrenceville Hwy,30047
53ebf673-c00b-49c0-9817-28a84be39ff6,2025-05-18 19:50:41.054755+00,MIKATA,,Dunwoody,GA,RESTAURANT,ON,H-41 237 PERIMETER CENTER PKWY NE S,30346
54666f28-84c0-434d-ad95-84eb45b5020f,2025-05-18 19:50:41.054755+00,HEB CENTRAL MARKET 545,,FORT WORTH,TX,SUPERMARKET,OFF,4651 W FWY SUITE 100,76107
54804434-f8f3-43c6-a818-98812393adfc,2025-05-18 19:50:41.054755+00,SEREIA,,MIAMI,FL,RESTAURANT,ON,3540 MAIN HWY,33133
54d3f526-9487-4002-b468-1293b057e83c,2025-05-18 19:50:41.054755+00,SIERRA MART AND LIQUOR,,SPARKS,NV,LIQUOR/PACKAGE STORE,OFF,5245 VISTA BOULEVARD SUITE F-2,89436
54e455b0-e727-415c-85af-cce7655e2c98,2025-05-18 19:50:41.054755+00,The Beverage Shoppe,,Milton,GA,LIQUOR/PACKAGE STORE,OFF,13800 Hwy 9N Ste S,30004
5562b1b1-4c05-4751-9396-e967b2e8a76c,2025-05-18 19:50:41.054755+00,Whiskey Business,,Statesboro,GA,LIQUOR/PACKAGE STORE,OFF,1410 Northside Dr E,30458
55a8fcae-5175-4432-94b7-3149caf52439,2025-05-18 19:50:41.054755+00,WICKED WOLF THE,,LONG BEACH,CA,BAR/TAVERN,ON,2332 PACIFIC AVE,90806
56938c95-6c65-4951-9fbb-47ad6dc6daa3,2025-05-18 19:50:41.054755+00,SHANG ARTISAN NOODLE,,LAS VEGAS,NV,RESTAURANT,ON,6915 S DURANGO DRIVE,89148
56cf011c-9066-4d67-8b67-bc3c300b5abc,2025-05-18 19:50:41.054755+00,HEALTHY JUNK PACKING HOUSE,,ANAHEIM,CA,RESTAURANT,ON,440 S ANAHEIM BLVD UNIT 209B,92805
56fe5568-b9eb-435a-856f-6fa8e51ca780,2025-05-18 19:50:41.054755+00,Valkyria Group LLC,,Doraville,GA,LIQUOR/PACKAGE STORE,OFF,6035 Peachtree Rd Ste 106,30360
5700f238-0d7a-44c6-b0a7-717b3762481a,2025-05-18 19:50:41.054755+00,EON Petroleum Corp,,Auburn,GA,CONVENIENCE/ GAS,OFF,1334 Atlanta Hwy,30011
57a15955-40bc-496d-86eb-8af85e0978cf,2025-05-18 19:50:41.054755+00,LAVO RESTAURANT,,WEST HOLLYWOOD,CA,RESTAURANT,ON,9201 W SUNSET BLVD,90069
57b854b7-f2c6-4be3-b079-bb041f20a875,2025-05-18 19:50:41.054755+00,ANTHONY S BEER & WINE,,MARLBORO,MA,LIQUOR/PACKAGE STORE,OFF,531 LINCOLN ST,01752
5818d6cc-974e-44d6-9073-4cf656f6bc3c,2025-05-18 19:50:41.054755+00,EPIC HOTEL,,MIAMI,FL,HOTEL/ MOTEL,ON,270 BISCAYNE BLVD WAY,33131
58335585-141b-422e-ab39-d4894b6bdf79,2025-05-18 19:50:41.054755+00,COIN OP GAME ROOM,,TEMECULA,CA,GOLF/ COUNTRY CLUB,ON,28588 OLD TOWN FRONT ST 100,92590
58a5e5a9-8b5a-47b4-bbf2-2094ae10750b,2025-05-18 19:50:41.054755+00,SAMPLE GRAND ANNUAL TASTING,,NEW YORK,NY,OTHER OFF PREMISE,OFF,99 EAST 52ND STREET,10022
58bb82b1-9439-473f-8ab8-0a9dc210e2fe,2025-05-18 19:50:41.054755+00,VERO BCH YACHT CLUB,,VERO BEACH,FL,GOLF/ COUNTRY CLUB,ON,3601 RIO VISTA BLVD,32963
58e7c294-39af-4342-9620-9b59cd1bb0f7,2025-05-18 19:50:41.054755+00,WYNDHAM GRAND ORLANDO RESORT,,ORLANDO,FL,HOTEL/ MOTEL,ON,14651 CHELONIA PARKWAY,32821
590b1279-7b9d-48ad-a955-cbdc40b06e1e,2025-05-18 19:50:41.054755+00,RIVER CLUB OF NEW YORK INC,,NEW YORK,NY,GOLF/ COUNTRY CLUB,ON,447 E.52ST.,10022
593f5d24-8ce6-43ba-9eb5-f5cf4e0ae6df,2025-05-18 19:50:41.054755+00,Market Place Beverage,,Newnan,GA,LIQUOR/PACKAGE STORE,OFF,50 Market Place Dr.,30265
59998e75-19e5-4319-a19c-490caa3e3222,2025-05-18 19:50:41.054755+00,Macy Moe,,Austell,GA,NON-RETAIL,OFF,685 Hartman Rd,30168
599e7573-a823-4db9-a263-ddcf6e46b2e8,2025-05-18 19:50:41.054755+00,Joes Bottle Shop **CLOSED**,,Austell,GA,LIQUOR/PACKAGE STORE,OFF,3034 Veterans Memorial Hwy SW,30168
59e1a774-2be8-49a3-8c78-82c3590b33c5,2025-05-18 19:50:41.054755+00,KAPPY S FINE WINE & SPIRITS,,MALDEN,MA,LIQUOR/PACKAGE STORE,OFF,746 MAIN ST,02148
59f1f787-17e3-49a6-87f4-f9a6ad8122d1,2025-05-18 19:50:41.054755+00,SPEC S 071 WINE MAIN,,HOUSTON,TX,LIQUOR/PACKAGE STORE,OFF,3902 BISSONNET,77005
5a02b1e1-1b9e-4306-bb23-ab7225ac0ddc,2025-05-18 19:50:41.054755+00,High Spirits Package,,Hiram,GA,LIQUOR/PACKAGE STORE,OFF,5425 Wendy Bagwell Parkway,30141
5a167d57-8a9f-4b08-b163-58d8d17052c6,2025-05-18 19:50:41.054755+00,LUKES LIQUORS,,CANTON,MA,LIQUOR/PACKAGE STORE,OFF,3 WASHINGTON ST,02021
5a183eef-756b-4d6a-b565-a6f832031667,2025-05-18 19:50:41.054755+00,STONY BROOK WINE & LIQUOR INC,,STONY BROOK,NY,LIQUOR/PACKAGE STORE,OFF,2192 NESCONSET HGWY,11790
5a1e63af-317c-4aa0-9599-18bb57efa713,2025-05-18 19:50:41.054755+00,VILLAGE MARKET THRIFTWAY,,SHORELINE,WA,SUPERMARKET,OFF,20126 BALLINGER WAY,98155
5a490e1c-931d-4852-850e-14b3e334d6b6,2025-05-18 19:50:41.054755+00,Hal s Package Store,,Decatur,GA,LIQUOR/PACKAGE STORE,OFF,1223 Columbia Dr,30032
5a4a1be7-4c3b-4b25-b022-0eae3214eb4b,2025-05-18 19:50:41.054755+00,Nicholas Caruso,,Austell,GA,NON-RETAIL,OFF,685 Hartman Rd,30168
5acebd74-cfa2-487a-aa49-28bf71bdafa6,2025-05-18 19:50:41.054755+00,Hilltop Liquor Warehouse,,Ellabell,GA,LIQUOR/PACKAGE STORE,OFF,10820 Us Hwy 280,31308
5b5a4f7a-ec36-405a-be5f-035871c6aad9,2025-05-18 19:50:41.054755+00,TAO ASIAN BISTRO@VENETIAN,,LAS VEGAS,NV,RESTAURANT,ON,3355 LAS VEGAS BLVD SO,89109
5b7c906a-2eb8-4262-8c9a-0b2ee1e49b35,2025-05-18 19:50:41.054755+00,SEBASTIAN-VAIL,,VAIL,CO,HOTEL/ MOTEL,ON,16 VAIL ROAD,81657
5ba70123-f615-4482-8885-507e6a34da83,2025-05-18 19:50:41.054755+00,JAGALCHI (ON),,DALY CITY,CA,RESTAURANT,ON,63 SERRAMONTE CENTER,94015
5c268c03-35ea-4c9b-8641-0cf271c6f7e9,2025-05-18 19:50:41.054755+00,KENICHI,,ASPEN,CO,RESTAURANT,ON,533 E HOPKINS,81611
5c8e087a-b850-4328-9dea-260b9a32b7b1,2025-05-18 19:50:41.054755+00,CONROY  PATRICK,,DENVER,CO,OTHER OFF PREMISE,OFF,SW&S,80216
5c9d77cc-c9ae-4341-bb2d-b742d6210ce2,2025-05-18 19:50:41.054755+00,Eddi s Package Store,,Decatur,GA,LIQUOR/PACKAGE STORE,OFF,3815 Flat Shoals Pkwy Ste A,30034
5ca406a1-20e0-4d4a-971b-6cc8c479d517,2025-05-18 19:50:41.054755+00,Park 82  **CLOSED**,,Atlanta,GA,RESTAURANT,ON,4403 Northside Pkwy NW Ste 150,30327
5ccaf594-a82d-4afc-bb96-1b3e4c780329,2025-05-18 19:50:41.054755+00,JOSEPHS CLASSIC MARKET,,BOCA RATON,FL,SUPERMARKET,OFF,6000 GLADES RD,33431
5d2eed3e-fc20-4414-af89-a343d94363cb,2025-05-18 19:50:41.054755+00,8 EIGHTY EIGHT,,FULLERTON,CA,BAR/TAVERN,ON,118 W WILSHIRE AV,92832
5d4e9448-0c86-43e8-93d6-f0b398334025,2025-05-18 19:50:41.054755+00,Js Beverage Depot,,Roswell,GA,LIQUOR/PACKAGE STORE,OFF,1570 Holcomb Bridge Rd Ste 610,30076
5d92066e-3daf-4732-bc22-6ebee0278ea1,2025-05-18 19:50:41.054755+00,SAMPLE REP PATRICIA HOPE,,SYOSSET,NY,OTHER OFF PREMISE,OFF,W-HOUSE PICK UP,11773
5e021cf3-864d-49cf-9910-280782822503,2025-05-18 19:50:41.054755+00,Gwinnett Package Store,,Duluth,GA,LIQUOR/PACKAGE STORE,OFF,3035 Pleasant Hill Rd,30096
5eb5e1de-ba1a-424c-9c2f-e1bef1de5675,2025-05-18 19:50:41.054755+00,Turtle Creek Wine & Spirits,,Behtlehem,GA,LIQUOR/PACKAGE STORE,OFF,83 Exchange Lane Ste A,30620
5ecf20ca-62cb-4f08-aa23-771ed2f6405c,2025-05-18 19:50:41.054755+00,Total,,Total,Total,Total,Total,Total,Total
5f0a4433-595d-458e-8e2b-3730fef6d6b9,2025-05-18 19:50:41.054755+00,BLOCK PETALUMA,,PETALUMA,CA,BAR/TAVERN,ON,20 GREY ST,94952
5f3a3e8e-0152-4481-9765-a4fa6ee50650,2025-05-18 19:50:41.054755+00,ABC Warehouse,,Savannah,GA,LIQUOR/PACKAGE STORE,OFF,1100 Eisenhower DR,31406
5f89ab32-6de4-419a-98cd-19d42351fc96,2025-05-18 19:50:41.054755+00,The Winery 2,,Chamblee,GA,LIQUOR/PACKAGE STORE,OFF,2101 Savoy Dr.,30341
5f8ca81a-7d6c-4447-97df-13b117cc8635,2025-05-18 19:50:41.054755+00,FINE SPIRITS,,COOPER CITY,FL,LIQUOR/PACKAGE STORE,OFF,5660 S FLAMINGO RD,33330
5f95efcb-5eba-4047-812d-9a2815d00cee,2025-05-18 19:50:41.054755+00,Roswell Mini Mart,,Roswell,GA,CONVENIENCE/ GAS,OFF,146 Norcross St,30075
5fa5813f-82ca-4c14-8c30-2dba1eaa30bc,2025-05-18 19:50:41.054755+00,Rox Wine & Spirits (Cumming),,Cumming,GA,LIQUOR/PACKAGE STORE,OFF,910 Peachtree Pkwy,30041
608dd7c2-e153-4f25-951f-9fcf8bf46faf,2025-05-18 19:50:41.054755+00,Three Dollar Cafe,,Marietta,GA,RESTAURANT,ON,3000 Windy Hill Rd SE STE 132,30067
60c40d73-e295-443e-8ccc-01cfe03f797b,2025-05-18 19:50:41.054755+00,B100M,,MIAMI,FL,RESTAURANT,ON,100 BICAYNE BLVD 104,33132
610548f7-c703-434a-993e-c89b7779d6ca,2025-05-18 19:50:41.054755+00,SAMPLE REP PAUL ENGCHUAN,,SYOSSET,NY,OTHER OFF PREMISE,OFF,W/HOUSE PICK-UP,11791
6115ea5b-482d-44b0-ae71-7107079ab682,2025-05-18 19:50:41.054755+00,SGWS-HOUSE SAMPLE P02(SUPP) ON,,FREEPORT,FL,OTHER OFF PREMISE,OFF,40 SOUTH NICK WILSON WAY,32439
6139a3ec-c0ef-41db-92be-514e3fb67936,2025-05-18 19:50:41.054755+00,DJONS VILLAGE MRKT&ROOFTOP(ON),,INDIALANTIC,FL,BAR/TAVERN,ON,249 5TH AVENUE,32903
6185b65e-77c7-43d4-b17e-26446b02ba61,2025-05-18 19:50:41.054755+00,CIRCUS LIQUOR,,SANTA CLARITA,CA,LIQUOR/PACKAGE STORE,OFF,16416 DELONE ST,91387
618b6411-177b-499d-bfcc-bc9ade605f40,2025-05-18 19:50:41.054755+00,LE BILBOQUET,,DENVER,CO,RESTAURANT,ON,299 SAINT PAUL STREET,80206
61a8302e-984e-4ed1-bcf4-7f326afb4cb6,2025-05-18 19:50:41.054755+00,Bankhead Beverage,,Carrollton,GA,LIQUOR/PACKAGE STORE,OFF,1595 Bankhead Hwy,30116
621b3ac0-c336-4897-9a31-796e75eb283b,2025-05-18 19:50:41.054755+00,RELENTLESS BREWING AND SPIRITS,,LOS ANGELES,CA,BAR/TAVERN,ON,2133 COLORADO BLVD,90041
621c7a17-e40c-4050-8f44-a05e31c4b300,2025-05-18 19:50:41.054755+00,RESERVE WINE & SPIRIT,,LEAGUE CITY,TX,LIQUOR/PACKAGE STORE,OFF,1915 W LEAGUE CITY PKWY STE 180,77573
622b1832-f491-433c-b68a-efd76d07d7fe,2025-05-18 19:50:41.054755+00,Loews Atlanta Hotel,,Atlanta,GA,HOTEL/ MOTEL,ON,1065 Peachtree St NE,30309
623f5b3f-f6ef-41d7-a45c-96afe9189682,2025-05-18 19:50:41.054755+00,Bims Package Store,,Atlanta,GA,LIQUOR/PACKAGE STORE,OFF,1015 W. Marietta St. NW,30318
62479e33-b755-4ee7-9f6a-6d03a9790f74,2025-05-18 19:50:41.054755+00,LEE MELISSA,,DENVER,CO,OTHER OFF PREMISE,OFF,5270 FOX ST,80216
631823ac-9ff7-4d87-91a8-efe7900eeb8e,2025-05-18 19:50:41.054755+00,HURRICA RESTAURANT & BAR,,REDWOOD CITY,CA,BAR/TAVERN,ON,150 NORTHPOINT CT,94063
636136a5-6c5c-40f6-8bd9-54e1d2adafa8,2025-05-18 19:50:41.054755+00,The Monte Cristo (Montecello),,Marietta,GA,RESTAURANT,ON,2000 Powers Ferry Rd  #1-3,30067
638932a9-01f3-433e-a31e-3b524317df8c,2025-05-18 19:50:41.054755+00,SPEC S 061 WINE MAIN,,AUSTIN,TX,LIQUOR/PACKAGE STORE,OFF,4970 US 290 WEST BLDG 6,78735
63c08d06-affb-4e69-acb1-823202657d3b,2025-05-18 19:50:41.054755+00,ZZ S SUSHI BAR,,MIAMI,FL,GOLF/ COUNTRY CLUB,ON,151 NE 41 STREET,33137
63ddb934-f968-497a-9b25-66e369cb3730,2025-05-18 19:50:41.054755+00,BOURBON STEAKHOUSE,,GLENDALE,CA,RESTAURANT,ON,237 S BRAND BLVD,91204
640b7c0f-16c2-48ec-8fb5-e8aa7564f3bf,2025-05-18 19:50:41.054755+00,MILA MIAMI,,MIAMI BEACH,FL,RESTAURANT,ON,800 LINCOLN ROAD,33139
642aab5b-b303-4d86-8ffb-507228ccda06,2025-05-18 19:50:41.054755+00,Everest Spirits & Wine Warehouse,,Marietta,GA,LIQUOR/PACKAGE STORE,OFF,135 Ernest W Barrett Pkwy,30066
6450b88f-9abb-4d8c-ad11-8ab8a38a2d1e,2025-05-18 19:50:41.054755+00,MARUICHI JAPANESE FOOD AND DEL,,BROOKLINE,MA,LIQUOR/PACKAGE STORE,OFF,306 HARVARD ST,02446
65147b5d-a54b-4d72-94b6-1cdef4ed0ab1,2025-05-18 19:50:41.054755+00,LANTANA LIQUORS,,LANTANA,FL,LIQUOR/PACKAGE STORE,OFF,300 W MANGO STREET,33462
658f55ca-8c76-43ec-9be9-ae4ea5a8104f,2025-05-18 19:50:41.054755+00,SMOKE & SLURP B,,HOUSTON,TX,CONVENIENCE/ GAS,OFF,12570 BRIAR FOREST DR STE C,77077
65c8035f-2e29-47f7-a482-6393f7425d87,2025-05-18 19:50:41.054755+00,BELLAGIO-MGM MIRAGE SSC AP#132,,LAS VEGAS,NV,GOLF/ COUNTRY CLUB,ON,3600 LAS VEGAS BLVD S,89177
65cae79f-9113-41a8-abad-43316d047c87,2025-05-18 19:50:41.054755+00,SGWS- TEAM SAMPLES,,WASHINGTON,DC,OTHER OFF PREMISE,OFF,3125 V STREET NE,20018
65e3e9ea-c034-4e4c-87bc-49038fd58455,2025-05-18 19:50:41.054755+00,Kobe Japanese Steakhouse,,Peachtree City,GA,RESTAURANT,ON,2876 Highway 54,30269
662c12bc-2fb2-451e-b9d9-a51777d0761d,2025-05-18 19:50:41.054755+00,BOURBON STEAK,,LAS VEGAS,NV,RESTAURANT,ON,3960 S LAS VEGAS BLVD,89119
6646ecd0-21ce-4bb1-bc05-455f55d39940,2025-05-18 19:50:41.054755+00,SAMPLE ADAM MERSINCAVAGE,,ALBANY,NY,OTHER OFF PREMISE,OFF,99 RAILROAD AVE,12205
66569cea-3281-4515-87d1-b73c2009ffc7,2025-05-18 19:50:41.054755+00,LAST RITES,,SAN FRANCISCO,CA,BAR/TAVERN,ON,718 14TH ST,94114
66974a0c-ecdb-49c5-9cd6-8fa7c9630009,2025-05-18 19:50:41.054755+00,TEAM #055 LAURO,,UNION CITY,CA,OTHER OFF PREMISE,OFF,33321 DOWE AVE,94587
67041a88-7680-40ab-b4d3-543e32b6c648,2025-05-18 19:50:41.054755+00,AAA DISCOUNT LIQUORS OUTLET,,ELLENTON,FL,LIQUOR/PACKAGE STORE,OFF,2175 60TH AVE EAST,34222
67263bfa-2a96-4b27-ad39-7a7409dbf3b4,2025-05-18 19:50:41.054755+00,SMITH & MILLS,,NEW YORK,NY,RESTAURANT,ON,10 W 50TH ST,10020
672c33cd-2234-4279-8dd1-b285eddd7a6b,2025-05-18 19:50:41.054755+00,TEAM #065 KILIAN,,CERRITOS,CA,OTHER OFF PREMISE,OFF,17101 VALLEY VIEW AV,90703
67590a04-5e6c-42cb-a95b-d1ff3c72d2a4,2025-05-18 19:50:41.054755+00,NEW EHRLICH WINE & LIQUOR,,NEW YORK,NY,LIQUOR/PACKAGE STORE,OFF,222 AMSTERDAM AVE,10023
67752557-c715-4cb2-a5d9-ba0497f27fba,2025-05-18 19:50:41.054755+00,Lee McDaniel,,Austell,GA,NON-RETAIL,OFF,685 Hartman Road,30168
677ec436-ef5f-48ec-87ec-c27b6b8775a8,2025-05-18 19:50:41.054755+00,The Club At Atl,,Atlanta,GA,RESTAURANT,ON,1 H-J Atlanta Airport  Conc F,30354
67a5b9e9-dc63-41ab-98b3-3d56f709dd6a,2025-05-18 19:50:41.054755+00,VOLUME RATE LIQUORS,,DENVER,CO,LIQUOR/PACKAGE STORE,OFF,7805 EAST 35TH AVENUE,80238
68183ac3-49ec-4c15-a82f-dcc4a23ee4f3,2025-05-18 19:50:41.054755+00,NYC RESTAURANT SERVICES LLC,,NEW YORK,NY,RESTAURANT,ON,1 VANDERBILT AVE  LEVEL B1,10017
681b1b7d-ab02-4f8b-8c12-c17c897273c5,2025-05-18 19:50:41.054755+00,365 Superstore,,Alto,GA,LIQUOR/PACKAGE STORE,OFF,3840 State Hwy 365,30510
6824f354-9039-4837-85e8-eadc07be7a3a,2025-05-18 19:50:41.054755+00,HAPPY LIQUORS,,FLUSHING,NY,LIQUOR/PACKAGE STORE,OFF,40-40 COLLEGE POINT BLVD,11354
68630361-18db-4e47-8b83-d15e73dd8a79,2025-05-18 19:50:41.054755+00,SUMMERLAND WINES & SPIRITS,,SUMMERLAND KEY,FL,LIQUOR/PACKAGE STORE,OFF,24816 OVERSEAS HWY,33042
68a2ec15-41d9-47c9-af2c-1e8d8ffea726,2025-05-18 19:50:41.054755+00,GURNEYS MONTAUK RESORT AND,,MONTAUK,NY,HOTEL/ MOTEL,ON,290 OLD MONTAUK HGHY,11954
68a437aa-ab11-4701-8000-6ebabb5ddc08,2025-05-18 19:50:41.054755+00,ZUMA JAPANESE RESTAURANT,,MIAMI,FL,RESTAURANT,ON,270 BISCAYNE BLVD WAY,33131
68af79d6-9891-4d83-aee5-cb7958786a66,2025-05-18 19:50:41.054755+00,SAMPLE REP ALLISON CULLEY,,SYOSSET,NY,OTHER OFF PREMISE,OFF,W/HOUSE PICK-UP,11791
68d5a086-c446-454b-b171-5a83e91add69,2025-05-18 19:50:41.054755+00,Springs Bottle Shop,,Sandy Springs,GA,LIQUOR/PACKAGE STORE,OFF,8885 Roswell Rd,30350
69204b0b-793d-4196-a0a6-ce7546a27ae8,2025-05-18 19:50:41.054755+00,Frank s At The Old Mill,,Fayetteville,GA,RESTAURANT,ON,1095 Hwy 54 West,30214
694e827d-9708-4956-b6a4-873b4cad8281,2025-05-18 19:50:41.054755+00,The Mad Mexican,,Newnan,GA,RESTAURANT,ON,2 E Court Square,30263
69880152-69c6-4626-8d97-614af8bbd0f2,2025-05-18 19:50:41.054755+00,NAMINOHANA,,DALLAS,TX,RESTAURANT,ON,5521 GREENVILLE AVE ST 111,75206
69ccf494-2460-475f-94c0-390e24a30db8,2025-05-18 19:50:41.054755+00,SUEHIRO JAPANESE RESTAURANT,,GRAND JUNCTION,CO,RESTAURANT,ON,541 MAIN STREET,81501
69da282b-2ec2-40d4-bc2c-233e3bfecb9e,2025-05-18 19:50:41.054755+00,BAD KITTY LOUNGE,,VAIL,CO,RESTAURANT,ON,227 BRIDGE STREET C,81657
6a0d9cac-6a0e-47ef-9403-ae46ab656f2b,2025-05-18 19:50:41.054755+00,Liquor Land,,Pooler,GA,LIQUOR/PACKAGE STORE,OFF,1009 Towne Center Blvd #10,31322
6a142f04-a45c-4c51-a01e-dcd275e8a4ba,2025-05-18 19:50:41.054755+00,ASPEN GROG SHOP,,ASPEN,CO,LIQUOR/PACKAGE STORE,OFF,710 E DURANT ST,81611
6a236395-e924-4827-90a9-274cb7bdf1e1,2025-05-18 19:50:41.054755+00,WALLY S WAREHOUSE - OFF SALE,,CULVER CITY,CA,LIQUOR/PACKAGE STORE,OFF,10459 JEFFERSON BLVD,90232
6a73ad61-71e9-47ab-9697-f16c43a5dec8,2025-05-18 19:50:41.054755+00,RAITT  CARLA,,DENVER,CO,OTHER OFF PREMISE,OFF,SW&S,80217
6a957649-523c-481b-95ec-c4a0118ba9ce,2025-05-18 19:50:41.054755+00,Wine & Spirits,,Columbus,GA,LIQUOR/PACKAGE STORE,OFF,1694 Whittlesey Rd Ste A,31904
6aa1d75c-d53e-4062-92a1-73ce59f4bebd,2025-05-18 19:50:41.054755+00,VINTAGE LIQ & WINE BAR II,,MIAMI,FL,LIQUOR/PACKAGE STORE,OFF,3301 NE 1ST AVE,33137
6ad3b461-5c16-415e-b235-bbbb80ed4627,2025-05-18 19:50:41.054755+00,CHIP S LIQUOR,,SAN DIEGO,CA,LIQUOR/PACKAGE STORE,OFF,1924-26 GARNET AVE,92109
6ae50de5-f1cf-4d0f-ab15-6459d2f174e0,2025-05-18 19:50:41.054755+00,Hill Top Beverage,,East Ellijay,GA,LIQUOR/PACKAGE STORE,OFF,12 Hefner St Ste 103,30540
6b231acb-fbad-4579-a67c-5940a038632f,2025-05-18 19:50:41.054755+00,LOLA 41 NAPLES,,NAPLES,FL,RESTAURANT,ON,560 9TH STREET,34102
6b44acff-3d19-4232-8d8f-e1755f41b59c,2025-05-18 19:50:41.054755+00,Christen Entrekin,,Austell,GA,NON-RETAIL,OFF,685 Hartman Road,30168
6b86219b-3a99-4ccc-a7e6-821138a3bf88,2025-05-18 19:50:41.054755+00,CRYSTAL LIQUORS,,LAS VEGAS,NV,LIQUOR/PACKAGE STORE,OFF,3655 S DURANGO DR UNIT 21-22,89147
6b94d10f-616d-4c0f-920b-fd42df562279,2025-05-18 19:50:41.054755+00,SHOYU RESTAURANT AND BAR,,ANDOVER,MA,BAR/TAVERN,ON,38-40 PARK ST,01810
6b956ef7-3c23-4c66-bade-b2c408934db2,2025-05-18 19:50:41.054755+00,DEBONAIR SUPPER CLUB,,ORLANDO,FL,RESTAURANT,ON,183 S ORANGE AVE,32801
6ba85c33-4241-4f6c-9a06-9a8f261cae10,2025-05-18 19:50:41.054755+00,FRISCO LIQUORS,,FRISCO,CO,LIQUOR/PACKAGE STORE,OFF,416 EAST MAIN STREET UNIT 5,80443
6bb8d37f-4aa9-41c2-8e43-48e8718ba53e,2025-05-18 19:50:41.054755+00,Midtown Pantry LLC,,Atlanta,GA,LIQUOR/PACKAGE STORE,OFF,536 Decatur St SE,30312
6bc48e6a-bc3e-4075-898c-56910d7a91c6,2025-05-18 19:50:41.054755+00,Blue Mile WIne & Spirits LLC,,Statesboro,GA,LIQUOR/PACKAGE STORE,OFF,12 Brannen St,30458
6bd6b6a0-5ca8-484e-aa63-af934852d5a6,2025-05-18 19:50:41.054755+00,EXEC WITHDRAWAL LARRY RUVO,,LAS VEGAS,NV,OTHER OFF PREMISE,OFF,123,89103
6c3ea05a-da8f-41ab-8065-6c04127c737a,2025-05-18 19:50:41.054755+00,MOMOSAN,,BOSTON,MA,BAR/TAVERN,ON,80 CAUSEWAY ST,02114
6c43a9d8-647f-4ffb-a6d0-16b25f15ee9b,2025-05-18 19:50:41.054755+00,DOUBLE SHOT HOSPITALITY,,LAS VEGAS,NV,OTHER OFF PREMISE,OFF,3950 PATRICK LANE STE 203,89120
6c7c7424-5e32-4dd4-b701-d6b2fd3c3dc7,2025-05-18 19:50:41.054755+00,FENG RESTAURANT,,HUDSON,MA,BAR/TAVERN,ON,191 WASHINGTON ST,01749
6ce76d4b-1522-46e0-a438-8e31c32d75c4,2025-05-18 19:50:41.054755+00,SAMPLE REP ANDREA COLUCCI,,SYOSSET,NY,OTHER OFF PREMISE,OFF,W/HOUSE PICK-UP,11791
6cfb9e0c-e7a0-4cb2-a10c-ffd8a1950d28,2025-05-18 19:50:41.054755+00,TPC OF BOSTON,,NORTON,MA,GOLF/ COUNTRY CLUB,ON,405 ARNOLD PALMER BLVD,02766
6cfcebf1-e939-422a-88ac-505cae8a06a7,2025-05-18 19:50:41.054755+00,VAL S LIQUORS,,NAPA,CA,LIQUOR/PACKAGE STORE,OFF,1531 3RD ST,94559
6d3cd9ad-7309-42a9-9546-20e03fc7de5f,2025-05-18 19:50:41.054755+00,EBESU ROBATA & SUSHI,,PLANO,TX,RESTAURANT,ON,1007 E 15TH STREET,75074
6db7522b-b0c1-4fb9-a538-ff6aa253ccab,2025-05-18 19:50:41.054755+00,TAO LA,,LOS ANGELES,CA,RESTAURANT,ON,6421 SELMA AVE,90028
6dd6d8a4-4b6b-48a0-a8fb-be297fa408dd,2025-05-18 19:50:41.054755+00,ALPINE WINE & SPIRITS,,VAIL,CO,LIQUOR/PACKAGE STORE,OFF,2109 N FRONTAGE RD #H,81657
6df66a75-7f48-494a-8d80-02288a53ceb7,2025-05-18 19:50:41.054755+00,ACE LIQUOR,,LAS VEGAS,NV,LIQUOR/PACKAGE STORE,OFF,6025 S DURANGO DRIVE,89113
6e005a22-89f3-452d-93c1-ce15015cf8ef,2025-05-18 19:50:41.054755+00,RED GRILL MEXICAN RESTAURANT,,NEW YORK,NY,RESTAURANT,ON,1701 2ND AVE,10128
6e1e175c-a860-4b1b-944e-cb821ad5f3ea,2025-05-18 19:50:41.054755+00,Brownsville Package  **CLOSED**,,Powder Springs,GA,LIQUOR/PACKAGE STORE,OFF,4400 Brownsville Rd  Ste 106,30127
6e346801-d527-4ac5-9379-9bc3dcd3dec6,2025-05-18 19:50:41.054755+00,SAG HARBOR LIQUOR STORE,,SAG HARBOR,NY,LIQUOR/PACKAGE STORE,OFF,52 MAIN ST,11963
6e4448da-68e1-4408-bb90-224d5274db50,2025-05-18 19:50:41.054755+00,UCHI WEST HOLLYWOOD,,WEST HOLLYWOOD,CA,RESTAURANT,ON,9001 SANTA MONICA BLVD STE 101,90069
6e8779ae-51c9-4a78-b955-736d235d94dc,2025-05-18 19:50:41.054755+00,HILLTOP RED APPLE MARKET,,SEATTLE,WA,SUPERMARKET,OFF,2701 BEACON AVE S,98144
6e8ad5fc-80e0-459e-b5bb-bbc7ad6f50e6,2025-05-18 19:50:41.054755+00,Bullock s Wine & Spirits,,Marietta,GA,LIQUOR/PACKAGE STORE,OFF,3612 Sandy Plains Rd,30066
6e9f272e-e214-4873-8c68-843baff500d6,2025-05-18 19:50:41.054755+00,MAASS,,FORT LAUDERDALE,FL,RESTAURANT,ON,525 N FORT LAUDERDALE BCH BLVD,33304
6ee863ad-0133-474b-b82a-f71396b5d745,2025-05-18 19:50:41.054755+00,HUDSON WINE & SPIRITS INC,,NEW YORK,NY,LIQUOR/PACKAGE STORE,OFF,165 HUDSON ST,10013
6eed58dc-b924-4b96-bd40-f43ede7b8c6c,2025-05-18 19:50:41.054755+00,LEE S LIQUOR #115 FLAMBOW,,LAS VEGAS,NV,LIQUOR/PACKAGE STORE,OFF,4230 S RAINBOW BLVD,89103
6eed7005-2f74-4334-b849-457d5a0d983d,2025-05-18 19:50:41.054755+00,Newnan Bottle Shop,,Newnan,GA,LIQUOR/PACKAGE STORE,OFF,937 Lower Fayetteville Rd,30263
6f1fb97c-4638-47eb-a2bf-ca591671754f,2025-05-18 19:50:41.054755+00,VINTAGE LIQUORS III,,MIAMI,FL,LIQUOR/PACKAGE STORE,OFF,300 SW 18 TERRACE #100,33129
6f28eb17-4633-4131-9672-002925627d58,2025-05-18 19:50:41.054755+00,KANS THAI KITCHEN,,FORT LAUDERDALE,FL,RESTAURANT,ON,4838 N FEDERAL HIGHWAY,33308
6f3478b1-bd87-4b73-84a4-c8f3bc92dbe3,2025-05-18 19:50:41.054755+00,SAKE ONO,,MIAMI,FL,LIQUOR/PACKAGE STORE,OFF,1000 BRICKELL AVENUE,33131
6f8a6e3b-cdd1-45ad-b20c-e78cca022037,2025-05-18 19:50:41.054755+00,DAVID CONNOLLY,,Austell,GA,NON-RETAIL,OFF,685 Hartman Road,30168
6fef0af0-5867-4c31-8a48-5d4d670cdd88,2025-05-18 19:50:41.054755+00,GOLDFINCH,,SEBASTOPOL,CA,RESTAURANT,ON,119 S MAIN ST,95472
700cd62c-8ccd-443c-aa7c-8227a2e8727f,2025-05-18 19:50:41.054755+00,Tara Package,,Jonesboro,GA,LIQUOR/PACKAGE STORE,OFF,8525 Tara Blvd,30236
70791f8a-d411-4cce-80d8-358e4b05ff41,2025-05-18 19:50:41.054755+00,PEARL,,DALLAS,TX,RESTAURANT,ON,4640 MCKINNEY AVE STE 130,75205
707f99cd-e05f-4520-89ae-2ae678b565c9,2025-05-18 19:50:41.054755+00,129 Package Store,,Gainesville,GA,LIQUOR/PACKAGE STORE,OFF,2126 Athens Hwy,30507
709417f6-3de2-4798-a7a2-c7123eb6fd5d,2025-05-18 19:50:41.054755+00,ZERO BOND,,NEW YORK,NY,GOLF/ COUNTRY CLUB,ON,0 BOND ST A/K/A 670 BROADWAY,10012
70cec419-0f1a-44ff-896c-4dc7ba7a390e,2025-05-18 19:50:41.054755+00,O-Ku,,Atlanta,GA,RESTAURANT,ON,1085 Howell Mill Rd NW  A-3,30318
71ecc1f2-cdb9-4bae-8be5-4b1d67950b55,2025-05-18 19:50:41.054755+00,CHEESECAKE FACTORY-RM,,RANCHO MIRAGE,CA,RESTAURANT,ON,71800 HWY 111 #D-101,92270
72b071b5-0ed3-497c-b001-46d260621984,2025-05-18 19:50:41.054755+00,ORCHARD STREET RESTAURANT MANA,,NEW YORK,NY,HOTEL/ MOTEL,ON,9 ORCHARD ST,10002
733c4fb3-6ba5-44df-88fd-ccc3bc68e5b2,2025-05-18 19:50:41.054755+00,SGWS-HOUSE SAMPLE J01(MISC) ON,,JACKSONVILLE,FL,OTHER OFF PREMISE,OFF,6867 STUART LN S,32254
73520236-6b12-41ca-897c-ee5464019063,2025-05-18 19:50:41.054755+00,CARPE DIEM,,NAPA,CA,RESTAURANT,ON,1001 2ND ST STE 185 & 165,94558
738db32d-cb3c-4977-b3bd-d5c585bf0d9c,2025-05-18 19:50:41.054755+00,Daniel Thomas,,Austell,GA,NON-RETAIL,OFF,685 Hartman Rd,30168
738e7ab3-19d8-49fc-9574-adac04475a43,2025-05-18 19:50:41.054755+00,ERNESTO S,,NEW YORK,NY,RESTAURANT,ON,259 E BROADWAY,10002
73cdc9ed-4072-4ca0-8937-f6a5dfdb5aeb,2025-05-18 19:50:41.054755+00,STAR LIQUORS,,WELLINGTON,FL,LIQUOR/PACKAGE STORE,OFF,11924 FOREST HILL BLVD #16,33414
7407d9ce-158b-41e2-ab3f-c7f602b73043,2025-05-18 19:50:41.054755+00,ALEXANDRIA THE,,SAN CARLOS,CA,GOLF/ COUNTRY CLUB,ON,835 INDUSTRIL RD STE 161,94070
74413a5c-1a6a-4481-993a-91600348f0f4,2025-05-18 19:50:41.054755+00,LAMARINA,,WEST PALM BEACH,FL,RESTAURANT,ON,4050 NORTH FLAGLER DRIVE,33407
749492e8-227a-43e3-abad-e53908ae7247,2025-05-18 19:50:41.054755+00,MONTAUK BEACH HSE,,MONTAUK,NY,HOTEL/ MOTEL,ON,55 S ELMWOOD AVE,11954
74a4099e-5c3f-4c04-9ef8-b92c91d8e772,2025-05-18 19:50:41.054755+00,B & B Package Shop,,Ellabell,GA,LIQUOR/PACKAGE STORE,OFF,4630 US Hwy 80 E,31308
74c18023-2968-427f-9e40-bb7260e665e5,2025-05-18 19:50:41.054755+00,STONEFIELD LIQUOR,,HOUSTON,TX,LIQUOR/PACKAGE STORE,OFF,3503 S SAM HOUSTON PKWY E STE 100,77047
75286395-af67-4a37-a7be-91b7bbe45877,2025-05-18 19:50:41.054755+00,TUTTI MANGIA GRILL,,CLAREMONT,CA,RESTAURANT,ON,102 HARVARD AV,91711
75375bf9-2a7c-4248-bae0-aea83953ec8a,2025-05-18 19:50:41.054755+00,LOLO,,SAN FRANCISCO,CA,RESTAURANT,ON,974 VALENCIA ST,94110
7560edc9-25e5-4e75-84cc-dd776dcaef75,2025-05-18 19:50:41.054755+00,SUMMIT STORE,,LOS GATOS,CA,SUPERMARKET,OFF,24197 SUMMIT RD,95033
75d34ef6-893b-497d-8c48-05c528840b36,2025-05-18 19:50:41.054755+00,SILO RIDGE CLUB BEVERAGE CORP,,AMENIA,NY,GOLF/ COUNTRY CLUB,ON,4651 RTE 22,12501
75f34742-a244-4fe4-a815-436010951c44,2025-05-18 19:50:41.054755+00,Rock Hard Spirits,,Hoschton,GA,LIQUOR/PACKAGE STORE,OFF,4060 Hwy 53,30548
75f48630-abaf-49b3-92ff-782d5d6488db,2025-05-18 19:50:41.054755+00,DANTE S HIFI,,MIAMI,FL,BAR/TAVERN,ON,519 NW 26 STREET,33127
75fdb00c-73d4-4a78-9e04-7a19ac148b51,2025-05-18 19:50:41.054755+00,Coal Mountain Package Store,,Cumming,GA,LIQUOR/PACKAGE STORE,OFF,3645 Browns Bridge Rd,30028
765a4431-9cc3-4c2b-96bb-f5c42f9c113a,2025-05-18 19:50:41.054755+00,WILLOW MARKET,,MENLO PARK,CA,SUPERMARKET,OFF,60 MIDDLEFIELD RD,94025
7670e865-5b3c-42af-8079-928f249c1f89,2025-05-18 19:50:41.054755+00,CANTINA LIQUORS,,WELLINGTON,CO,LIQUOR/PACKAGE STORE,OFF,8310 6TH ST,80549
76d7bf14-385f-4ddf-8c9a-4a2c6a25403a,2025-05-18 19:50:41.054755+00,NYCWFF-OYSTER BASH SUN.,,BROOKLYN,NY,OTHER OFF PREMISE,OFF,BRIDGE PARK DR  PIER 6,11201
76f66d54-5c1a-4813-95cf-0397a18b3155,2025-05-18 19:50:41.054755+00,LEE S LIQUOR #1 SUNSET,,HENDERSON,NV,LIQUOR/PACKAGE STORE,OFF,4427 E SUNSET RD,89014
773c5961-08c3-49da-b4bf-d82919a1b937,2025-05-18 19:50:41.054755+00,Prime Cigar,,Atlanta,GA,RESTAURANT,ON,1035 peachtree st ne,30309
779d2e39-0791-4e8a-8494-eac0b4b05857,2025-05-18 19:50:41.054755+00,Kenny 18 Bottle Shop,,Atlanta,GA,LIQUOR/PACKAGE STORE,OFF,1989 Hosea L Williams Dr SE Ste C,30317
77b4dd83-dc9f-4c78-a797-f4d1812b28f4,2025-05-18 19:50:41.054755+00,SIX TEST KITCHEN,,PASO ROBLES,CA,RESTAURANT,ON,3075 BLUE ROCK RD #B,93446
7827a796-981e-41fe-9b83-b13b010428d1,2025-05-18 19:50:41.054755+00,STERLING CELLAR WINE & LIQUORS,,MAHOPAC,NY,LIQUOR/PACKAGE STORE,OFF,179 RTE 6,10541
78d61e2e-a318-4503-9a0d-311a27b337b4,2025-05-18 19:50:41.054755+00,SUSSEX WINE & SPIRITS,,NEW YORK,NY,LIQUOR/PACKAGE STORE,OFF,768 2ND AVENUE,10017
79320859-382b-4661-8d84-56b8d2b456e7,2025-05-18 19:50:41.054755+00,Nifty Neighbor,,Atlanta,GA,CONVENIENCE/ GAS,OFF,250 Pharr Rd NE Suite C-1,30305
79409147-e575-405c-acaa-1fc44eec2798,2025-05-18 19:50:41.054755+00,POPULUS HOTEL  AN APARIUM,,DENVER,CO,HOTEL/ MOTEL,ON,240 14TH STREET,80202
798da8f1-39bf-4c2e-beab-64d21f6b5424,2025-05-18 19:50:41.054755+00,Megan Sharpley,,Savannah,GA,NON-RETAIL,OFF,1101 Chatham Pkwy,31408
79d3765f-3dde-4459-876e-b3162839931c,2025-05-18 19:50:41.054755+00,GROVE LIQUORS,,MIAMI,FL,LIQUOR/PACKAGE STORE,OFF,2991 SW 32ND AVENUE,33133
79ecc681-d638-4c2d-8aec-7d61a2afd92f,2025-05-18 19:50:41.054755+00,SHEEHAN MCCOY SAMPLES,,HONOLULU,HI,OTHER ON PREMISE,ON,155 KAPALULU PLACE STE 300,96819
7a333fb3-79c3-4bdc-a846-5b8a51e6509e,2025-05-18 19:50:41.054755+00,172 BARGAIN LIQUORS,,ROCKVILLE CENTRE,NY,LIQUOR/PACKAGE STORE,OFF,172 SUNRISE HWY.,11570
7a388629-8163-4108-8711-819023496a8f,2025-05-18 19:50:41.054755+00,,,,,,,,
7a39ffad-725f-4063-aea2-8fa43e750f0a,2025-05-18 19:50:41.054755+00,INTERNATIONAL SMOKE,,SAN FRANCISCO,CA,RESTAURANT,ON,301-301B MISSION ST,94105
7a410e15-30dd-4e1d-9339-4f90c4214a83,2025-05-18 19:50:41.054755+00,SUPER H MART,,CARROLLTON,TX,SUPERMARKET,OFF,2625 OLD DENTON ROAD SUITE 200,75007
7a86fdd4-5c6d-4e5d-a3df-b51845485cbd,2025-05-18 19:50:41.054755+00,Lucky s Beverage World,,Woodstock,GA,LIQUOR/PACKAGE STORE,OFF,610 Claremore Professional Way,30188
7a9fb934-b71a-4045-8b3d-bcaee583557e,2025-05-18 19:50:41.054755+00,BELLEVIEW WINE AND SPIRITS,,DENVER,CO,LIQUOR/PACKAGE STORE,OFF,7795 E BELLEVIEW AVE UNIT 3,80237
7a9fcbc9-4c4e-4362-870e-e7b0fa1d45e4,2025-05-18 19:50:41.054755+00,NYCWFF-KYU DINNER-SUNDAY.,,NEW YORK,NY,OTHER OFF PREMISE,OFF,324 LAFAYETTE STREET,10012
7b3d4ca5-2e87-40af-b250-87ed6ecf5898,2025-05-18 19:50:41.054755+00,Jamie Stone,,Austell,GA,NON-RETAIL,OFF,685 Hartman Rd,30168
7b4633ad-fc7a-44df-b99a-0a3215ce07a8,2025-05-18 19:50:41.054755+00,MASONS STEAKHOUSE,,QUINCY,MA,BAR/TAVERN,ON,1170 HANCOCK ST,02169
7bb393a9-de07-4f1c-a5f5-ad16581ceaf0,2025-05-18 19:50:41.054755+00,East Rome Beverage Center,,Rome,GA,LIQUOR/PACKAGE STORE,OFF,1800 Dean Ave SE,30161
7bb48b1e-67df-4db6-b23a-a9d160c1b31d,2025-05-18 19:50:41.054755+00,Bonaire Package LLC,,Bonaire,GA,LIQUOR/PACKAGE STORE,OFF,518 Ga Hwy 247,31005
7bbb65d4-91bf-4101-b411-ecf041af88ac,2025-05-18 19:50:41.054755+00,PARADISO/BOTANIST/GOOD COMPANIONS,,DALLAS,TX,BAR/TAVERN,ON,308 N BISHOP AVENUE BUILDING 1 & 2,75208
7c05de49-5383-4c04-9c44-d48fa82d4b53,2025-05-18 19:50:41.054755+00,VOM FASS OF SAN DIEGO (OFF),,SAN DIEGO,CA,OTHER OFF PREMISE,OFF,1440 INNOVATIVE DR #400,92154
7c4550cf-259e-41c0-8d96-d2a8372e2585,2025-05-18 19:50:41.054755+00,Charlie s 2 Beer Wine Spirits,,Acworth,GA,LIQUOR/PACKAGE STORE,OFF,5080 Bells Ferry Rd.,30102
7c473dc2-910f-438f-96ee-116cf974acda,2025-05-18 19:50:41.054755+00,NO COAST SUSHI,,GRAND JUNCTION,CO,RESTAURANT,ON,1119 NORTH 1ST ST UNIT A,81501
7c940aeb-ba49-4587-aad6-52bad41aa02d,2025-05-18 19:50:41.054755+00,LEDGER S LIQUOR STORE,,BERKELEY,CA,LIQUOR/PACKAGE STORE,OFF,1399 UNIVERSITY AVE,94702
7ceacaad-e9dd-4709-b0ed-2ad98116e466,2025-05-18 19:50:41.054755+00,Kurt Pieper,,Austell,GA,NON-RETAIL,OFF,685 Hartman Road,30168
7d149a9f-ac75-40dd-bfa7-bba9d78ee1fb,2025-05-18 19:50:41.054755+00,Renaissance Atl Airport Gateway,,College Park,GA,HOTEL/ MOTEL,ON,2081 Convention Center Concourse,30337
7d3ed75b-ad4e-4e7c-ae83-f0386e6e1d1b,2025-05-18 19:50:41.054755+00,Atlanta Eagle,,Atlanta,GA,RESTAURANT,ON,1492 Piedmont Ave NE Ste F,30309
7d877548-3ecc-42da-a540-57bc45e08448,2025-05-18 19:50:41.054755+00,Dekalb Bottle House,,Atlanta,GA,LIQUOR/PACKAGE STORE,OFF,3111 Briarcliff Rd NE,30329
7de7ddcc-0309-4fe4-b5ed-075f7baaf120,2025-05-18 19:50:41.054755+00,JACKSON S BAR & OVEN,,SANTA ROSA,CA,RESTAURANT,ON,135 4TH ST STE #A,95401
7e059605-0bf2-4ef4-b5fd-a8a58c4d1641,2025-05-18 19:50:41.054755+00,WALDEN LIQUORS,,CONCORD,MA,LIQUOR/PACKAGE STORE,OFF,18 WALDEN ST,01742
7e05c5ca-deac-4824-8026-2e50cdc56646,2025-05-18 19:50:41.054755+00,Mega Mart,,Duluth,GA,CONVENIENCE/ GAS,OFF,2100 Pleasant Hill Rd #141,30096
7e2f508a-602a-4ee2-9418-2bbe1de6a352,2025-05-18 19:50:41.054755+00,BOCA RATON  BOCA WHIP  CABANA,,BOCA RATON,FL,HOTEL/ MOTEL,ON,501 EAST CAMINO REAL,33432
7e7777b9-e64f-4e3e-8367-d5d38fc78a01,2025-05-18 19:50:41.054755+00,ZOZAYA  NICK,,DENVER,CO,OTHER OFF PREMISE,OFF,5270 FOX ST,80217
7e9d1e4f-0020-4c9b-93df-fb27e9753dee,2025-05-18 19:50:41.054755+00,Alexandra Mackey,,Austell,GA,NON-RETAIL,OFF,685 Hartman Rd,30168
7eca9b35-0d1f-4284-9c6d-7d948594c888,2025-05-18 19:50:41.054755+00,TEAM #102 BARBER,,UNION CITY,CA,OTHER ON PREMISE,ON,33321 DOWE AVE,94587
7f34ff87-e056-43fb-8239-8e2daa2951db,2025-05-18 19:50:41.054755+00,JENSEN S LIQUOR #2,,MIAMI,FL,LIQUOR/PACKAGE STORE,OFF,1516 NW 27TH AVE,33125
7f71f781-eac0-4381-b464-8868779ccd67,2025-05-18 19:50:41.054755+00,CUT FIVE BOCA,,BOCA RATON,FL,RESTAURANT,ON,9500 SAUVIGNON PARKWAY,33496
7f863794-8f3b-407e-a284-216e31636571,2025-05-18 19:50:41.054755+00,IWA SUSHI & GRILL,,DALLAS,TX,RESTAURANT,ON,5940 ROYAL LANE,75230
7f8af189-2fea-4fb4-9eb1-02360d6e4738,2025-05-18 19:50:41.054755+00,LAVA TUBE WAIKIKI INC,,HONOLULU,HI,RESTAURANT,ON,2280 KUHIO AVE,96815
80019779-d4ec-48c9-b3d2-8b99debe39cd,2025-05-18 19:50:41.054755+00,YUMIYAKI,,NEW YORK,NY,RESTAURANT,ON,21 W 35TH ST,10001
808e5ca2-e761-4054-acf2-ff9e42c62d6a,2025-05-18 19:50:41.054755+00,TOAST! WINE AND SPIRITS,,DENVER,CO,LIQUOR/PACKAGE STORE,OFF,3828 WEST 23RD AVENUE,80211
80b4d78d-85a5-4f7e-a401-4034004321d4,2025-05-18 19:50:41.054755+00,ANGELE,,NAPA,CA,RESTAURANT,ON,540 MAIN ST #B,94559
80b790de-41b0-492f-b3ed-0e522d8972cb,2025-05-18 19:50:41.054755+00,NAMO,,DALLAS,TX,RESTAURANT,ON,3699 MCKINNEY AVENUE SUITE 305C,75204
81220ed5-df77-4939-af0e-f9fb4bd3608a,2025-05-18 19:50:41.054755+00,BANDITS,,NEW YORK,NY,BAR/TAVERN,ON,44 BEDFORD ST,10014
813f1f2d-fda2-4b10-b92d-7c23e075940f,2025-05-18 19:50:41.054755+00,Piedmont Driving Club    Main,,Atlanta,GA,GOLF/ COUNTRY CLUB,ON,1215 Piedmont Ave NE,30309
814a8ce4-8576-4421-9999-9d1768595b8f,2025-05-18 19:50:41.054755+00,STEW LEONARDS/WINES & SPIRITS,,YONKERS,NY,LIQUOR/PACKAGE STORE,OFF,1 STEW LEONARD DRIVE STORE 2,10710
815d3608-8947-491d-a8a1-0b2149a2c14f,2025-05-18 19:50:41.054755+00,REGIIS OVA,,YOUNTVILLE,CA,BAR/TAVERN,ON,6480 WASHINGTON ST,94599
81821009-640f-4a6d-8573-ba01c4b58f0a,2025-05-18 19:50:41.054755+00,PATRIOTS LIQUOR,,COLORADO SPRINGS,CO,LIQUOR/PACKAGE STORE,OFF,7935 CONSTITUTION AVE STE 140,80951
81a0ea9d-bee3-46a6-95dd-d3047bbd89fb,2025-05-18 19:50:41.054755+00,JOHNNIE S SUPERSTORE,,PITTSFIELD,MA,SUPERMARKET,OFF,370 PECKS RD,01201
81a3fdec-fb89-4b16-ad23-81e158512a42,2025-05-18 19:50:41.054755+00,LIQUOR LIBRARY@LAS TERMINAL 1,,LAS VEGAS,NV,LIQUOR/PACKAGE STORE,OFF,5757 WAYNE NEWTON BLVD,89119
81b56d0e-17e7-485a-a023-d419ed40590b,2025-05-18 19:50:41.054755+00,CITY MARKET 11,,FULLERTON,CA,CONVENIENCE/ GAS,OFF,333 N PLACENTIA AV,92831
81e5339d-faed-4e55-9ca1-558aae761c5a,2025-05-18 19:50:41.054755+00,BRADLEY S FINE WINES & SPIRITS,,TUSTIN,CA,LIQUOR/PACKAGE STORE,OFF,12932 NEWPORT AV #1,92780
820bf418-8e23-4d38-a6ef-60e95665071b,2025-05-18 19:50:41.054755+00,BOTTLE BARN,,SANTA ROSA,CA,LIQUOR/PACKAGE STORE,OFF,3331 INDUSTRIAL DR #A,95403
82f5807e-a704-4f13-92b2-6a8e6ab213a6,2025-05-18 19:50:41.054755+00,LITTLE HOKKAIDO,,ARCATA,CA,BAR/TAVERN,ON,1504 G ST,95521
8317ce8b-4121-47ae-abd9-5d1aa1409a2e,2025-05-18 19:50:41.054755+00,Kiosco,,Marietta,GA,RESTAURANT,ON,48 Powder Springs St,30064
831ced99-65b2-4c4b-8b15-7cee9eddd3db,2025-05-18 19:50:41.054755+00,BROKEN COMPASS TIKI,,BURBANK,CA,BAR/TAVERN,ON,2013 W BURBANK BLVD,91506
8361468e-4030-477f-a1c0-f9b7510e8ad3,2025-05-18 19:50:41.054755+00,EHP SISI RESTAURANT LLC(HOTEL),,EAST HAMPTON,NY,RESTAURANT,ON,295 THREE MILE HARBOR RD,11937
83906f09-b628-41de-8cdf-945fc6ec552e,2025-05-18 19:50:41.054755+00,SPOTOS OYSTER BAR,,PALM BEACH GARDENS,FL,RESTAURANT,ON,4560 PGA BLVD,33418
83987db9-0d51-4992-9311-89a38d33d7f7,2025-05-18 19:50:41.054755+00,RISTORANTE LA TOSCANA,,SAN RAFAEL,CA,RESTAURANT,ON,3751 REDWOOD HWY,94903
83debc41-46fd-46f3-a190-0a57dba5900a,2025-05-18 19:50:41.054755+00,HARRIS RESTAURANT,,SAN FRANCISCO,CA,RESTAURANT,ON,2100 VAN NESS AVE,94109
83e1000f-ecd0-467d-826a-8e05624acf04,2025-05-18 19:50:41.054755+00,CARDIFF SEASIDE MARKET,,CARDIFF BY THE SEA,CA,SUPERMARKET,OFF,2087 SAN ELIJO AV,92007
844c549e-81b0-4700-a28a-2ef2a0b2826a,2025-05-18 19:50:41.054755+00,BOND ST,,NEW YORK,NY,RESTAURANT,ON,6 BOND ST,10012
846eaa84-67c6-49d5-bdcd-27e2b20f9809,2025-05-18 19:50:41.054755+00,S Boro Liquors,,Statesboro,GA,LIQUOR/PACKAGE STORE,OFF,860 Buckhead Dr,30458
848bf6a1-4593-4669-90b9-821bf663334e,2025-05-18 19:50:41.054755+00,Beverage City 2,,Fairburn,GA,LIQUOR/PACKAGE STORE,OFF,5370 Highway 92  Ste 140,30213
84e7140f-0212-44b0-987b-99ac9bc18062,2025-05-18 19:50:41.054755+00,BUCCAN,,PALM BEACH,FL,RESTAURANT,ON,350 S COUNTY RD,33480
8533b41f-0798-45c2-9f6b-6065e9db76d6,2025-05-18 19:50:41.054755+00,SUNDANCE,,SNOWMASS VILLAGE,CO,LIQUOR/PACKAGE STORE,OFF,0016 KEARNS RD STE101 104 115,81615
8584119e-4997-4cab-8fca-2cc1f6a63345,2025-05-18 19:50:41.054755+00,Yao Thai Restaurant,,Dunwoody,GA,RESTAURANT,ON,Ste H-31 245 Perimeter Center Pkwy,30346
85d7a44d-f27b-4d5f-b523-666317ae247b,2025-05-18 19:50:41.054755+00,SHANG ARTISAN NOODLE,,LAS VEGAS,NV,RESTAURANT,ON,4983 W FLAMINGO RD #B,89103
86047d25-764e-4e5b-b7a1-62174eb6078c,2025-05-18 19:50:41.054755+00,NORMAN S LIQUORS #2,,SARASOTA,FL,LIQUOR/PACKAGE STORE,OFF,5200 CLARK ROAD,34238
86654dc8-3388-4243-ba39-90b251e7723b,2025-05-18 19:50:41.054755+00,SOBE - GTV SOUTH,,MIAMI,FL,OTHER ON PREMISE,ON,1600 NW 163RD ST,33169
8676cd89-8f0b-4859-bc5e-05302c62bdbc,2025-05-18 19:50:41.054755+00,HEB CENTRAL MARKET 653,,DALLAS,TX,SUPERMARKET,OFF,10720 PRESTON ROAD STE.1018,75230
86f39b15-9cc1-4829-b806-057290d25456,2025-05-18 19:50:41.054755+00,K & L WINE TASTING,,LOS ANGELES,CA,LIQUOR/PACKAGE STORE,OFF,1400-1408 VINE ST,90028
87eb9393-5def-4533-8b8b-c7db4b910d21,2025-05-18 19:50:41.054755+00,IZAKAYA CABIN,,CRESTED BUTTE,CO,RESTAURANT,ON,321 ELK AVENUE,81224
8806fe79-f44d-4c08-92d0-35805827028e,2025-05-18 19:50:41.054755+00,The Bottle Shop (New),,Madison,GA,LIQUOR/PACKAGE STORE,OFF,1510 Eatonton Rd,30650
881f4263-90d2-40f6-a832-2749a3f5ac8d,2025-05-18 19:50:41.054755+00,COSTA MESA WINE & SPIRITS,,COSTA MESA,CA,LIQUOR/PACKAGE STORE,OFF,891 BAKER ST #B1,92626
883c1ec6-feb0-4aa3-a831-def7593326b4,2025-05-18 19:50:41.054755+00,SOPRIS LIQUOR AND WINE,,CARBONDALE,CO,LIQUOR/PACKAGE STORE,OFF,1026 HWY 133,81623
88b20a74-e942-4394-afe5-58ccee911c6d,2025-05-18 19:50:41.054755+00,RESIDENCE INN CUPERTINO,,CUPERTINO,CA,HOTEL/ MOTEL,ON,19429 STEVENS CREEK BLVD,95014
88d305cd-823a-4480-b989-d16b3c87968a,2025-05-18 19:50:41.054755+00,URBAN WINE & SPIRITS,,NEW YORK,NY,LIQUOR/PACKAGE STORE,OFF,45 1ST AVENUE,10003
88ea0a12-486a-4a4a-b828-6667fcbf89d6,2025-05-18 19:50:41.054755+00,ENDS MEAT LLC,,BROOKLYN,NY,OTHER OFF PREMISE,OFF,220 36TH ST UNIT B104,11232
88eed8d1-b4a9-4f90-8362-929d42eaed6a,2025-05-18 19:50:41.054755+00,JONES,,SAN FRANCISCO,CA,BAR/TAVERN,ON,620 JONES STREET,94102
89172dc6-083e-4341-a7d1-9ae43e6a6dab,2025-05-18 19:50:41.054755+00,Peachtree Liquor: Duluth,,Duluth,GA,LIQUOR/PACKAGE STORE,OFF,2750 Buford Hwy Ste 4,30096
89680dc3-c84c-4ed5-9dab-f435a8f3f0c8,2025-05-18 19:50:41.054755+00,PICCALILLI,,CULVER CITY,CA,BAR/TAVERN,ON,3850 MAIN ST #A,90232
89683a7f-e8a2-43cb-a084-9ac2bcc9d107,2025-05-18 19:50:41.054755+00,Max Beverage,,Cumming,GA,LIQUOR/PACKAGE STORE,OFF,928 Market Place Blvd,30041
89efa945-32d0-4043-8837-6386a7c438cd,2025-05-18 19:50:41.054755+00,ASCEND PRIME STEAK AND SUSHI,,BELLEVUE,WA,RESTAURANT,ON,10400 NE 4TH STREET STE 3100,98004
8a8d8ae3-7173-4fd3-9fee-ec6ff7c35463,2025-05-18 19:50:41.054755+00,CHESTNUT CLUB,,SANTA MONICA,CA,BAR/TAVERN,ON,1348 14TH ST,90404
8b83abbb-c97a-4dd6-9e56-d1fa9859dca9,2025-05-18 19:50:41.054755+00,DUXBURY WINE & SPIRITS,,DUXBURY,MA,LIQUOR/PACKAGE STORE,OFF,1-1A WASHINGTON PO 1654,02332
8bd4a78f-393c-4e7a-857c-26722c9873b0,2025-05-18 19:50:41.054755+00,THE BETH,,HINGHAM,MA,BAR/TAVERN,ON,18 SHIPYARD DR STE 1K,02043
8c34b642-0d04-434e-a7ee-5b45ad245cb1,2025-05-18 19:50:41.054755+00,Cave Springs Package,,Douglasville,GA,LIQUOR/PACKAGE STORE,OFF,913 Dallas Highway,30134
8c4db991-93c0-439e-a729-e5bac2603d34,2025-05-18 19:50:41.054755+00,Riverwood Wine & Spirits,,Evans,GA,LIQUOR/PACKAGE STORE,OFF,5118 Washington Rd,30809
8c833c11-364e-4d26-b847-f17d9d59d7cb,2025-05-18 19:50:41.054755+00,BEACON HILL WINE & SPIRITS,,BOSTON,MA,LIQUOR/PACKAGE STORE,OFF,63 CHARLES ST,02114
8c99f83d-3240-4171-8e62-e6c03a9e039e,2025-05-18 19:50:41.054755+00,Thai Spice,,Peachtree City,GA,RESTAURANT,ON,286 Highway 74 N,30269
8cb02a45-3c7d-4ed3-8c66-1d942bac65f3,2025-05-18 19:50:41.054755+00,PIER SIXTY-SIX HOTEL,,FORT LAUDERDALE,FL,HOTEL/ MOTEL,ON,2301 SE 17TH ST,33316
8cb58520-b2a5-4f94-a068-1bab0462dd6e,2025-05-18 19:50:41.054755+00,WINE & LIQUOR DEPOT,,ISLIP,NY,LIQUOR/PACKAGE STORE,OFF,207 ISLIP AVE,11751
8cc663fa-c7de-4681-93a4-801ccc44b948,2025-05-18 19:50:41.054755+00,GRANDMASTER RECORDERS,,LOS ANGELES,CA,GOLF/ COUNTRY CLUB,ON,1518 CAHUENGA BLVD,90028
8cf0ea24-6cc9-43c8-b537-165e01c92899,2025-05-18 19:50:41.054755+00,Beverage World Package Store,,Doraville,GA,LIQUOR/PACKAGE STORE,OFF,6731 Peachtree Industrial Blvd,30360
8d00877d-06e2-42db-996d-de4ae1a1d13e,2025-05-18 19:50:41.054755+00,REMEDY LIQUOR,,SUGAR LAND,TX,LIQUOR/PACKAGE STORE,OFF,6506 E HWY 90 ALT,77479
8d44b9c1-88fc-4cb6-9f02-80b5cb2c666f,2025-05-18 19:50:41.054755+00,A RESTAURANT,,NEWPORT BEACH,CA,RESTAURANT,ON,3334 W COAST HWY,92663
8d729958-abb7-47b2-ac30-103339de39b2,2025-05-18 19:50:41.054755+00,SUSHI MOCKI,,DALLAS,TX,RESTAURANT,ON,5321 E MOCKINGBIRD LN STE 130,75206
8d8f94f3-f3f1-4f1e-9a8a-df0d461757b2,2025-05-18 19:50:41.054755+00,BP Gas Station,,Atlanta,GA,CONVENIENCE/ GAS,OFF,1989 Hosea L Williams Dr SE,30317
8db0ba6f-e8c2-4156-86b7-91c97eb7afae,2025-05-18 19:50:41.054755+00,Robins Package,,Warner Robins,GA,LIQUOR/PACKAGE STORE,OFF,628 S Houston Lake RD,31088
8de7a7ad-dd4a-4ab7-a2f6-e0a10f4c4ffd,2025-05-18 19:50:41.054755+00,2704 S&A WINES & SPIRITS CORP,,LONG ISLAND CITY,NY,LIQUOR/PACKAGE STORE,OFF,42-14 CRESCENT ST,11101
8df21c57-19c4-419e-9cda-de154586719e,2025-05-18 19:50:41.054755+00,PLYMOUTH HOTEL/BLUE RIBBON,,MIAMI BEACH,FL,HOTEL/ MOTEL,ON,336 21 STREET,33139
8e5766fc-99f3-4ea8-873c-c20ede9536f2,2025-05-18 19:50:41.054755+00,LEE S LIQUOR #14 BOULDER,,HENDERSON,NV,LIQUOR/PACKAGE STORE,OFF,1388 S BOULDER HWY,89015
8e5fd8d5-85a1-4669-9d43-bcfaf09a2375,2025-05-18 19:50:41.054755+00,BROADWAY SPIRITS INC,,NEW YORK,NY,LIQUOR/PACKAGE STORE,OFF,299 BROADWAY,10007
8ec85a3e-52af-4d31-a09d-a249cdf467f7,2025-05-18 19:50:41.054755+00,The Atlanta Fish Market,,Atlanta,GA,RESTAURANT,ON,265 Pharr Rd NE,30305
8f31b3ed-f893-4ad0-8c40-ea7b88539926,2025-05-18 19:50:41.054755+00,GRAVITY HAUS,,ASPEN,CO,HOTEL/ MOTEL,ON,315 E HYMAN AVENUE,81611
8fd4e426-9d2f-4c17-9b02-435eddb056b1,2025-05-18 19:50:41.054755+00,Lakeside Package,,Flowery Branch,GA,LIQUOR/PACKAGE STORE,OFF,6168 Gaines Ferry Rd Ste 1&2,30542
90433b4c-5c11-4efa-8db6-066b07847add,2025-05-18 19:50:41.054755+00,LAST DROP TAVERN,,SAN FRANCISCO,CA,BAR/TAVERN,ON,550 POWELL ST,94108
904889aa-501a-4a79-8ea1-44f710782433,2025-05-18 19:50:41.054755+00,TEAM #182 KILIAN,,UNION CITY,CA,OTHER ON PREMISE,ON,33321 DOWE AVE,94587
9054e09f-baa6-478d-8fad-211d9608b708,2025-05-18 19:50:41.054755+00,TEAM #121 HUPP,,CERRITOS,CA,OTHER OFF PREMISE,OFF,17101 VALLEY VIEW AV,90703
90a88db9-e873-4ec9-9e61-686c43148993,2025-05-18 19:50:41.054755+00,Two Guys Beverage & Tobacco NEW,,Vidalia,GA,LIQUOR/PACKAGE STORE,OFF,100 Rudell Rd,30474
910801a3-854f-4506-8dfc-f9c32ded7d8b,2025-05-18 19:50:41.054755+00,WILIBEE S WINE & SPIRITS,,PETALUMA,CA,LIQUOR/PACKAGE STORE,OFF,309 LAKEVILLE ST,94952
9145ef8d-01cf-4282-a58e-3259626bc2b9,2025-05-18 19:50:41.054755+00,SANTA FE STEAKHOUSE,,MCALLEN,TX,RESTAURANT,ON,1918 S. 10TH STREET,78503
91de92f6-2447-4591-bbfe-defc7572b307,2025-05-18 19:50:41.054755+00,East West Package,,Austell,GA,LIQUOR/PACKAGE STORE,OFF,1025 E West Connector Ste 605,30106
92258bd2-0c7c-4ace-ab05-a67875343ea6,2025-05-18 19:50:41.054755+00,RACE LANE LIQUORS,,EAST HAMPTON,NY,LIQUOR/PACKAGE STORE,OFF,21 RACE LN,11937
92740720-a782-4ee0-b908-f106bddf4ed1,2025-05-18 19:50:41.054755+00,One Stop Liquor And Wine,,Metter,GA,LIQUOR/PACKAGE STORE,OFF,976 SE Broad St,30439
92843185-a491-4d58-9efb-e1f7aaec7ba5,2025-05-18 19:50:41.054755+00,Daisy Discount Liquor,,Claxton,GA,RESTAURANT,ON,17114 US Hwy 280,30417
928508a5-7538-4b98-809f-bddf2b296f38,2025-05-18 19:50:41.054755+00,HAMPTON BAYS WINE AND SPIRITS,,HAMPTON BAYS,NY,LIQUOR/PACKAGE STORE,OFF,46 E. MONTAUK HIGHWAY,11946
92e525fe-99f2-4eda-b755-b91c623337f6,2025-05-18 19:50:41.054755+00,Brandon s Package Store,,Peachtree City,GA,LIQUOR/PACKAGE STORE,OFF,101 Petrol Pt,30269
9347d256-7694-470e-934a-e09d4c3066a8,2025-05-18 19:50:41.054755+00,HULLABALOO,,WEST PALM BEACH,FL,RESTAURANT,ON,517-519 CLEMATIS STREET,33401
93d1802e-a403-4020-a48c-7ed829b859fd,2025-05-18 19:50:41.054755+00,RED MOUNTAIN LIQUOR,,CRESTED BUTTE,CO,LIQUOR/PACKAGE STORE,OFF,81 GILLASPEY AVE,81224
93f2ae69-bfaa-4160-a808-904cbfcdfe0c,2025-05-18 19:50:41.054755+00,Island Spirit,,Savannah,GA,LIQUOR/PACKAGE STORE,OFF,444 Johnny Mercer Blvd,31410
94254680-766e-45c0-8a1f-84c50bf689a7,2025-05-18 19:50:41.054755+00,RJ S WINE & SPIRITS,,FORT COLLINS,CO,LIQUOR/PACKAGE STORE,OFF,4321 CORBETT DRIVE SUITE 100,80528
94274a7d-a38f-4863-95d4-b831d566eaf0,2025-05-18 19:50:41.054755+00,Stateline Liquor,,Ringgold,GA,LIQUOR/PACKAGE STORE,OFF,52 Highway 41,30736
9435cdf1-54bf-4d83-b751-8add0d85d4cd,2025-05-18 19:50:41.054755+00,BRASSERIE BRIXTON,,DENVER,CO,RESTAURANT,ON,3701 N WILLIAMS ST,80205
943fd743-80c6-4624-ac89-54a40fd0b59a,2025-05-18 19:50:41.054755+00,Mountain Package Store,,Stone Mountain,GA,LIQUOR/PACKAGE STORE,OFF,5765 Rockbridge Rd  Ste D,30087
94688429-b7dc-45e0-a3d4-9993893ded6f,2025-05-18 19:50:41.054755+00,STARBOARD TACK,,LAS VEGAS,NV,BAR/TAVERN,ON,2601 ATLANTIC ST,89121
947effe9-dbb1-4451-874a-167446f388c9,2025-05-18 19:50:41.054755+00,WINE HUT CORP  THE,,NEW YORK,NY,LIQUOR/PACKAGE STORE,OFF,197 6TH AVE,10014
948968fe-601a-4602-9609-a4d82f29e94d,2025-05-18 19:50:41.054755+00,ABC Package,,Athens,GA,LIQUOR/PACKAGE STORE,OFF,2303 W Broad St,30606
94bad62d-7375-49b7-bf05-e97c67b55289,2025-05-18 19:50:41.054755+00,JULIO S LIQUORS INC,,WESTBORO,MA,LIQUOR/PACKAGE STORE,OFF,140 TURNPIKE RD,01581
94dfe870-c047-48d5-9a5c-a4b333be4478,2025-05-18 19:50:41.054755+00,MISSION LIQUOR & WINES WHSE,,SAN GABRIEL,CA,OTHER OFF PREMISE,OFF,445-447 MADERA STREET,91776
94f6c014-d103-4ede-821f-12d6b01705ba,2025-05-18 19:50:41.054755+00,Shell Food Mart,,Roswell,GA,CONVENIENCE/ GAS,OFF,890 Atlanta St,30095
95233d18-f2a9-4969-b305-e9d81550b1e3,2025-05-18 19:50:41.054755+00,SPHERE LAS VEGAS LLC,,LAS VEGAS,NV,GOLF/ COUNTRY CLUB,ON,255 SANDS AVE.,89169
956b2752-8fce-4c6f-86a0-7e8dad95166b,2025-05-18 19:50:41.054755+00,HOUSE OF AMBROSE WINE/SPIRITS,,LOS ANGELES,CA,LIQUOR/PACKAGE STORE,OFF,3331 BARHAM BL,90068
95826845-4eb4-4c48-a53d-a81c47771240,2025-05-18 19:50:41.054755+00,EMPLOYEE PURCHASES,,AURORA,CO,OTHER OFF PREMISE,OFF,22800 EAST 19TH AVE,80019
95a35270-8e04-4093-aced-e291f06c9da7,2025-05-18 19:50:41.054755+00,TEAM #061 GARCIA,,UNION CITY,CA,OTHER OFF PREMISE,OFF,33321 DOWE AVE,94587
9625e391-c83f-44fc-bb82-7349cae33894,2025-05-18 19:50:41.054755+00,Umbrella Bar,,Atlanta,GA,RESTAURANT,ON,675 Ponce De Leon Ave NE,30308
963ee459-70d7-4104-8148-ef2429025073,2025-05-18 19:50:41.054755+00,TRATTORIA BRAVA,,GLENWOOD SPRINGS,CO,RESTAURANT,ON,809 GRAND AVE #4,81601
96508b2c-89a2-4000-8708-1d5f0155f04e,2025-05-18 19:50:41.054755+00,LOLA 41 PALM BEACH,,PALM BEACH,FL,RESTAURANT,ON,290 SUNSET AVENUE,33480
969edaa1-a440-4a76-bccd-84dc947b8338,2025-05-18 19:50:41.054755+00,M GRILL,,LOS ANGELES,CA,RESTAURANT,ON,3832 WILSHIRE BL #202,90010
96e65835-0aac-43cd-9917-147725ea815f,2025-05-18 19:50:41.054755+00,Arbor Place Beverage,,Douglasville,GA,LIQUOR/PACKAGE STORE,OFF,7455 Douglas Blvd,30135
96ed2e6f-0b8b-41cd-8556-03b3bca04dc8,2025-05-18 19:50:41.054755+00,MAYBOURNE BEVERLY HILLS,,BEVERLY HILLS,CA,HOTEL/ MOTEL,ON,225 N CANON DR,90210
9731acd2-c07b-40ae-96ce-12e83ec4dee1,2025-05-18 19:50:41.054755+00,RIVERWALK WINE & SPIRITS,,EDWARDS,CO,LIQUOR/PACKAGE STORE,OFF,34295 HWY 6 UNITS C-1A & C-1B,81632
973748e8-b874-43b4-8d32-75649ba7b92f,2025-05-18 19:50:41.054755+00,ACTON WINE & SPIRIT CO,,ACTON,MA,LIQUOR/PACKAGE STORE,OFF,305 MAIN ST  RTE 27,01720
9792793f-bf5f-4d31-9bfd-7c2434385ee5,2025-05-18 19:50:41.054755+00,GOLDEN HOUR SOCIAL CLUB,,DENVER,CO,BAR/TAVERN,ON,3282 NORTH TEJON ST SUITE 102,80211
97b2f873-ca6c-462b-96a6-b7b400f25d10,2025-05-18 19:50:41.054755+00,CRAFT & ART WINES & SP/PAR-SAM,,IRWINDALE,CA,OTHER ON PREMISE,ON,15751-55 TAPIA STREET,91702
97f3e061-ba60-4877-b76f-8eb8a74ecfe2,2025-05-18 19:50:41.054755+00,VILLA ROYALE,,PALM SPRINGS,CA,HOTEL/ MOTEL,ON,1620 INDIAN TRAIL,92264
97f65fa3-99bf-487a-8fab-ef523d47bbfb,2025-05-18 19:50:41.054755+00,Mike s Package Store,,Douglasville,GA,LIQUOR/PACKAGE STORE,OFF,2164 Hwy 92,30135
98630ca1-0034-455a-b7bf-a49373a43c9b,2025-05-18 19:50:41.054755+00,(THE) BETSY SOUTH BEACH,,MIAMI BEACH,FL,HOTEL/ MOTEL,ON,1440 OCEAN DRIVE & 1433 COLLIN,33139
9873bfe6-7a1a-45a3-8c2b-88367e5b16fe,2025-05-18 19:50:41.054755+00,KAKAAKO WINE LLC,,HONOLULU,HI,LIQUOR/PACKAGE STORE,OFF,2915 KAIHIKAPU ST SUITE 102,96819
98822f86-fdbc-4924-918f-33bb548cbac0,2025-05-18 19:50:41.054755+00,J & J SPIRIT SHOP,,SAYVILLE,NY,LIQUOR/PACKAGE STORE,OFF,199 RAILROAD AVE,11782
98b215b0-7337-496f-a301-a8261692269d,2025-05-18 19:50:41.054755+00,Woofs Sports Bar,,Atlanta,GA,RESTAURANT,ON,494 Plasters Ave NE Ste 200,30324
99579e82-4341-470e-9608-2e0f3823d24a,2025-05-18 19:50:41.054755+00,Hwy 5 Beverage Center,,Douglasville,GA,LIQUOR/PACKAGE STORE,OFF,9079 Hwy 5,30134
9a2f1acc-bc8c-4a4a-a0ec-ff376211bd7b,2025-05-18 19:50:41.054755+00,BRAZOS RESTAURANT LLC,,AUSTIN,TX,RESTAURANT,ON,200 E 6TH ST STE 110,78701
9b541919-f91d-4e6b-b8c6-1165fc822a0f,2025-05-18 19:50:41.054755+00,K & L (OFF),,REDWOOD CITY,CA,LIQUOR/PACKAGE STORE,OFF,3005 EL CAMINO REAL,94061
9b8d495e-8ca5-4ed2-990d-449192121f18,2025-05-18 19:50:41.054755+00,SEXY FISH,,MIAMI,FL,RESTAURANT,ON,1001 S MIAMI AVE,33130
9b9d26da-9b95-4932-a6cf-1cc1364f7bb8,2025-05-18 19:50:41.054755+00,Five Points Bottle Shop,,Athens,GA,LIQUOR/PACKAGE STORE,OFF,1655 Lumpkin St,30606
9c3190ef-9950-41b2-8099-9e37ac170d41,2025-05-18 19:50:41.054755+00,TOP SHELF W/S MJRA,,LAS VEGAS,NV,LIQUOR/PACKAGE STORE,OFF,6795 W TROPICANA AVE STE 130,89103
9c423413-beeb-4a51-a9dd-5cf356498403,2025-05-18 19:50:41.054755+00,INNESS,,ACCORD,NY,HOTEL/ MOTEL,ON,10 BANK ST,12404
9c800eb8-fbb6-440f-8b5f-25a10c90fa69,2025-05-18 19:50:41.054755+00,WEST VIEW BOTTLE APOSTLE,,WESTMINSTER,CA,LIQUOR/PACKAGE STORE,OFF,14055 GOLDENWEST ST,92683
9d06f75d-dfe5-4acc-9925-13b03c8b8bb1,2025-05-18 19:50:41.054755+00,SAMPLE SYOSSET ARIEL ABRAMOV,,SYOSSET,NY,OTHER OFF PREMISE,OFF,W/HOUSE PICK-UP,11791
9d20c8f5-966c-42e8-b90e-f6dace8ad4da,2025-05-18 19:50:41.054755+00,AVERY FISHER HALL,,NEW YORK,NY,GOLF/ COUNTRY CLUB,ON,100 COLUMBUS AVENUE,10023
9d60f756-4125-48cc-b302-ded79487117e,2025-05-18 19:50:41.054755+00,THE COSMOPOLITAN OF LV WHSE,,LAS VEGAS,NV,GOLF/ COUNTRY CLUB,ON,6025 PROCYON,89118
9d7f8d18-6439-4c67-a33a-ab3ee79679c5,2025-05-18 19:50:41.054755+00,Local Vine Johns Creek,,Johns Creek,GA,LIQUOR/PACKAGE STORE,OFF,5805 State Bridge Rd Ste 200,30097
9dda4800-06b9-41a3-bc93-efdc5c155445,2025-05-18 19:50:41.054755+00,Village Spirits,,Flowery Branch,GA,LIQUOR/PACKAGE STORE,OFF,5462 McEver Rd,30542
9ddce4e2-c0ef-4c82-8bb2-6679f8e96194,2025-05-18 19:50:41.054755+00,SAMPLE ADRIAN CHIOTA,,SYOSSET,NY,OTHER OFF PREMISE,OFF,W/HOUSE PICK-UP,11791
9dde6cab-3a8e-4618-8ea2-b350d0db8943,2025-05-18 19:50:41.054755+00,MIZNER COUNTRY CLUB,,DELRAY BEACH,FL,GOLF/ COUNTRY CLUB,ON,16104 MIZNER CLUB DRIVE,33446
9e68ae94-ec0e-42c4-9690-3d303131776b,2025-05-18 19:50:41.054755+00,LADERA GOLF CLUB,,THERMAL,CA,GOLF/ COUNTRY CLUB,ON,69501 LEMON BLOSSOM LN,92274
9ef367f6-5ade-4fbb-9b17-ef1c98bfdb80,2025-05-18 19:50:41.054755+00,CAPPY S WAREHOUSE W & S INC,,LYNBROOK,NY,LIQUOR/PACKAGE STORE,OFF,670 MERRICK RD,11563
9f24d298-67bc-4363-86bb-e77bdacae3b4,2025-05-18 19:50:41.054755+00,RUN FOR THE ROSES,,DENVER,CO,BAR/TAVERN,ON,1801 BLAKE ST STE 10,80202
9f3411b8-b144-4906-bc2e-9f7415848895,2025-05-18 19:50:41.054755+00,GULF LIQUOR ON ALTON RD,,MIAMI BEACH,FL,LIQUOR/PACKAGE STORE,OFF,1681 ALTON ROAD,33139
9f47d370-1d0f-4a4e-903d-417744581eed,2025-05-18 19:50:41.054755+00,Shell Station,,Atlanta,GA,CONVENIENCE/ GAS,OFF,1521 Peachtree St Ne,30309
9f893740-3e7b-47e3-9b00-d657c39f7cf1,2025-05-18 19:50:41.054755+00,APT 115 A,,AUSTIN,TX,BAR/TAVERN,ON,2025 E 7TH STREET SUITE 115,78702
9faeea06-e903-4573-be4f-2b93354ddd1d,2025-05-18 19:50:41.054755+00,GREAT AMERICAN CRAFT SPIRITS,,RCHO STA MARG,CA,LIQUOR/PACKAGE STORE,OFF,29911 AVENTURA #E,92688
9fe149dd-c5de-4077-a491-07a623cd9517,2025-05-18 19:50:41.054755+00,NEWPORT BEACH COUNTRY CLUB,,NEWPORT BEACH,CA,GOLF/ COUNTRY CLUB,ON,1 CLUBHOUSE DR,92660
a02b7d4c-1a50-4aae-b47e-cafe4b0d9320,2025-05-18 19:50:41.054755+00,JW MARRIOTT ESSEX HOUSE NY,,NEW YORK,NY,HOTEL/ MOTEL,ON,160 CENTRAL PARK SOUTH,10019
a0840fce-bc29-4077-b598-932047c35df8,2025-05-18 19:50:41.054755+00,BARRELS & STILLS WINES SPIRITS,,MELVILLE,NY,LIQUOR/PACKAGE STORE,OFF,685 WALT WHITMAN RD,11747
a0e84bfa-0b3d-4978-a339-ab67eb15b4ca,2025-05-18 19:50:41.054755+00,SEAHOLM WINES & LIQUORS,,HUNTINGTON,NY,LIQUOR/PACKAGE STORE,OFF,132 136 WALL STREET,11743
a138bc85-b986-4bef-8733-9846225e63aa,2025-05-18 19:50:41.054755+00,RESTAURANT SUSHI  SASA,,DENVER,CO,RESTAURANT,ON,2401 15TH STREET STE 80,80202
a16600f7-b50a-499c-9e93-8e1a586b4c67,2025-05-18 19:50:41.054755+00,CHOTTO MATTE,,SAN FRANCISCO,CA,RESTAURANT,ON,100 STOCKTON ST 8TH FLOOR,94108
a1acfb71-621b-478a-9c76-7bde3a44a3d0,2025-05-18 19:50:41.054755+00,Toco Giant Package,,Atlanta,GA,LIQUOR/PACKAGE STORE,OFF,2941 N Druid Hills Rd NE  Ste A,30329
a1aee5b7-ed1e-4eeb-b008-7e842ebddd38,2025-05-18 19:50:41.054755+00,Parker s Spirits,,Pooler,GA,LIQUOR/PACKAGE STORE,OFF,8 N Godley Station Blvd,31322
a1be5ccf-6e1d-4c94-9596-f2eb9c07a5ed,2025-05-18 19:50:41.054755+00,Liberty World Beverage,,Braselton,GA,LIQUOR/PACKAGE STORE,OFF,3700 Village Way,30517
a1d22be6-ee56-42b5-ab91-ddc1215fce82,2025-05-18 19:50:41.054755+00,Metro Bottle,,Atlanta,GA,LIQUOR/PACKAGE STORE,OFF,2225 Marietta Blvd,30318
a2049af7-f499-4f8d-afdf-578f43dda7d8,2025-05-18 19:50:41.054755+00,MATHESON  THE,,HEALDSBURG,CA,RESTAURANT,ON,106 MATHESON ST,95448
a212f83e-69c9-493c-bacc-5ea358254d86,2025-05-18 19:50:41.054755+00,Pinky Promise Champagne Bar,,Atlanta,GA,RESTAURANT,ON,1042 Northside Dr NW Ste P125,30318
a2ef640f-a424-4b54-9e67-a50f3782bfab,2025-05-18 19:50:41.054755+00,Dan s Package Store,,Sandy Springs,GA,LIQUOR/PACKAGE STORE,OFF,8529 Roswell Rd,30350
a369b122-fea8-471b-9df0-440ddb831c04,2025-05-18 19:50:41.054755+00,Suwanee Pkg Store,,Suwanee,GA,LIQUOR/PACKAGE STORE,OFF,3063A LAWRENCEVILLE SUWANEE RD,30024
a395c013-9f19-46cc-8504-db0f15e39c24,2025-05-18 19:50:41.054755+00,Sigman Bottle Shop,,Conyers,GA,LIQUOR/PACKAGE STORE,OFF,439 Sigman Rd NW  Ste A,30012
a3d1a459-e5ae-4b3f-b3bd-101d84944b30,2025-05-18 19:50:41.054755+00,KASE SAKE & SUSHI,,LAS VEGAS,NV,RESTAURANT,ON,5697 S JONES BLVD #220,89118
a4067646-8e0f-4117-8746-2aeb7a18140a,2025-05-18 19:50:41.054755+00,SPOON BAR,,HEALDSBURG,CA,BAR/TAVERN,ON,219 HEALDSBURG AVE,95448
a4f23ea2-e78a-48b4-b252-ab48b3504ee9,2025-05-18 19:50:41.054755+00,SOBE-SIP & SWIRL,,MIAMI,FL,OTHER ON PREMISE,ON,1737 N BAYSHORE DRIVE,33132
a5003d5f-cd83-4f72-b361-b2a1ee0a21af,2025-05-18 19:50:41.054755+00,TEAM #089 WISNER,,UNION CITY,CA,OTHER ON PREMISE,ON,93321 DOWE AVE,94587
a51b0ddb-f12d-47da-af46-755ff6e7c159,2025-05-18 19:50:41.054755+00,MARQUESA HOTEL,,KEY WEST,FL,HOTEL/ MOTEL,ON,600 FLEMING STREET,33040
a51b9730-4a97-4024-8a86-6e333a4df7f6,2025-05-18 19:50:41.054755+00,SUMMER PLACE THE,,SAN FRANCISCO,CA,BAR/TAVERN,ON,801 BUSH ST,94108
a52c7ff1-d28e-41ad-8a96-90a4207a69e1,2025-05-18 19:50:41.054755+00,Loganville Package Store,,Loganville,GA,LIQUOR/PACKAGE STORE,OFF,3967 Atlanta Highway,30052
a551dd22-c203-4bd9-baca-9d546625c3e2,2025-05-18 19:50:41.054755+00,Cocktail Bar & Speakeasy,,Atlanta,GA,RESTAURANT,ON,208 Chattahoochee Row NW,30318
a593c7fa-1db3-4dfd-9710-a543faefeaff,2025-05-18 19:50:41.054755+00,TEDDY WONGS AND BUSHI BUSHI MARKET,,FORT WORTH,TX,RESTAURANT,ON,812 W ROSEDALE ST,76104
a6499311-d62b-4e25-9933-592f4b9a6773,2025-05-18 19:50:41.054755+00,The Grove Wine & Spirits,,Covington,GA,LIQUOR/PACKAGE STORE,OFF,1841 Walnut Grove Pkwy,30014
a64d41bb-c770-413f-b20c-6842ced4bc07,2025-05-18 19:50:41.054755+00,SAKEONE,,FOREST GROVE,OR,LIQUOR/PACKAGE STORE,OFF,820 ELM STREET,97116
a6610bac-08dd-46e4-80f6-675d6a87c151,2025-05-18 19:50:41.054755+00,Duncan Corners Bottle Shoppe,,Flowery Branch,GA,LIQUOR/PACKAGE STORE,OFF,7437 Spout Springs Rd,30542
a6611e3b-4bf6-48e2-b275-e82c8218f464,2025-05-18 19:50:41.054755+00,ALICE RESTAURANT,,NEW YORK,NY,RESTAURANT,ON,126 WEST 13TH ST,10011
a693726d-5ec4-4fc2-a6b3-18a7b1616f45,2025-05-18 19:50:41.054755+00,WEST VAIL LIQUOR MART,,VAIL,CO,LIQUOR/PACKAGE STORE,OFF,2151 N FRONTAGE RD,81657
a6dd3c20-10d2-45d0-85f2-c4032f39b95d,2025-05-18 19:50:41.054755+00,IYASARE,,BERKELEY,CA,RESTAURANT,ON,1830 4TH ST,94710
a6e577b7-b7a0-4e28-8be0-193c11c42d21,2025-05-18 19:50:41.054755+00,RAZEE  SEAN,,DENVER,CO,OTHER OFF PREMISE,OFF,SW&S,80217
a74ef43d-e682-4cf9-bae8-8e7e4f3873b8,2025-05-18 19:50:41.054755+00,DOMODOMO,,DALLAS,TX,RESTAURANT,ON,2681 HOWELL ST BU3,75201
a79d4f01-7176-4f93-8d76-dc31996710e6,2025-05-18 19:50:41.054755+00,ASPEN WINE & SPIRITS,,ASPEN,CO,LIQUOR/PACKAGE STORE,OFF,300 PUPPY SMITH ST,81611
a7a227a0-1e68-486e-9d28-78752a6867a0,2025-05-18 19:50:41.054755+00,MAYFAIR LIQUORS,,DENVER,CO,LIQUOR/PACKAGE STORE,OFF,1385 KRAMERIA ST,80220
a7ba531b-2f09-4746-9eb0-5f07ca25c7e6,2025-05-18 19:50:41.054755+00,ACE,,DENVER,CO,RESTAURANT,ON,501 EAST 17TH AVENUE,80203
a84ccdcb-3e11-42ee-822a-7bf543a5c5ee,2025-05-18 19:50:41.054755+00,PURPLE PATCH,,WASHINGTON,DC,RESTAURANT,ON,3155 MOUNT PLEASANT ST NW 101,20019
a881af12-fc5c-4735-a2ed-ee3e87e64127,2025-05-18 19:50:41.054755+00,General Store 30474,,Vidalia,GA,CONVENIENCE/ GAS,OFF,112 Church St,30474
a8d36fcb-0127-4f8b-b70a-0b94a4bc80d9,2025-05-18 19:50:41.054755+00,THE LIQUOR STORE,,COLORADO SPRINGS,CO,LIQUOR/PACKAGE STORE,OFF,7715 DUBLIN BOULEVARD #140,80923
a8dcf940-1e22-47b2-98a3-e761faffcfa4,2025-05-18 19:50:41.054755+00,Sports Cafe,,Jonesboro,GA,RESTAURANT,ON,8501 Tara Blvd,30236
a971ac8e-86ec-456a-b70e-4cd4cef65b7c,2025-05-18 19:50:41.054755+00,ALL DAY BABY,,LOS ANGELES,CA,RESTAURANT,ON,3200 W SUNSET BL,90026
a98c87da-3a2b-4de8-8090-f61da00a60bc,2025-05-18 19:50:41.054755+00,MORTON WILLIAMS WINE & SPIRITS,,NEW YORK,NY,LIQUOR/PACKAGE STORE,OFF,260 PARK AVE S,10010
a99dbc19-8c3a-41c5-8206-20f200fb5d97,2025-05-18 19:50:41.054755+00,H MART,,PLANO,TX,SUPERMARKET,OFF,3320 K AVENUE,75074
a9b8e932-f8fd-4e72-856b-ffd458feca39,2025-05-18 19:50:41.054755+00,RICKY LIQUOR STORE,,ELMHURST,NY,LIQUOR/PACKAGE STORE,OFF,7818 WOODSIDE AVE,11373
a9fb030d-42b5-41f2-a433-5372cb090494,2025-05-18 19:50:41.054755+00,SAMPLE BRENDAN MCCREA,,SYOSSET,NY,OTHER OFF PREMISE,OFF,W/HOUSE PICK-UP,11791
aa17e3ab-2e84-4b2c-b27d-1068558e8e94,2025-05-18 19:50:41.054755+00,MILAMS MARKET #3,,MIAMI,FL,SUPERMARKET,OFF,2969 SW 32 AVE,33133
aa29558f-1a8f-4911-b977-7829a69980e6,2025-05-18 19:50:41.054755+00,STANDARD MIAMI (THE),,MIAMI BEACH,FL,RESTAURANT,ON,40 ISLAND AVENUE,33139
aa3ee9f5-7cd8-49cd-a571-69b8ddefe57c,2025-05-18 19:50:41.054755+00,Prime 120,,Woodstock,GA,RESTAURANT,ON,120 Chambers Street,30188
aa40b794-660a-442b-b91a-d2e84a6dc3a1,2025-05-18 19:50:41.054755+00,The Bottleshop,,Columbus,GA,LIQUOR/PACKAGE STORE,OFF,101 Southern Way,31904
aab88f0b-0a0a-4b90-b2d7-1a1c733ca820,2025-05-18 19:50:41.054755+00,CENTRAL PARK FINE WINE & SPIRI,,DENVER,CO,LIQUOR/PACKAGE STORE,OFF,2955 ULSTER STREET #101/102,80238
aacd1292-3d26-407c-84c2-efa6ffafcc25,2025-05-18 19:50:41.054755+00,MEDFIELD PACKAGE,,MEDFIELD,MA,LIQUOR/PACKAGE STORE,OFF,20 NORTH ST,02052
aad89da8-1f44-47b3-a75d-87a67add38c7,2025-05-18 19:50:41.054755+00,NICKEL CITY,,AUSTIN,TX,BAR/TAVERN,ON,1133 E 11TH STREET,78702
ab08d172-d087-48ec-9a6a-40aa92052a7d,2025-05-18 19:50:41.054755+00,NYCWFF-GRAND TASTING-SATURDAY,,BROOKLYN,NY,OTHER OFF PREMISE,OFF,80 58TH STREET  PIER 4,11220
ab091b38-dbaf-42b3-b7fe-37b6c7c7ba92,2025-05-18 19:50:41.054755+00,KAPPY S FINE WINE & SPIRITS,,E BOSTON,MA,LIQUOR/PACKAGE STORE,OFF,216 BORDER ST,02128
ab6c4bdb-8291-414b-ae45-2ed99fbc9c49,2025-05-18 19:50:41.054755+00,TEAM #262 LAURO,,CERRITOS,CA,OTHER OFF PREMISE,OFF,17101 VALLEY VIEW AV,90703
ab7f1510-36a5-4098-8fa0-904748f930f9,2025-05-18 19:50:41.054755+00,MADAME USHI,,ASPEN,CO,RESTAURANT,ON,415 EAST HYMAN AVENUE,81611
ab7ff7cb-c272-451d-ba33-ee47033dd033,2025-05-18 19:50:41.054755+00,Affordable Spirits Atlanta,,Atlanta,GA,LIQUOR/PACKAGE STORE,OFF,1151 Chattahoochee Ave,30318
abc001ca-4a04-4943-864e-a3012c9f7cb5,2025-05-18 19:50:41.054755+00,ALAMO CITY WINE MERCHANTS LLC,,SAN ANTONIO,TX,LIQUOR/PACKAGE STORE,OFF,16500 N SAN PEDRO AVE STE 291,78232
abf4344f-8ea9-48c2-94b1-582e5cb54360,2025-05-18 19:50:41.054755+00,BIG JOHN S MARKET,,HEALDSBURG,CA,SUPERMARKET,OFF,1345 HEALDSBURG AVE,95448
ac201e02-078e-45df-ab15-dea452635a5b,2025-05-18 19:50:41.054755+00,Milton Spirits & Wine,,Milton,GA,LIQUOR/PACKAGE STORE,OFF,15840 Brimingham Hwy Ste B,30004
ac5f492e-08da-440b-8ab1-8c725c34c5c6,2025-05-18 19:50:41.054755+00,Capitol City Package Store,,Atlanta,GA,LIQUOR/PACKAGE STORE,OFF,784 Collier Rd NW,30318
ac8956e1-31ca-4e7b-81ba-da66022119d6,2025-05-18 19:50:41.054755+00,WINDMILL FARMS,,SAN DIEGO,CA,SUPERMARKET,OFF,6386 DEL CERRO BL,92120
acb5ca75-3696-498a-a478-3256687da3db,2025-05-18 19:50:41.054755+00,Cru Battery Atlanta,,Atlanta,GA,RESTAURANT,ON,915 Battery Ave SE,30339
ace19da1-a7bd-4d9d-aef8-ec1d1db889bb,2025-05-18 19:50:41.054755+00,Legacy Beverage Center,,Loganville,GA,LIQUOR/PACKAGE STORE,OFF,330 Athens Hwy,30052
acf31062-81a0-47ac-81e7-44f0817ab463,2025-05-18 19:50:41.054755+00,Nitro 2 Go Beverages,,Covington,GA,LIQUOR/PACKAGE STORE,OFF,9135 Martin Luther King Jr Ave,30014
ad626f69-1fdb-4b07-8434-c0cd8f6e8ecd,2025-05-18 19:50:41.054755+00,Abigail Branch,,Austell,GA,NON-RETAIL,OFF,685 Hartman Rd,30168
ad989db7-2790-45e1-b811-62e53bfeb1e1,2025-05-18 19:50:41.054755+00,ASIAN MINT,,DALLAS,TX,RESTAURANT,ON,11617 N CENTRAL EXPY STE 135,75243
ada82870-4091-4ba2-9eef-58352bc484ff,2025-05-18 19:50:41.054755+00,Golden Package,,Summerville,GA,LIQUOR/PACKAGE STORE,OFF,10707 Commerce St,30747
ada90fa0-d340-41f4-acc3-1e6ceb11f9a0,2025-05-18 19:50:41.054755+00,TOTAL BEVERAGE WESTMINSTER,,WESTMINSTER,CO,LIQUOR/PACKAGE STORE,OFF,9359 SHERIDAN BOULEVARD,80031
ae002dd8-9ced-4eda-bd3a-59394b69dbac,2025-05-18 19:50:41.054755+00,KEI,,NEW YORK,NY,RESTAURANT,ON,191 195 7TH AVE,10011
ae1d0e6d-2c4e-4ba5-a4ff-c04d3daa8004,2025-05-18 19:50:41.054755+00,DIMENSION LIQUOR,,LAKE FOREST,CA,LIQUOR/PACKAGE STORE,OFF,20761 LAKE FOREST #J,92630
ae7d8da8-117f-4b0c-95a5-fdc32219578a,2025-05-18 19:50:41.054755+00,Wine & Spirits at Windsor,,Atlanta,GA,LIQUOR/PACKAGE STORE,OFF,464 Windsor St SW Ste 105,30312
ae7fc41b-c7bb-4998-80c2-ee9f6b0df18e,2025-05-18 19:50:41.054755+00,TEAM #032 MAGLIOCCO,,CERRITOS,CA,OTHER OFF PREMISE,OFF,17101 VALLEY VIEW AV,90703
af30770f-8552-40db-8d8c-b7a660b412f8,2025-05-18 19:50:41.054755+00,OMA ROOFTOP LLC,,NEW YORK,NY,CONCESSIONAIRE,ON,1 MADISON AVE,10010
af4474dc-7d73-49a8-b882-0fb0e2f8ca22,2025-05-18 19:50:41.054755+00,STANDARD EAST VILLAGE  THE,,NEW YORK,NY,HOTEL/ MOTEL,ON,25 33 COOPER SQUARE,10003
af56b4ca-3309-4b50-acac-2870b9cf1833,2025-05-18 19:50:41.054755+00,SAMPLE REP RYAN ATKINSON,,SYOSSET,NY,OTHER OFF PREMISE,OFF,W/HOUSE PICK UP,11791
af596b3b-7477-47d0-8716-4346234108f6,2025-05-18 19:50:41.054755+00,County Line Pkg Shop,,Metter,GA,LIQUOR/PACKAGE STORE,OFF,RR 1 Box 272,30439
b00d30db-86fa-4007-ae75-901c38fd9123,2025-05-18 19:50:41.054755+00,Kelsey Hall,,Austell,GA,NON-RETAIL,OFF,685 Hartman Rd,30168
b04804ca-5088-4033-bede-770b2abdc4c6,2025-05-18 19:50:41.054755+00,Jax Beverage Superstore Conyers,,Conyers,GA,LIQUOR/PACKAGE STORE,OFF,1897 Hwy 20 SE,30013
b0d82908-e862-431c-b818-844d5aa58081,2025-05-18 19:50:41.054755+00,TOP SUSHI A,,TOMBALL,TX,RESTAURANT,ON,24435 TOMBALL PARKWAY SUITE 70,77375
b161fcbf-7b35-4473-a061-076ac8ca1184,2025-05-18 19:50:41.054755+00,STREETS MARKET & CAFE - 14TH S,,WASHINGTON,DC,SUPERMARKET,OFF,2400 14TH ST NW,20009
b166b326-9c39-4520-811a-adcedd6a3fe0,2025-05-18 19:50:41.054755+00,ZUMA LAS VEGAS,,LAS VEGAS,NV,RESTAURANT,ON,3708 S LAS VEGAS BLVD,89109
b16a9f47-5d1e-468e-99ce-c3cb4530bbce,2025-05-18 19:50:41.054755+00,WAGON WHEEL LIQUORS,,DURANGO,CO,LIQUOR/PACKAGE STORE,OFF,30 TOWN PLAZA,81301
b16bc441-2077-4df9-b333-b442e400f751,2025-05-18 19:50:41.054755+00,TSURI SUSHI,,LOS ANGELES,CA,RESTAURANT,ON,7015 MELROSE AVE,90038
b2284c1b-622d-444f-81ee-ba54a648eb1f,2025-05-18 19:50:41.054755+00,THE RIVER OYSTER BAR,,MIAMI,FL,RESTAURANT,ON,33 SE 7TH STREET,33131
b22d440e-ceef-4626-97e8-7d805e1681f6,2025-05-18 19:50:41.054755+00,Cork and Flame,,Evans,GA,RESTAURANT,ON,4414 Evans to Lock Rd STE 2,30809
b26510e3-1d58-468b-a1a1-f5852b6b4057,2025-05-18 19:50:41.054755+00,TAO DOWNTOWN,,NEW YORK,NY,BAR/TAVERN,ON,369 WEST 16 ST,10011
b2a9b72b-7113-4536-8a68-e4fcb958103d,2025-05-18 19:50:41.054755+00,SATO/CAFE 163,,EDWARDS,CO,RESTAURANT,ON,0105 EDWARDS VILL BLVD D101,81632
b2c22151-5c21-463c-88a0-ce3e4a6c7b87,2025-05-18 19:50:41.054755+00,ZZ S CLUB NEW YORK,,NEW YORK,NY,RESTAURANT,ON,560 W 33RD ST/55 HUDSON YARDS,10001
b2ebbf26-69f5-4e59-9b95-6486370a0201,2025-05-18 19:50:41.054755+00,UCHI MIAMI,,MIAMI,FL,RESTAURANT,ON,252 NW 25TH ST,33127
b34b6339-385a-4f4f-97a9-b0d5212f5063,2025-05-18 19:50:41.054755+00,H & F Bottle Shop,,Atlanta,GA,RESTAURANT,ON,2357 Peachtree Rd NE Ste 3,30305
b35720b2-6114-4fd4-8106-74ddafb70ee8,2025-05-18 19:50:41.054755+00,Serenbe Wine Shop,,Chattahoochee Hills,GA,LIQUOR/PACKAGE STORE,OFF,9135-B Selbourne Lane,30268
b3a31e06-e84c-49a5-9c19-6bb309f37424,2025-05-18 19:50:41.054755+00,JEREMY GOLDEN,,Austell,GA,NON-RETAIL,OFF,685 Hartman Road,30168
b3abd8bb-f3ef-46ee-a52c-42c24fc87643,2025-05-18 19:50:41.054755+00,JING,,ASPEN,CO,RESTAURANT,ON,413 EAST MAIN STREET,81611
b3b057bd-b71f-432d-8ead-15bcb3701aa6,2025-05-18 19:50:41.054755+00,THORNWOOD WINES & SPIRITS,,THORNWOOD,NY,LIQUOR/PACKAGE STORE,OFF,1004 BROADWAY,10594
b3b80af7-6ce6-42a2-9f5f-74a72b96ab6b,2025-05-18 19:50:41.054755+00,LIQUOR LIBRARY,,FORT WORTH,TX,LIQUOR/PACKAGE STORE,OFF,7433 OAKMONT BLVD,76132
b3bdcea8-fcef-4a90-b70b-e497d07ab958,2025-05-18 19:50:41.054755+00,HAPPY S MARKET & SPIRITS,,LOS ANGELES,CA,LIQUOR/PACKAGE STORE,OFF,807 N AVENUE 50 #11,90042
b3c4c7bb-826b-4a64-a560-49f4500b3488,2025-05-18 19:50:41.054755+00,SAMPLE REP DIANE NEWMAN,,SYOSSET,NY,OTHER OFF PREMISE,OFF,W/HOUSE PICK-UP,11791
b42fce5e-9573-4394-85c3-92f1a8dc8c71,2025-05-18 19:50:41.054755+00,MATY S/ITAMAE AO,,MIAMI,FL,RESTAURANT,ON,3255 NE 1ST AVE,33137
b431d28b-bb60-4e58-a66d-875f79770914,2025-05-18 19:50:41.054755+00,YUJO,,FRISCO,TX,RESTAURANT,ON,16100 STATE HWY 121 BLDG B STE 200,75035
b47a663b-9d88-4799-b888-a9e3661d4e3f,2025-05-18 19:50:41.054755+00,Mink s Package Store,,Marietta,GA,LIQUOR/PACKAGE STORE,OFF,2565 Delk Rd SE  C-1,30067
b4b09008-db9d-4f5b-bf6d-82deccff2b7b,2025-05-18 19:50:41.054755+00,MITSUWA MARKETPLACE,,PLANO,TX,SUPERMARKET,OFF,100 LEGACY DRIVE SUITE 110,75023
b4c4deed-f47e-4b9f-b085-36d3a32af918,2025-05-18 19:50:41.054755+00,JING,,ENGLEWOOD,CO,RESTAURANT,ON,5370 GREENWOOD PLAZA BLVD #101,80111
b531b274-338c-44aa-b6f8-20a693547cf2,2025-05-18 19:50:41.054755+00,GIGI S CFE FIORUCCI,,MOUNT SHASTA,CA,RESTAURANT,ON,610 S MOUNT SHASTA BLVD,96067
b5379d59-ec96-416c-9c50-fa074b30ed30,2025-05-18 19:50:41.054755+00,Jax Package Store,,Decatur,GA,LIQUOR/PACKAGE STORE,OFF,2754 E College Ave,30030
b58ab871-7457-4d59-9c17-f01ed0c84170,2025-05-18 19:50:41.054755+00,Green s Northeast,,Atlanta,GA,LIQUOR/PACKAGE STORE,OFF,2614 Buford Hwy NE,30324
b5dc54f2-dfe3-44c5-9c08-a3a8b9e1c276,2025-05-18 19:50:41.054755+00,SUSHIHANA JAPANESE RESTAURANT,,CASTLE HILLS,TX,RESTAURANT,ON,1810 NW MILITARY,78213
b5e4a6ba-3767-4080-a5b1-9b156873669b,2025-05-18 19:50:41.054755+00,DUEMANI,,ASPEN,CO,RESTAURANT,ON,216 SOUTH MONARCH STREET,81611
b6005889-f559-452b-8035-059d0eeeaa5c,2025-05-18 19:50:41.054755+00,NYCWFF-ASIAN BITES-FRIDAY,,NEW YORK,NY,OTHER OFF PREMISE,OFF,117 WEST STREET,10006
b6291b1d-50a0-4bdc-9ee6-981a77ca8095,2025-05-18 19:50:41.054755+00,NORTH GEORGIA LIQUOR INC,,Clarkesville,GA,LIQUOR/PACKAGE STORE,OFF,200 E LOUISE ST,30523
b6830543-7c32-4e6b-a202-28ef8dc326a7,2025-05-18 19:50:41.054755+00,Mai Kitchen,,Atlanta,GA,RESTAURANT,ON,1040 N. Highland Ave. NE,30306
b6bd01a8-1bc2-46ec-9a23-4df3b383be0e,2025-05-18 19:50:41.054755+00,THE BLUE FISH,,IRVING,TX,RESTAURANT,ON,320 WEST LAS COLINAS BLVD SUITE 110,75039
b6cb1724-9b5e-4a82-80d4-1993b3d4e0a0,2025-05-18 19:50:41.054755+00,EVERGREEN DISCOUNT LIQUORS,,EVERGREEN,CO,LIQUOR/PACKAGE STORE,OFF,3847 EVERGREEN PARKWAY,80439
b70dc1e1-366c-43f8-8246-cf893a236411,2025-05-18 19:50:41.054755+00,7 WINE 6 INC,,BUFFALO,NY,LIQUOR/PACKAGE STORE,OFF,912 ELMWOOD AVE,14222
b7226212-e309-4145-b441-73ecc9dbe7e1,2025-05-18 19:50:41.054755+00,Lingering Shade Social Club,,Atlanta,GA,RESTAURANT,ON,660 Irwin St NE,30312
b7236a05-5ddc-40fd-b94f-684d854c638b,2025-05-18 19:50:41.054755+00,Port City Spirit,,Port Wentworth,GA,LIQUOR/PACKAGE STORE,OFF,6 Magnolia Blvd,31407
b7549e8d-fe27-487e-86b9-b2a039ac1d8a,2025-05-18 19:50:41.054755+00,LOEWS CORAL GABLES HOTEL,,CORAL GABLES,FL,HOTEL/ MOTEL,ON,2950 COCONUT GROVE DRIVE,33134
b7df242d-d902-4f2f-81e3-6a8c131fe307,2025-05-18 19:50:41.054755+00,GENGHIS COHEN,,LOS ANGELES,CA,RESTAURANT,ON,734-36-38-40-42 N FAIRFAX AVE,90046
b819d90b-b2c3-49c1-80af-2ddaac2d7066,2025-05-18 19:50:41.054755+00,CASA TUA ASPEN,,ASPEN,CO,RESTAURANT,ON,403 S GALENA ST,81611
b8500e79-f07a-4385-bd1e-36053c4e558d,2025-05-18 19:50:41.054755+00,PEARL DRAGON,,PACIFIC PALISADES,CA,RESTAURANT,ON,15229 SUNSET BL,90272
b874f4f9-2a07-4280-aec2-9c05cc20f8ce,2025-05-18 19:50:41.054755+00,TEAM #089 AVILA  DUART,,UNION CITY,CA,OTHER OFF PREMISE,OFF,33321 DOWE AVE,94587
b87c3669-0977-49c9-bed8-69909165ee19,2025-05-18 19:50:41.054755+00,HIGHLANDS ALEHOUSE,,ASPEN,CO,RESTAURANT,ON,0133 PROSPECTOR ROAD STE 4114B,81611
b8891079-6ae4-40b1-8723-c8610a8aec9e,2025-05-18 19:50:41.054755+00,PAPERFISH,,MIAMI BEACH,FL,RESTAURANT,ON,432 ESPANOLA WAY,33139
b89769d3-91dc-4824-a8e9-0b243489d5a2,2025-05-18 19:50:41.054755+00,BAR SNACK,,NEW YORK,NY,BAR/TAVERN,ON,92 2ND AVE,10003
b8bae78f-d34c-44e7-bed8-0f629d5ff6d6,2025-05-18 19:50:41.054755+00,NYCWFF-NARO DINNER THURS.,,NEW YORK,NY,OTHER OFF PREMISE,OFF,610 5TH AVENUE  #04,10020
b8f0ee79-af02-4e30-9a77-4ffbcb46cd2f,2025-05-18 19:50:41.054755+00,SPRING STREET WINE SHOP,,NEW YORK,NY,LIQUOR/PACKAGE STORE,OFF,187 SPRING ST,10012
b901b780-ac4c-4a0e-be03-064ed7bab22b,2025-05-18 19:50:41.054755+00,CORK & BREW MARKET,,AUSTIN,TX,CONVENIENCE/ GAS,OFF,2700 S CONGRESS AVE,78704
b9049e4c-d9c7-4813-b283-2118e7bdbdb1,2025-05-18 19:50:41.054755+00,CHINA GARDEN,,AVON,CO,RESTAURANT,ON,100 WEST BEAVER CREEK BLVD 125,81620
b9388ef4-e3e4-4780-bb9a-adb11deafc51,2025-05-18 19:50:41.054755+00,Peach State Bottle Shop,,Commerce,GA,LIQUOR/PACKAGE STORE,OFF,3260 Maysville Rd,30529
b954d72d-fe78-4f4c-a65a-54401b8521a0,2025-05-18 19:50:41.054755+00,MARIGOLD CLUB,,HOUSTON,TX,RESTAURANT,ON,2531 KUESTER STREET,77006
ba10614b-9d00-4c5f-8f71-c3f02469ce7a,2025-05-18 19:50:41.054755+00,LITTLES LIQUORS INC,,DENVER,CO,LIQUOR/PACKAGE STORE,OFF,2390 S DOWNING STREET,80210
ba362aba-b0da-48ad-96e7-770db0da1881,2025-05-18 19:50:41.054755+00,World Beverage (Cumming),,Cumming,GA,LIQUOR/PACKAGE STORE,OFF,6190 GA Highway 400,30028
ba4c7260-c4bc-4b11-b25e-0eb2bde99f73,2025-05-18 19:50:41.054755+00,MARC CABALLERO,,Austell,GA,NON-RETAIL,OFF,685 Hartman Road,30168
ba6029dd-8a27-4b67-b770-701d4bdd61ab,2025-05-18 19:50:41.054755+00,REMEDY LIQUOR,,GLENDALE,CA,LIQUOR/PACKAGE STORE,OFF,1700 W GLENOAKS BLVD  UNIT B,91203
ba73a89a-d633-438f-8bdf-b1b520b6ee23,2025-05-18 19:50:41.054755+00,MISOHAPPY LLC,,KEY WEST,FL,RESTAURANT,ON,504 SOUTHARD ST,33040
baba268b-db21-4be2-818e-f3e8eb30fe1a,2025-05-18 19:50:41.054755+00,THE DREY HOTEL,,DALLAS,TX,HOTEL/ MOTEL,ON,5630 VILLAGE GLEN DR,75206
bacaea71-5257-4043-a2b2-b4e000a7ef03,2025-05-18 19:50:41.054755+00,Bella Napoli Savannah,,Savannah,GA,RESTAURANT,ON,18 E State St,31401
bad59143-1b43-4aa5-aa49-9940db9d6f38,2025-05-18 19:50:41.054755+00,K & L WINE MERCHANTS,,LOS ANGELES,CA,LIQUOR/PACKAGE STORE,OFF,1400-1408 VINE ST,90028
bbb76d4c-410d-4095-b3cf-c5e5f50b2781,2025-05-18 19:50:41.054755+00,KAPPY S FINE WINE & SPIRITS,,NORWELL,MA,LIQUOR/PACKAGE STORE,OFF,104 WASHINGTON ST,02061
bbc4a754-7aaf-4096-9c4d-4d6eeb0a2119,2025-05-18 19:50:41.054755+00,2246 UNCLASSIFIED ACCOUNT,,Dallas,TX,UNASSIGNED,,4849 Alpha Rd Ste 100,75244
bbde83aa-f1f4-4aa3-b006-35c928ccb503,2025-05-18 19:50:41.054755+00,YUZU JAPANESE RESTAUARANT AND BAR,,ROCKWALL,TX,RESTAURANT,ON,2101 SUMMER LEE DR SUITE 105,75032
bc1d52f8-b542-4878-8789-435dd98b7ded,2025-05-18 19:50:41.054755+00,NATIVO,,LOS ANGELES,CA,RESTAURANT,ON,5137 YORK BLVD,90042
bc21ec8c-6f29-46e6-b5fd-dd7cddfcf0b4,2025-05-18 19:50:41.054755+00,La Grotta Restaurant (Pchtree),,Atlanta,GA,RESTAURANT,ON,2637 Peachtree Rd,30305
bc3d94fe-ba6c-4829-84f1-f473ffb145b8,2025-05-18 19:50:41.054755+00,PINYON TREE LIQUORS,,RANGELY,CO,LIQUOR/PACKAGE STORE,OFF,321 E MAIN ST 3 AND 4,81648
bc6d35c8-91aa-42cf-912c-29a210c51ab9,2025-05-18 19:50:41.054755+00,CAMPUS WEST LIQUOR DEPOT,,FORT COLLINS,CO,LIQUOR/PACKAGE STORE,OFF,1107 CITY PARK AVENUE,80521
bc976312-a727-488f-bf6a-b6d62a4fa2b4,2025-05-18 19:50:41.054755+00,LOUIE S,,SAN FRANCISCO,CA,BAR/TAVERN,ON,55 STEVENSON ST,94105
bcca5dcf-aa85-4dc0-826f-b6e26d2e77d2,2025-05-18 19:50:41.054755+00,LOBSTER CLUB  THE,,NEW YORK,NY,RESTAURANT,ON,375 PARK AVE,10022
bd05b0fe-7479-451a-8e4c-1b32c918296e,2025-05-18 19:50:41.054755+00,Brass Tap,,Dunwoody,GA,RESTAURANT,ON,#32 4505 Ashford Dunwoody Rd,30346
bd1dc828-7e59-4344-8419-53a085cb1729,2025-05-18 19:50:41.054755+00,Z&Z Package Store,,Locust Grove,GA,LIQUOR/PACKAGE STORE,OFF,4898 Bill Gardner Pkwy,30248
bdf3000b-2f24-4a8b-9ee6-b83301a587de,2025-05-18 19:50:41.054755+00,LODGE AT SONOMA,,SONOMA,CA,HOTEL/ MOTEL,ON,1325 BROADWAY,95476
bdf8720e-83c8-4224-86b4-f63f69e714f6,2025-05-18 19:50:41.054755+00,Marietta Melt Yard,,Marietta,GA,RESTAURANT,ON,800 Whitlock Ave NW Ste 124,30064
be5b9124-9504-4479-b85f-d0cdce8b7199,2025-05-18 19:50:41.054755+00,NIMA ALAHMAD,,Austell,GA,NON-RETAIL,OFF,685 Hartman Road,30168
bebb1e29-1191-47e1-a4c3-e275fb890f02,2025-05-18 19:50:41.054755+00,PUB AT DONNER LAKE THE,,TRUCKEE,CA,RESTAURANT,ON,15963 S SHORE DR,96161
bef2da66-52d2-46f6-b00f-588429a388f7,2025-05-18 19:50:41.054755+00,Brush Sushi Buckhead,,Atlanta,GA,RESTAURANT,ON,3035 Peachtree Rd NE Ste G140,30305
bf453fcd-5efe-4ecf-9713-0e4f3774029a,2025-05-18 19:50:41.054755+00,A&M Beverage Company,,Grovetown,GA,LIQUOR/PACKAGE STORE,OFF,437 Lewiston Rd Ste 6,30813
bf530b67-902b-4ff8-a203-9559f9d133df,2025-05-18 19:50:41.054755+00,SAKE ONO/PARK STREET IMP -SAMP,,DALLAS,TX,OTHER ON PREMISE,ON,5286 PO BX 660367,75266
bf93b329-213b-461c-833d-7ebe227aca51,2025-05-18 19:50:41.054755+00,LEE S LIQUOR #21 EL CAPITAN,,LAS VEGAS,NV,LIQUOR/PACKAGE STORE,OFF,7752 N EL CAPITAN WAY,89143
bfa47b67-27db-4f6d-8267-b27286ebd7ed,2025-05-18 19:50:41.054755+00,SPACE BISTRO,,ROCKLAND,MA,BAR/TAVERN,ON,323 UNION ST,02370
bfc3aa99-516a-4d40-a62c-86e65df0e0fc,2025-05-18 19:50:41.054755+00,NIKU X LOS ANGELES,,LOS ANGELES,CA,RESTAURANT,ON,900 WILSHIRE BLVD STE 212,90017
bfd54d56-ef93-49ed-b28d-7461a43abeba,2025-05-18 19:50:41.054755+00,ONTEORA MOUNTAIN HOUSE,,BOICEVILLE,NY,CONCESSIONAIRE,ON,96 PINEY POINT ROAD,12412
c05234fb-4717-4995-8ffd-475086676490,2025-05-18 19:50:41.054755+00,KYU,,MIAMI,FL,RESTAURANT,ON,251 NW 25 STREET,33127
c0563391-f83e-42b1-a5bd-7820ede7bc59,2025-05-18 19:50:41.054755+00,LODGE AT PEBBLE BEACH,,PEBBLE BEACH,CA,HOTEL/ MOTEL,ON,LODGE AT PEBBLE BEACH,93953
c0dead8a-d788-4886-ac30-911376c3e535,2025-05-18 19:50:41.054755+00,PRINCE STREET WINE & LIQUOR,,FLUSHING,NY,LIQUOR/PACKAGE STORE,OFF,37-20 PRINCE STREET STORE #1B,11354
c0e178df-d47a-4e15-a344-ee5f8156eece,2025-05-18 19:50:41.054755+00,Hills Package Store,,Atlanta,GA,LIQUOR/PACKAGE STORE,OFF,2055 N Druid Hills Rd Ne Ste B,30329
c1487e73-708b-4487-8e5b-c143a3f6a017,2025-05-18 19:50:41.054755+00,SPACE KARAOKE,,NEW YORK,NY,BAR/TAVERN,ON,34 W 32ND ST,10001
c1931e15-cac2-483d-823b-6eb2ce82f03c,2025-05-18 19:50:41.054755+00,Drip and Drop,,Woodstock,GA,LIQUOR/PACKAGE STORE,OFF,11289 Highway 92,30188
c193bd65-eda7-4705-8865-f34640a72c8b,2025-05-18 19:50:41.054755+00,PINEY WINE & SPIRITS,,KITTREDGE,CO,LIQUOR/PACKAGE STORE,OFF,26289 HIGHWAY 74,80457
c1b34917-c0aa-44ce-930b-9fb7ddf386a9,2025-05-18 19:50:41.054755+00,VSZ Liquores LLC,,Richmond Hill,GA,LIQUOR/PACKAGE STORE,OFF,1349 Harris Trail Rd,31322
c1c37809-f42c-48dd-8f46-5d62ab12ca6d,2025-05-18 19:50:41.054755+00,MAISON MURA,,MIAMI,FL,BAR/TAVERN,ON,333 SE 3RD AVENUE,33131
c2503569-8abd-4be1-a68e-fd7c064853d3,2025-05-18 19:50:41.054755+00,EVERYWINE,,HOUSTON,TX,BAR/TAVERN,ON,1111 HEIGHTS BLVD UNIT 2,77008
c2682436-5e8d-4704-b0ae-5ef08ab61405,2025-05-18 19:50:41.054755+00,GOLDEN TIKI,,LAS VEGAS,NV,BAR/TAVERN,ON,3939 SPRING MTN RD,89102
c283164c-ed05-45d3-bb35-263bb5789b1b,2025-05-18 19:50:41.054755+00,NORMANDIE WINES,,NEW YORK,NY,LIQUOR/PACKAGE STORE,OFF,1834 SECOND AVE,10128
c29faea1-7fd0-4ecc-aa76-4d6ee29b8a7c,2025-05-18 19:50:41.054755+00,Reverb Hotel Atlanta,,Atlanta,GA,HOTEL/ MOTEL,ON,89 Centennial Olympic Park Drive NW,30313
c2b7ce53-2796-4df2-92a2-0f3a6c1f3cc3,2025-05-18 19:50:41.054755+00,MARTIN BROTHERS WINE & SPIRITS,,NEW YORK,NY,LIQUOR/PACKAGE STORE,OFF,2781 BROADWAY,10025
c3227698-0c65-4123-8639-aa8eecb1ee52,2025-05-18 19:50:41.054755+00,CRAIG S RESTAURANT,,WEST HOLLYWOOD,CA,RESTAURANT,ON,8826 MELROSE AV,90069
c351b8c2-2c7a-4a38-8696-6b977a058554,2025-05-18 19:50:41.054755+00,Savi - Emory,,Atlanta,GA,LIQUOR/PACKAGE STORE,OFF,1593 N Decatur Rd NE,30307
c378a6d9-4a1f-4bcb-8ae4-d5cfb321a75f,2025-05-18 19:50:41.054755+00,FLASK HP,,LOS ANGELES,CA,LIQUOR/PACKAGE STORE,OFF,5900 N FIGUEROA ST,90042
c3f71f3b-ff74-4675-ae0c-5eb57bfe7a3f,2025-05-18 19:50:41.054755+00,MARTINIQUE ON BROADWAY,,NEW YORK,NY,HOTEL/ MOTEL,ON,1260 BROADWAY,10001
c434c933-0b00-4e2c-b731-2708f64de627,2025-05-18 19:50:41.054755+00,SENDSIPS,,BENICIA,CA,LIQUOR/PACKAGE STORE,OFF,736 1ST STREET,94510
c462cdae-2a15-4b70-a8fa-97bf457de484,2025-05-18 19:50:41.054755+00,TEAM #003 OPEN,,UNION CITY,CA,OTHER OFF PREMISE,OFF,33321 DOWE AVE,94587
c46b7435-5563-424b-8a5e-5025f97658b9,2025-05-18 19:50:41.054755+00,Buford Hwy Farmers Market,,Doraville,GA,SUPERMARKET,OFF,5600 Buford Hwy NE Ste Z,30340
c5538845-e6d7-4369-a0f1-95b3231f9ff3,2025-05-18 19:50:41.054755+00,Foxhall Additional Facility,,Douglasville,GA,GOLF/ COUNTRY CLUB,ON,8000 Capps Ferry Rd,30135
c57fae86-4777-4a5d-832e-21c683f8fc81,2025-05-18 19:50:41.054755+00,Spring Road Package,,Smyrna,GA,LIQUOR/PACKAGE STORE,OFF,1669 A Spring Road SE,30080
c5c346fe-2af3-4559-a357-6913ec927a17,2025-05-18 19:50:41.054755+00,LEE S LIQUOR #3 LAKE MEAD,,LAS VEGAS,NV,LIQUOR/PACKAGE STORE,OFF,7411 W LAKE MEAD BLVD,89128
c5d5ef74-759a-45bb-98ec-8c38602ab472,2025-05-18 19:50:41.054755+00,GLASS BOX,,SAN DIEGO,CA,RESTAURANT,ON,12841 EL CAMINO REAL #203-211,92130
c62ab825-4575-4b9c-bafc-1f019eaf86b2,2025-05-18 19:50:41.054755+00,20696 UNCLASSIFIED ACCOUNT,,Houston,TX,UNASSIGNED,,9350 E Point Dr,77054
c657305f-bd45-4076-afb3-fa5ba49a365b,2025-05-18 19:50:41.054755+00,Four Seasons Hotel Atl,,Atlanta,GA,HOTEL/ MOTEL,ON,75 14th Street NE,30309
c69d8ac1-3f40-4ea5-a3dd-24b913fe0704,2025-05-18 19:50:41.054755+00,RESORTS WORLD LAS VEGAS,,LAS VEGAS,NV,HOTEL/ MOTEL,ON,3000 S LAS VEGAS BLVD,89109
c6cbfa18-69d0-43a3-9e9a-26e0311e4f06,2025-05-18 19:50:41.054755+00,SGWS-HOUSE SAMPLE M02(SUPP) ON,,MIAMI,FL,OTHER ON PREMISE,ON,1600 NW 163RD ST,33169
c6e0e16b-6b40-4414-9ea7-16539ed10026,2025-05-18 19:50:41.054755+00,SAMPLE REP JACKLYN MCFARLAND,,SYOSSET,NY,OTHER OFF PREMISE,OFF,A/HOUSE PICK UP,11791
c6e1db6c-5a83-4762-83f4-82341b3e8c20,2025-05-18 19:50:41.054755+00,MR B S TAVERN,,WEST PALM BEACH,FL,BAR/TAVERN,ON,5201 GEORGIA AVE,33405
c7344540-69f0-4020-8f30-33fd6a72a582,2025-05-18 19:50:41.054755+00,CARIBOU CLUB LTD,,ASPEN,CO,GOLF/ COUNTRY CLUB,ON,411 E HOPKINS,81611
c7b3d05a-7094-457f-832f-23b09aa99f59,2025-05-18 19:50:41.054755+00,LEE S LIQUOR #7 W FLAMINGO,,LAS VEGAS,NV,LIQUOR/PACKAGE STORE,OFF,9355 W FLAMINGO RD,89147
c84cb07e-6777-4d2a-aa71-0d44544f0ec5,2025-05-18 19:50:41.054755+00,COUNTRY CLUB OF FLA (THE),,VILLAGE OF GOLF,FL,GOLF/ COUNTRY CLUB,ON,22 COUNTRY ROAD,33436
c92ac313-5e5f-437c-883d-baaaf708ada7,2025-05-18 19:50:41.054755+00,Summit Stores,,West Point,GA,LIQUOR/PACKAGE STORE,OFF,1920 GA Hwy 18,31833
c956e3b1-7f22-4460-987b-c90c0c027cbc,2025-05-18 19:50:41.054755+00,VILLAGE MARKET,,CARMEL VALLEY,CA,SUPERMARKET,OFF,12 E CARMEL VALLEY RD,93924
c971319c-14c8-4e6e-afd2-c582339e4331,2025-05-18 19:50:41.054755+00,TOP SHELF WINE & SPIRITS,,LAS VEGAS,NV,LIQUOR/PACKAGE STORE,OFF,6415 S FORT APACHE RD STE 100,89148
c974ba4b-2473-49da-8637-e318ac679d60,2025-05-18 19:50:41.054755+00,LEEVERS LOCAVORE,,DENVER,CO,SUPERMARKET,OFF,2630 W 38TH AVENUE SUITE 101,80211
c97d7459-906f-4ac1-8651-db9de09ee8d6,2025-05-18 19:50:41.054755+00,LITTLE DOMS,,LOS ANGELES,CA,RESTAURANT,ON,2128 HILLHURST AV,90027
c9b0bbd3-e3f8-4647-a965-5a977acf48d8,2025-05-18 19:50:41.054755+00,APOTHEKE,,NEW YORK,NY,BAR/TAVERN,ON,1141 BROADWAY,10001
c9f543b9-7ebc-4203-a353-94f57ad1fa01,2025-05-18 19:50:41.054755+00,NORTH,,PLANO,TX,RESTAURANT,ON,7501 WINDROSE AVENUE SUITE D190,75024
c9f71a57-d489-4174-9cee-293826af1333,2025-05-18 19:50:41.054755+00,LOEW S CORONADO BAY,,CORONADO,CA,HOTEL/ MOTEL,ON,4000 CORONADO BAY RD,92118
c9fb8617-3078-4d47-a339-2ed5d21075de,2025-05-18 19:50:41.054755+00,YAMA IZAKAYA & SUSHI B,,CARROLLTON,TX,RESTAURANT,ON,2625 OLD DENTON ROAD SUITE 920,75007
ca3d4c2c-f191-4a56-9d4a-4f10164292e9,2025-05-18 19:50:41.054755+00,CORKED,,LONG BEACH,CA,LIQUOR/PACKAGE STORE,OFF,4100 ATLANTIC AVE,90807
ca4be02f-0698-4fdc-a702-1cebb767474e,2025-05-18 19:50:41.054755+00,SGWS-HOUSE SMP  O03(NEW PROD),,ORLANDO,FL,OTHER OFF PREMISE,OFF,7101 TPC DRIVE SUITE 150,32822
cad391b6-4528-4cb6-bb32-23d2d4b5d646,2025-05-18 19:50:41.054755+00,AC Hotel By Marriott Buckhead,,Atlanta,GA,HOTEL/ MOTEL,ON,3586 Peachtree Rd NE,30326
cb6b09b9-5891-43cd-a1b6-8decfe302e02,2025-05-18 19:50:41.054755+00,JIM NICHOLS,,Austell,GA,NON-RETAIL,OFF,685 Hartman Road,30168
cb905942-ead9-4160-af12-902e321db712,2025-05-18 19:50:41.054755+00,SAMPLE AGUSTINA HOBBS,,SYOSSET,NY,OTHER OFF PREMISE,OFF,W/HOUSE PICK UP,11791
cbcab4e9-1ea2-48d4-a455-71431279d7a7,2025-05-18 19:50:41.054755+00,SLATE BISTRO & CRAFT BAR,,CAMARILLO,CA,RESTAURANT,ON,4850 SANTA ROSA RD,93012
cbe3accb-69b2-419e-a950-6fc211a459de,2025-05-18 19:50:41.054755+00,MISSION CEVICHE,,NEW YORK,NY,RESTAURANT,ON,5 7 E 17TH ST,10003
cc5b67b2-f5dc-4ce0-b694-8db3a89f4e27,2025-05-18 19:50:41.054755+00,7 DAYS LIQUOR,,GLENDALE,CA,LIQUOR/PACKAGE STORE,OFF,1700 VICTORY BL,91201
ccbc4346-a41c-4eff-85ca-a48dafce36db,2025-05-18 19:50:41.054755+00,ASNES  MATT,,DENVER,CO,OTHER OFF PREMISE,OFF,SW&S,80217
ccca3bad-4d85-497a-9ac9-2f9adb3da5d3,2025-05-18 19:50:41.054755+00,MOXY LES,,NEW YORK,NY,HOTEL/ MOTEL,ON,141 151 BOWERY,10002
cd3afb41-1242-4739-aca5-f24d19516fb3,2025-05-18 19:50:41.054755+00,TNT Package Store,,Holly Springs,GA,LIQUOR/PACKAGE STORE,OFF,5329 Holly Springs Pkwy,30188
cd430dc2-4a23-4c64-83bb-56155a8c7e97,2025-05-18 19:50:41.054755+00,AMBASSADOR WINES & SPIRITS,,NEW YORK,NY,LIQUOR/PACKAGE STORE,OFF,1020 2ND AVENUE,10022
ce437e0a-2cef-4aa7-9db3-9f65f155c0fd,2025-05-18 19:50:41.054755+00,BREMERS WINE & LIQUOR,,NEW HARTFORD,NY,LIQUOR/PACKAGE STORE,OFF,4684 COMMERCIAL DR,13413
ce92e174-1f32-45d3-8197-0e7f432f45b8,2025-05-18 19:50:41.054755+00,PARK ST/CRAFT&ARTS TRANSFER,,MIAMI,FL,OTHER OFF PREMISE,OFF,1000 BRICKELL AVENUE SUITE 915,33131
ceaab066-4c68-4acf-8591-4670eda4a33e,2025-05-18 19:50:41.054755+00,LITTLE MORE,,NEW YORK,NY,BAR/TAVERN,ON,111 READE ST,10013
cf8e330c-332b-40c9-9143-47619969010a,2025-05-18 19:50:41.054755+00,FISHERS LIQUOR BARN,,GRAND JUNCTION,CO,LIQUOR/PACKAGE STORE,OFF,2438 PATTERSON ROAD,81505
cfa33880-1da4-4c89-94c0-99ca95870f5d,2025-05-18 19:50:41.054755+00,SARATOGA WINE EXCHANGE THE,,BALLSTON LAKE,NY,LIQUOR/PACKAGE STORE,OFF,43 D ROUND LAKE RD,12019
cfaf8cd0-6f4f-4209-9817-5fa1d9d84371,2025-05-18 19:50:41.054755+00,ZZ S,,NEW YORK,NY,RESTAURANT,ON,560 W 33RD ST/55 HUDSON YARDS,10001
cfc8502d-6a0f-484a-a50e-1e16a468a6d0,2025-05-18 19:50:41.054755+00,ROBERT S OF WOODSIDE,,WOODSIDE,CA,SUPERMARKET,OFF,3015 WOODSIDE RD,94062
cfff3fe2-53cc-4faf-ba3b-e2c088675f2f,2025-05-18 19:50:41.054755+00,DUNE DECK  THE,,WESTHAMPTON BEACH,NY,HOTEL/ MOTEL,ON,379 DUNE RD,11978
d008133f-f41b-422f-9120-946cd94c8bdd,2025-05-18 19:50:41.054755+00,SOBE-DANIEL BOULUD DINNER,,MIAMI,FL,OTHER ON PREMISE,ON,255 BISCAYNE BLVD WAY,33015
d0110b12-ed87-4f39-9608-c1aeb30a0351,2025-05-18 19:50:41.054755+00,HIGH MOUNTAIN LIQUOR,,GUNNISON,CO,LIQUOR/PACKAGE STORE,OFF,901 N MAIN STREET,81230
d029808c-8286-4c30-95b4-4cdee736599f,2025-05-18 19:50:41.054755+00,Barrel Town,,Sandy Springs,GA,LIQUOR/PACKAGE STORE,OFF,6300 Powers Ferry Rd Ste 500,30339
d06b949e-89a1-489c-9391-8d8db9c0b2cb,2025-05-18 19:50:41.054755+00,KOJIN NOODLE BAR,,KEY WEST,FL,RESTAURANT,ON,422 EATON STREET,33040
d071a227-3bfd-4edf-8075-81afddd4a8ff,2025-05-18 19:50:41.054755+00,KAIYO,,ISLAMORADA,FL,RESTAURANT,ON,81701 OLD HIGHWAY,33036
d08e232d-baa9-403c-bea4-7e9a57a67945,2025-05-18 19:50:41.054755+00,OWA,,VENICE,CA,RESTAURANT,ON,1635-1637 ABBOT KINNEY BLVD,90291
d0b764d9-ce05-4d99-8218-aab1a6b434af,2025-05-18 19:50:41.054755+00,Savannah World of Beverages,,Savannah,GA,LIQUOR/PACKAGE STORE,OFF,1900 Benton Blvd  Ste 101,31407
d0c6b682-8c95-4424-bdc7-5af300b6f15c,2025-05-18 19:50:41.054755+00,Matthew Spengler,,Austell,GA,NON-RETAIL,OFF,685 Hartman Road,30168
d0d046e0-2af6-4f12-a73e-61cdf5dc6053,2025-05-18 19:50:41.054755+00,ST JAMES GATE,,BELMONT,CA,RESTAURANT,ON,1410 OLD COUNTY RD,94002
d0e02881-33e4-4030-98e9-dcd304d5e4a4,2025-05-18 19:50:41.054755+00,COPPER & MALT - ON PREMISE,,EMERYVILLE,CA,BAR/TAVERN,ON,5659 BAY ST,94608
d14331b0-773d-43f4-887b-ca92da0414f8,2025-05-18 19:50:41.054755+00,BELLY UP ASPEN,,ASPEN,CO,BAR/TAVERN,ON,450 S GALENA ST  #2,81611
d152e5e1-de66-493b-9b6b-b479a6fc73f5,2025-05-18 19:50:41.054755+00,Village Spirit Shoppe,,Pooler,GA,LIQUOR/PACKAGE STORE,OFF,100 Moonlight Ln  Ste B,31322
d15cce1a-c10b-49a0-8159-37112ef2e400,2025-05-18 19:50:41.054755+00,SAMPLE GINA BOGGIO,,SYOSSET,NY,OTHER OFF PREMISE,OFF,W/HOUSE PICK-UP,11791
d1694a29-4697-4104-8731-2bfab60d1f28,2025-05-18 19:50:41.054755+00,CRAFT & ART WINES & SPIRITS/PA,,MIAMI,FL,OTHER OFF PREMISE,OFF,1000 BRICKELL AVENUE SUITE 915,33131
d18932c8-46cf-4b50-891c-151a0188b789,2025-05-18 19:50:41.054755+00,Super H Market Duluth,,Duluth,GA,SUPERMARKET,OFF,2550 Pleasant Hill Rd,30096
d1b92965-f8eb-4933-811d-6d893f7b8078,2025-05-18 19:50:41.054755+00,LAWLER S LIQUORS,,NAPA,CA,LIQUOR/PACKAGE STORE,OFF,2232 JEFFERSON ST,94559
d2322370-d234-4d55-b903-5a3a687c5bcc,2025-05-18 19:50:41.054755+00,POTTER LIQUOR,,FRIENDSWOOD,TX,LIQUOR/PACKAGE STORE,OFF,412 N FRIENDSWOOD DRIVE,77546
d23c7282-ccb1-4728-9e98-eb2c61762359,2025-05-18 19:50:41.054755+00,K & L (SPIRITS),,REDWOOD CITY,CA,LIQUOR/PACKAGE STORE,OFF,3005 EL CAMINO REAL,94061
d2a4a017-b9c9-498d-b816-7305dca4d74a,2025-05-18 19:50:41.054755+00,RENEE S LIQUOR & MARKET,,WALNUT,CA,LIQUOR/PACKAGE STORE,OFF,800 NOGALES ST,91789
d2c60d2b-a17e-4590-a66d-0df035383e04,2025-05-18 19:50:41.054755+00,Bootliquors  LLC,,Statesboro,GA,LIQUOR/PACKAGE STORE,OFF,2823 Northside Dr W,30458
d338ae4f-88d0-4965-b43d-d395094534c3,2025-05-18 19:50:41.054755+00,BLAKE ST. LIQUOR,,DENVER,CO,LIQUOR/PACKAGE STORE,OFF,1432 BLAKE STREET,80202
d33eb801-07f4-469f-88cb-00a2c620583a,2025-05-18 19:50:41.054755+00,Pasha Restaurant,,Atlanta,GA,RESTAURANT,ON,631 Miami Circle NE #7,30324
d34c25f5-cd21-4132-b89c-f9a52d2dea08,2025-05-18 19:50:41.054755+00,WASHINGTON SQUARE TAVERN,,BROOKLINE,MA,BAR/TAVERN,ON,714 WASHINGTON ST,02446
d35cf2c8-669e-4ef8-bf86-1089bde12ffa,2025-05-18 19:50:41.054755+00,URBAN ROOTS BREWING,,SACRAMENTO,CA,RESTAURANT,ON,1409 R ST STE #102,95814
d37c4168-fab3-4525-8d47-2ab1ba4eb36d,2025-05-18 19:50:41.054755+00,SUNSET HARBOR RESTAURANT LLC,,EAST HAMPTON,NY,RESTAURANT,ON,313 3 MILE HARBOR HOG CREEK RD,11937
d3ad9291-828c-4cee-a2c4-92ae48296533,2025-05-18 19:50:41.054755+00,Doraville Liquor Store  (TOWER),,Doraville,GA,WHOLESALE CLUB,OFF,5877 Buford Hwy NE,30340
d3bb8cd9-0a68-43bf-96e8-f56279fd3496,2025-05-18 19:50:41.054755+00,MOTHERTONGUE/MINA,,LOS ANGELES,CA,RESTAURANT,ON,960 N LA BREA AVE 4TH & 5TH FL,90038
d4013a6a-8389-4d57-8738-88cce67412d3,2025-05-18 19:50:41.054755+00,Tower Beer & Wine,,Atlanta,GA,WHOLESALE CLUB,OFF,2161 Piedmont Rd NE,30324
d43af404-9821-4afd-9a5a-f1241086447e,2025-05-18 19:50:41.054755+00,MY WINE & SPIRITS,,POUGHKEEPSIE,NY,LIQUOR/PACKAGE STORE,OFF,1895 SOUTH RD,12601
d48f7334-20b4-4841-9fe1-34ea2a04c9e3,2025-05-18 19:50:41.054755+00,NYCWFF-ALEX G DINNER-FRIDAY,,NEW YORK,NY,OTHER OFF PREMISE,OFF,1100 AVENUE OF AMERICAS,10023
d4c1a76c-d9e0-46d1-89c7-2802efdbf8b0,2025-05-18 19:50:41.054755+00,KRISTA ADAMS,,Austell,GA,NON-RETAIL,OFF,685 Hartman Road,30168
d53430ec-307c-4341-8d31-a457e6bf7fe4,2025-05-18 19:50:41.054755+00,CUCINA 8 1/2,,NEW YORK,NY,RESTAURANT,ON,9 WEST 57TH ST,10019
d552be38-5631-4006-b7f3-c8c6c69d3191,2025-05-18 19:50:41.054755+00,REMEDY LIQUOR,,JAMAICA,NY,LIQUOR/PACKAGE STORE,OFF,138-44 101ST AVE,11435
d5777263-eb18-4d09-93bc-f57ff581bc84,2025-05-18 19:50:41.054755+00,MASHBILL WINE AND SPIRITS,,NEW YORK,NY,LIQUOR/PACKAGE STORE,OFF,24 AVENUE C,10009
d5885a7c-4788-42cb-ba74-a05fdcde4f53,2025-05-18 19:50:41.054755+00,JIMMY TWARDOS,,Austell,GA,NON-RETAIL,OFF,685 Hartman Road,30168
d5a940d0-4084-4139-ac61-75fb71a15e30,2025-05-18 19:50:41.054755+00,YAMA IZAKAYA SUSHI B,,PLANO,TX,RESTAURANT,ON,240 LEGACY DRIVE SUITE 100,75023
d60200b3-99b6-44bd-bfdc-3cd11909ecde,2025-05-18 19:50:41.054755+00,FUKUMOTO,,AUSTIN,TX,RESTAURANT,ON,514 MEDINA STREET,78702
d6664f24-c3a6-43a5-b045-190545b34a94,2025-05-18 19:50:41.054755+00,NATIVE SON ALEHOUSE,,SANTA ANA,CA,RESTAURANT,ON,305 E 4TH ST #200,92701
d67c8f16-2def-4feb-87ca-273624d022fa,2025-05-18 19:50:41.054755+00,Liquor Empire,,Pooler,GA,LIQUOR/PACKAGE STORE,OFF,1014 US Hwy 80 E,31322
d69dd0ba-7c95-43c9-9445-efbf5ac26278,2025-05-18 19:50:41.054755+00,W Atl Downtown/Destination****,,Atlanta,GA,HOTEL/ MOTEL,ON,45 Ivan Allen Jr Blvd NW,30308
d6d5dc98-10bf-41a8-b933-e5cce9a11e55,2025-05-18 19:50:41.054755+00,MONKS CELLAR,,ROSEVILLE,CA,BAR/TAVERN,ON,240 VERNON STREET,95678
d6efe096-ae35-4374-8a23-011927817c9c,2025-05-18 19:50:41.054755+00,CATCH STEAK,,ASPEN,CO,RESTAURANT,ON,204 SOUTH GALENA STREET,81611
d6f33b17-824f-4ddd-93c5-f695d3258dc0,2025-05-18 19:50:41.054755+00,SWEET WATERS LIQUOR,,EAGLE,CO,LIQUOR/PACKAGE STORE,OFF,701 CHAMBERS AVE,81631
d72e11f2-6b03-49c3-93b9-538a69dfd911,2025-05-18 19:50:41.054755+00,Om Kesari Inc,,Gainesville,GA,LIQUOR/PACKAGE STORE,OFF,1230 Dawsonville Hwy,30501
d7510db7-8aa1-4ad4-a447-35bce867ab5a,2025-05-18 19:50:41.054755+00,Ajax Liquor,,Atlanta,GA,LIQUOR/PACKAGE STORE,OFF,1005 Chattahoochee Ave,30318
d7ef8e3b-bdc2-44d5-9800-3babdf5ca9ad,2025-05-18 19:50:41.054755+00,MIDNIGHT THEATRE/ HIDDEN L,,NEW YORK,NY,GOLF/ COUNTRY CLUB,ON,442 W 33RD ST,10001
d861b5b3-c1f5-47aa-b350-c0dd644ba803,2025-05-18 19:50:41.054755+00,Browns Package Store,,Gainesville,GA,LIQUOR/PACKAGE STORE,OFF,2896 Browns Bridge Rd,30504
d8751112-6b2e-4ae5-bda6-6e5869da64de,2025-05-18 19:50:41.054755+00,SAKE SECRET,,LONG BEACH,CA,BAR/TAVERN,ON,460 PINE AVE,90802
d8828241-c535-4887-8ae2-0955fdfe8a6b,2025-05-18 19:50:41.054755+00,Captain s Liquor and Wine,,Roswell,GA,LIQUOR/PACKAGE STORE,OFF,10971 Crabapple Rd Ste 1100,30075
d8856924-8e27-4c56-a983-95e4ca8f3234,2025-05-18 19:50:41.054755+00,Hops  Grains & Vine (GHOMST),,Marietta,GA,LIQUOR/PACKAGE STORE,OFF,3997 Dallas Hwy SW #600,30064
d8d44e65-9081-463f-b5b2-96f8cd3a62cd,2025-05-18 19:50:41.054755+00,Pooler Spirits Warehouse,,Pooler,GA,LIQUOR/PACKAGE STORE,OFF,1032 US Highway 80 W,31322
d92c5d1b-0ca6-46da-a683-955ffcf24f7e,2025-05-18 19:50:41.054755+00,SHARON CROSSING BEVERAGE,,Cumming,GA,LIQUOR/PACKAGE STORE,OFF,1465 Peachtree Parkway STE B2 & B3,30041
d9423ccf-db85-4b89-9a06-3b13865824b3,2025-05-18 19:50:41.054755+00,POOL & GRILL,,NEW YORK,NY,RESTAURANT,ON,99 E 52ND ST,10152
d963f760-1f66-484a-a2a3-44d3628e04a7,2025-05-18 19:50:41.054755+00,LEE S LIQUOR #20 HORIZON RIDGE,,HENDERSON,NV,LIQUOR/PACKAGE STORE,OFF,1450 W HORIZON RIDGE PKWY -415,89012
d970354f-9219-4a70-b4f7-490c11e5b5bf,2025-05-18 19:50:41.054755+00,JONATHAN S LANDING GOLF,,JUPITER,FL,GOLF/ COUNTRY CLUB,ON,16823 CAPTAIN KIRLE DR,33477
d9a1905d-6229-48f2-a049-ab39bff685c0,2025-05-18 19:50:41.054755+00,Two Guys Food Mart,,Statesboro,GA,CONVENIENCE/ GAS,OFF,Ste 410 520 Fair Rd,30458
d9a43c51-bf63-438d-b23c-a661537eb72c,2025-05-18 19:50:41.054755+00,THE PRIZEFIGHTER,,EMERYVILLE,CA,BAR/TAVERN,ON,6702 HOLLIS ST,94608
d9f4b3ef-b527-45c7-82bc-e0da0979bbbf,2025-05-18 19:50:41.054755+00,ENGINEER S COUNTRY CLUB,,ROSLYN,NY,GOLF/ COUNTRY CLUB,ON,55 GLENWOOD RD,11576
d9fb45e7-0e0d-436a-808c-92c84408e52c,2025-05-18 19:50:41.054755+00,ROBERT S OF PORTOLA VALLEY,,PORTOLA VALLEY,CA,SUPERMARKET,OFF,4420 ALPINE RD,94028
da11c3f3-2aa8-4263-8fb0-5fc1c8855b9e,2025-05-18 19:50:41.054755+00,Christopher Dean,,Austell,GA,NON-RETAIL,OFF,685 Hartman Rd,30168
da8b0e29-6b88-46d4-a0cb-c37c1442071b,2025-05-18 19:50:41.054755+00,Atlanta Hilton (Around the World),,Atlanta,GA,HOTEL/ MOTEL,ON,255 Courtland St NE,30303
dad74366-9136-4f0e-acb3-d3bc4d9abbd7,2025-05-18 19:50:41.054755+00,RUSTIC HOUSE,,LOS ALTOS,CA,RESTAURANT,ON,295 MAIN ST,94022
dae0359a-78c1-4722-9ef3-63e40523aa43,2025-05-18 19:50:41.054755+00,NEIGHBORHOOD WINE,,FORT WORTH,TX,BAR/TAVERN,ON,1257 W MAGNOLIA AVE,76104
db036f13-1596-40ea-91bb-0b2f9f20ed90,2025-05-18 19:50:41.054755+00,BLANCHARD S LIQUORS - REVERE,,REVERE,MA,LIQUOR/PACKAGE STORE,OFF,286 AMERICAN LEGION HWY,02151
db11b5ca-7017-427c-964b-f92d9263c780,2025-05-18 19:50:41.054755+00,SAMPLE REP JASON SHUFFLER,,SYOSSET,NY,OTHER OFF PREMISE,OFF,W/HOUSE PICK-UP,11791
db8e8e73-0fcf-4513-840e-699173f747f8,2025-05-18 19:50:41.054755+00,FANCY FREE LIQUOR,,BURBANK,CA,LIQUOR/PACKAGE STORE,OFF,2001 W BURBANK BL,91506
dba7e57d-d9c2-40d8-a703-30384026ba39,2025-05-18 19:50:41.054755+00,WILFRED S LOUNGE,,NAPA,CA,RESTAURANT,ON,967 1ST ST,94559
dba94614-1165-4255-a271-b18825a36625,2025-05-18 19:50:41.054755+00,HUNTERS RUN,,BOYNTON BEACH,FL,GOLF/ COUNTRY CLUB,ON,3500 CLUBHOUSE LN,33425
dbd228e3-2d63-42e7-aac3-2a0c7908bb54,2025-05-18 19:50:41.054755+00,ROXYS SPIRITS,,ASPEN,CO,SUPERMARKET,OFF,119 ASPEN AIRPORT BUSINESS,81611
dbe0d392-9a6d-4bb3-b1e3-ba37bd44df3f,2025-05-18 19:50:41.054755+00,LEE S LIQUOR #16 BOCA,,LAS VEGAS,NV,LIQUOR/PACKAGE STORE,OFF,780 S RAMPART,89145
dc47e5e0-0cae-42c1-a6d7-f071dfe32a20,2025-05-18 19:50:41.054755+00,QUENCH LIQUORS INC,,PATCHOGUE,NY,LIQUOR/PACKAGE STORE,OFF,217 WAVERLY AVE,11772
dc576d14-d5ac-41f5-8cfd-1d6d70bfa6a5,2025-05-18 19:50:41.054755+00,RED HILL LIQUOR,,ORANGE,CA,LIQUOR/PACKAGE STORE,OFF,3302 E CHAPMAN AV,92869
dc7730ff-74a5-4114-a809-3d624e78cb08,2025-05-18 19:50:41.054755+00,AVANTI F&B,,VAIL,CO,OTHER OFF PREMISE,OFF,458 VAIL VALLEY DRIVE UNIT C-5,81657
dcb36bfa-faad-4265-951a-254de17ce464,2025-05-18 19:50:41.054755+00,MILAM S MARKET #7,,PINECREST POSTAL STO,FL,SUPERMARKET,OFF,11701 SOUTH DIXIE HWY,33156
dd134b88-0e06-46c5-bf8f-e429ef6cd4b7,2025-05-18 19:50:41.054755+00,Mableton Bottle Shop,,Mableton,GA,LIQUOR/PACKAGE STORE,OFF,757 Veterans Memorial Hwy SW,30126
dd49f426-b3e4-42cf-8a07-bc72e400ebf0,2025-05-18 19:50:41.054755+00,MOLLIE ASPEN,,ASPEN,CO,HOTEL/ MOTEL,ON,111 SOUTH GARMISCH STREET,81611
dd5800a9-04c0-477f-92f0-36f8989de3c0,2025-05-18 19:50:41.054755+00,CELLA RESTAURANT AND BAR,,MONTEREY,CA,RESTAURANT,ON,525 POLK STREET,93940
dd8883ce-ece3-44df-a0f8-6de7dc7963c4,2025-05-18 19:50:41.054755+00,SAMPLE REP MICHAEL STROHL,,SYOSSET,NY,OTHER OFF PREMISE,OFF,W/HOUSE PICK-UP,11791
ddabda8f-6df2-4691-8478-6d57e23c11c1,2025-05-18 19:50:41.054755+00,MOUNTAIN MOON SHINE,,IDAHO SPRINGS,CO,LIQUOR/PACKAGE STORE,OFF,2812 COLORADO BLVD,80452
ddea104c-4559-4051-aa8d-6bb780a0ce64,2025-05-18 19:50:41.054755+00,FRENCHIES BAR,,PALM SPRINGS,FL,BAR/TAVERN,ON,3476 2ND AVE.  NORTH,33461
ddfa0f0f-9de1-49f0-9b02-82ffe8c1e789,2025-05-18 19:50:41.054755+00,ASIAN MINT B,,ADDISON,TX,RESTAURANT,ON,5290 BELT LINE ROAD STE 118,75254
de0a7da7-d06d-482b-b636-4f80a1c4dcc7,2025-05-18 19:50:41.054755+00,NAPKINS BAR & GRILL,,NAPA,CA,RESTAURANT,ON,1001 2ND ST,94559
de1d160c-9c62-4557-a177-7134f8cca34d,2025-05-18 19:50:41.054755+00,SUNNY S WINE & SPIRITS,,NEW YORK,NY,LIQUOR/PACKAGE STORE,OFF,161 3RD AVE,10003
de6371ac-7386-4e71-9a39-7db486d22600,2025-05-18 19:50:41.054755+00,ROCKER OYSTERFELLERS,,VALLEY FORD,CA,RESTAURANT,ON,14415 HWY 1,94972
df08dd51-2673-4f14-97da-6db8d17b4033,2025-05-18 19:50:41.054755+00,SPEC S 053 WINE MAIN,,SPRING VALLEY,TX,LIQUOR/PACKAGE STORE,OFF,8416 KATY FREEWAY,77024
df184449-6731-422c-b26f-8a61ff947f12,2025-05-18 19:50:41.054755+00,ANGIE S WINES & SPIRITS,,MAMARONECK,NY,LIQUOR/PACKAGE STORE,OFF,329 MAMARONECK AVE,10543
df1d0635-d2df-4af5-b8eb-bb822b5255bb,2025-05-18 19:50:41.054755+00,OZUMO,,SAN JOSE,CA,RESTAURANT,ON,355 SANTANA ROW #1010,95128
df24d500-669d-45ea-8561-06a9b5478d8e,2025-05-18 19:50:41.054755+00,N AMO,,MONTAUK,NY,RESTAURANT,ON,474 W LAKE DR,11954
df4bb96e-232e-4bbd-9ee2-b5182c9fa08a,2025-05-18 19:50:41.054755+00,Beverage Haven,,Atlanta,GA,LIQUOR/PACKAGE STORE,OFF,2014 Powers Ferry Rd SE Ste 500,30339
df776da7-c711-42cd-9bb4-6ae564d7a34b,2025-05-18 19:50:41.054755+00,Robert Labartino,,Austell,GA,NON-RETAIL,OFF,685 Hartman Road,30168
df8cc4e6-cf8d-4ec9-89dc-6374427407b7,2025-05-18 19:50:41.054755+00,MCNEAR S RSTR & BAR,,PETALUMA,CA,RESTAURANT,ON,21-23 PETALUMA BLVD N,94952
dfe954c4-994b-4bd5-a510-dd6fe07df016,2025-05-18 19:50:41.054755+00,TORO,,CARMEL,CA,RESTAURANT,ON,5 S/E OF DOLORESE & 5TH ST,93921
e00a172c-09a9-4af6-a7ea-0d23bc33166a,2025-05-18 19:50:41.054755+00,CAMBRIDGE SPIRITS,,CAMBRIDGE,MA,LIQUOR/PACKAGE STORE,OFF,250 KENDALL ST,02142
e012998c-f4f8-474c-8727-7e770e9ee898,2025-05-18 19:50:41.054755+00,ROOSEVELT,,DENVER,CO,RESTAURANT,ON,1512 LARIMER ST UNIT 29R,80202
e03dc593-ec39-4244-81b2-59495d108944,2025-05-18 19:50:41.054755+00,Chapel Hill Package,,Douglasville,GA,LIQUOR/PACKAGE STORE,OFF,2981 Chapel Hill Rd,30135
e078246b-2588-4bec-9755-2a41fe8c537b,2025-05-18 19:50:41.054755+00,H Mart Doraville Inc,,Doraville,GA,CONVENIENCE/ GAS,OFF,6035 Peachtree Rd,30360
e08da37f-9ea1-460d-9dc9-9ece41f47d07,2025-05-18 19:50:41.054755+00,Party Liquor,,Calhoun,GA,LIQUOR/PACKAGE STORE,OFF,101 Williams Street,30701
e091cc10-f497-4222-8192-81133c8d2928,2025-05-18 19:50:41.054755+00,OYSTER HOUSE,,STUDIO CITY,CA,BAR/TAVERN,ON,12446 MOORPARK ST,91604
e0ccb419-a23a-420a-bd99-ed8058b37282,2025-05-18 19:50:41.054755+00,SIX CORNERS,,WESTHAMPTON BEACH,NY,LIQUOR/PACKAGE STORE,OFF,166 MILL RD,11978
e0eec6a7-63cc-46f6-8db7-e77e8745c557,2025-05-18 19:50:41.054755+00,SOBE- A SUSHI OMAKASE COLLECTI,,MIAMI,FL,OTHER ON PREMISE,ON,2105 N MIAMI AVENUE,33127
e1292c2c-bc61-4613-a82f-4e396762434f,2025-05-18 19:50:41.054755+00,DE LUCA S MARKET INC,,BOSTON,MA,LIQUOR/PACKAGE STORE,OFF,11 CHARLES ST,02114
e1417a30-1623-481d-b7cf-fc3c4284c784,2025-05-18 19:50:41.054755+00,BASECAMP WINE AND SPIRITS,,FRISCO,CO,LIQUOR/PACKAGE STORE,OFF,223 LUSHER CT UNIT 1,80443
e1478264-1f88-49cf-b564-3458de845eef,2025-05-18 19:50:41.054755+00,YUJO,,DALLAS,TX,RESTAURANT,ON,12835 PRESTON RD SUITE 216,75230
e14aef78-b31f-4886-b670-b5526ea2132a,2025-05-18 19:50:41.054755+00,HD 200 PARK LLC,,NEW YORK,NY,OTHER OFF PREMISE,OFF,200 PARK AVE,10166
e1c148ad-a08d-40c3-9d24-3c775315ea4e,2025-05-18 19:50:41.054755+00,LIQUOR UP & WINE DOWN,,NEW YORK,NY,LIQUOR/PACKAGE STORE,OFF,383 1ST AVE,10010
e21cb009-938f-47e0-affe-90a79d998c46,2025-05-18 19:50:41.054755+00,EVELYN HOTEL,,NEW YORK,NY,HOTEL/ MOTEL,ON,4 E 28TH STREET - BASEMENT DEL,10016
e23732fd-ba81-4451-ba64-a66130dfb1c5,2025-05-18 19:50:41.054755+00,CENTRAL PERK WINE & SPIRITS IN,,NEW YORK,NY,LIQUOR/PACKAGE STORE,OFF,1420 6TH AVENUE,10019
e25f94fe-ccbc-4f29-bb66-69ba5de4ddea,2025-05-18 19:50:41.054755+00,White Horse Wine & Spirits,,Augusta,GA,LIQUOR/PACKAGE STORE,OFF,497 Highland Ave,30909
e26deb58-e82c-43ea-89bf-a8d8ff9e0711,2025-05-18 19:50:41.054755+00,YES ORGANIC MARKET,,WASHINGTON,DC,SUPERMARKET,OFF,410 8TH ST SE,20003
e2718d4a-9f35-4aaa-a1ab-f15161740faa,2025-05-18 19:50:41.054755+00,Kani House Japanese Restaurant,,Duluth,GA,RESTAURANT,ON,10820 Abbotts Bridge Rd Ste 4000,30097
e2b457b2-2731-4d5e-afd9-8b7b4e63170c,2025-05-18 19:50:41.054755+00,VICTORIA S PISCO LOUNGE,,LAKE WORTH,FL,RESTAURANT,ON,806 LAKE WORTH AVE,33460
e2f40dec-5346-411a-b4c9-bad1afb66829,2025-05-18 19:50:41.054755+00,SHOWCASE WINE & SPIRITS,,PASADENA,CA,LIQUOR/PACKAGE STORE,OFF,1390-92 N LAKE AV,91104
e2fdccbe-85ee-4ecd-8331-2f739b47bb23,2025-05-18 19:50:41.054755+00,PINK DOT,,WEST HOLLYWOOD,CA,SUPERMARKET,OFF,8495 SUNSET BL,90069
e3112f0b-24dc-466b-b63e-6fccbbddef98,2025-05-18 19:50:41.054755+00,TEAM #009 CHO,,CERRITOS,CA,OTHER OFF PREMISE,OFF,17101 VALLEY VIEW AV,90703
e352352a-eb20-489a-ba6b-54886293376a,2025-05-18 19:50:41.054755+00,CHUBBY CATTLE,,LAS VEGAS,NV,RESTAURANT,ON,4525 SPRING MOUNTAIN RD STE106,89102
e362326c-f0fc-4d5a-a514-04fc6e126a2d,2025-05-18 19:50:41.054755+00,SAKE ONE,,FOREST GROVE,OR,OTHER ON PREMISE,ON,820 ELM STREET,97116
e36a9b22-60b7-4f37-8df3-5c0dd1574a53,2025-05-18 19:50:41.054755+00,305 WINES LLC,,MIAMI,FL,LIQUOR/PACKAGE STORE,OFF,8233 S DIXIE HIGHWAY,33143
e3f92a17-8c1d-4b48-a311-e3ff59ab2e26,2025-05-18 19:50:41.054755+00,Duluth Beverage Locker,,Duluth,GA,LIQUOR/PACKAGE STORE,OFF,Ste C 3576 Buford Highway,30096
e4182272-1864-4eb4-93c2-ccf9884a8552,2025-05-18 19:50:41.054755+00,YUJO,,CARROLLTON,TX,RESTAURANT,ON,2626 N JOSEY LN STE 107,75007
e4a0788f-c5cb-48d1-9c32-8f28db49c59e,2025-05-18 19:50:41.054755+00,MEZCAL GRILL,,SACRAMENTO,CA,RESTAURANT,ON,5701 BROADWAY STE B,95820
e4ca2ad6-5ad5-408d-9d5d-99342e1524cc,2025-05-18 19:50:41.054755+00,Global Beverage Superstore,,Lagrange,GA,LIQUOR/PACKAGE STORE,OFF,2157 West Point Rd,30240
e4e28ab9-f608-412c-b5cc-1fbd8f78879b,2025-05-18 19:50:41.054755+00,HANDY LIQUOR,,SAN DIEGO,CA,LIQUOR/PACKAGE STORE,OFF,3001 ADAMS AVE,92116
e4e7bc85-afd3-413c-b04e-ad3a08c80948,2025-05-18 19:50:41.054755+00,SALUTE MARKET,,PALM BEACH GARDENS,FL,LIQUOR/PACKAGE STORE,OFF,5530 PGA BLVD,33410
e50f61c9-5419-4cb8-83b7-a7b820686f22,2025-05-18 19:50:41.054755+00,BREW S BROTHERS BREW PUB,,BURBANK,CA,BAR/TAVERN,ON,3000 W OLIVE AV,91505
e5692ba9-de24-4b0c-a48a-2d52f8aa1e82,2025-05-18 19:50:41.054755+00,RITZ CARLTON HOTEL COMPANY,,NEW YORK,NY,HOTEL/ MOTEL,ON,1185 BROADWAY,10001
e5778805-1683-47a3-a691-4373470e6ca5,2025-05-18 19:50:41.054755+00,KAORI MIAMI,,MIAMI,FL,RESTAURANT,ON,871 S MIAMI AVE,33130
e58c5121-fcdb-4f60-ba27-4355a9f86942,2025-05-18 19:50:41.054755+00,LIGHTHOUSE,,BROOKLYN,NY,RESTAURANT,ON,145 BORINQUEN PLACE,11211
e5e50a86-bda9-4a93-9212-3142235761e3,2025-05-18 19:50:41.054755+00,Sol s Liquor,,Atlanta,GA,LIQUOR/PACKAGE STORE,OFF,186 Courtland St NE,30303
e61a9fd0-6b85-4876-abe6-35bfc7c6b559,2025-05-18 19:50:41.054755+00,SAMPLE NICHOLAS SLATER,,SYOSSET,NY,OTHER OFF PREMISE,OFF,W/HOUSE PICK-UP,11791
e656bace-1e2c-4dc2-a93e-a357130899bd,2025-05-18 19:50:41.054755+00,HEB CENTRAL MARKET 491,,HOUSTON,TX,SUPERMARKET,OFF,3815 WESTHEIMER,77027
e66a0e18-18af-4fe5-bf49-5066abdaee38,2025-05-18 19:50:41.054755+00,JOHN ROBERT HAYNES,,Austell,GA,NON-RETAIL,OFF,685 Hartman Road,30168
e67df56f-57e0-4021-adee-3389f6fb2faa,2025-05-18 19:50:41.054755+00,NETCOST LIQUORS,,STATEN ISLAND,NY,LIQUOR/PACKAGE STORE,OFF,3161 AMBOY ROAD,10306
e6b8b02f-faf6-4fa5-9ed2-f12794de6007,2025-05-18 19:50:41.054755+00,BEVY S LIQUOR WORLD,,PARKER,CO,LIQUOR/PACKAGE STORE,OFF,9749 S PARKER RD,80134
e6bd65d4-d20f-4b70-94f3-afc872fe5fa8,2025-05-18 19:50:41.054755+00,NYCWFF-FRIED CHICKEN SUN.,,NEW YORK,NY,OTHER OFF PREMISE,OFF,225 LIBERTY STREET,10281
e6d8999e-3feb-4e36-a41b-fa36535b7d09,2025-05-18 19:50:41.054755+00,SAMPLE RYAN MOORE,,ALBANY,NY,OTHER OFF PREMISE,OFF,99 RAILROAD AVE,12205
e6f2c42f-07b2-460f-927f-223929dd9faa,2025-05-18 19:50:41.054755+00,LOVELY DAY,,NEW YORK,NY,RESTAURANT,ON,196 ELIZABETH ST,10010
e72f701a-daa3-4e61-87f9-71b432dbfcde,2025-05-18 19:50:41.054755+00,HAKKASAN - RESTAURANT @ MGM,,LAS VEGAS,NV,RESTAURANT,ON,3799 S LAS VEGAS BLVD,89109
e7886deb-0a5f-4274-a271-966b57d903ad,2025-05-18 19:50:41.054755+00,LIQUOR WORLD INSPIRADA ON PREM,,HENDERSON,NV,LIQUOR/PACKAGE STORE,OFF,2380 VIA INSPIRADA  STE 110,89044
e7b243b7-00ed-4f9f-b721-84650a60554c,2025-05-18 19:50:41.054755+00,The Kimpton Sylvan**CLOSED**,,Atlanta,GA,HOTEL/ MOTEL,ON,374 E Paces Ferry Rd NE,30305
e7bbccb9-7efb-4b70-8d26-83ecc6ba83d6,2025-05-18 19:50:41.054755+00,Fumi,,Duluth,GA,RESTAURANT,ON,3550 Mall Blvd,30096
e7c04b00-7181-4526-b851-50a326b79c8d,2025-05-18 19:50:41.054755+00,RIVIERA LIQUORS,,MIAMI BEACH,FL,LIQUOR/PACKAGE STORE,OFF,2401 COLLINS AVE,33140
e7c945d7-2e2f-4f50-a2e6-7a4a15af9023,2025-05-18 19:50:41.054755+00,Reliance Enterprises LLC,,Pooler,GA,LIQUOR/PACKAGE STORE,OFF,Ste 110 100 Zoya Lane,31322
e7c9c4eb-c858-47b6-8fb3-261e33e60f05,2025-05-18 19:50:41.054755+00,MIA MARKET,,MIAMI,FL,RESTAURANT,ON,140 NE 39 ST,33137
e7e591a6-a551-4738-aac1-af8b6e6739ee,2025-05-18 19:50:41.054755+00,Beverage Mart,,Acworth,GA,LIQUOR/PACKAGE STORE,OFF,3482 Cobb Pkwy NW,30101
e7ed5a88-0622-49b9-ba70-975145127aa4,2025-05-18 19:50:41.054755+00,J & J Beer Wine Liquor,,Stockbridge,GA,LIQUOR/PACKAGE STORE,OFF,1590 Hudson Bridge Rd,30281
e81f4b20-7d21-4c54-a7e9-341f7086bcf1,2025-05-18 19:50:41.054755+00,JAY S WINE & SPIRITS,,FALL RIVER,MA,LIQUOR/PACKAGE STORE,OFF,1702 PRESIDENT AVE,02720
e84d123d-0730-4924-95a2-a1650d3fe274,2025-05-18 19:50:41.054755+00,WEST HOLLYWOOD EDITION THE,,WEST HOLLYWOOD,CA,HOTEL/ MOTEL,ON,9040 SUNSET BLVD,90069
e874fd77-afed-4486-9ebc-f619b4831021,2025-05-18 19:50:41.054755+00,FRUITVALE LIQUORS,,GRAND JUNCTION,CO,LIQUOR/PACKAGE STORE,OFF,507 30 ROAD UNIT O,81504
e88cda1f-0f38-419c-a98b-d08555b0ad84,2025-05-18 19:50:41.054755+00,BALLERINA,,BAL HARBOUR,FL,GOLF/ COUNTRY CLUB,ON,10201 COLLINS AVENUE,33154
e8bc4a13-cc12-4ff0-8c85-96726407fc70,2025-05-18 19:50:41.054755+00,WATSON  SARAH,,AURORA,CO,OTHER OFF PREMISE,OFF,22800 E 19TH AVE,80019
e904d87d-51a5-4064-815c-4960acf2f0d1,2025-05-18 19:50:41.054755+00,OF GRAPE & GRAIN,,ASPEN,CO,LIQUOR/PACKAGE STORE,OFF,111 SOUTH MONARCH STREET,81611
e9413bbe-6a38-4617-b3b0-c903e6c137e4,2025-05-18 19:50:41.054755+00,ACQUALINA RESORT & SPA ON THE,,SUNNY ISLES BEACH,FL,HOTEL/ MOTEL,ON,17875 COLLINS AVENUE,33160
e9d731d9-c646-438b-ac63-13cd6f8c277f,2025-05-18 19:50:41.054755+00,Empire Package,,Atlanta,GA,LIQUOR/PACKAGE STORE,OFF,1046 Fayetteville Rd,30316
e9e0cfb9-ee4c-438b-99e1-f8af69766bca,2025-05-18 19:50:41.054755+00,EMPRESS M LLC,,NAPA,CA,RESTAURANT,ON,221 SILVERADO TRAIL,94559
e9f26d6d-5725-43d9-9dad-44035ca3ed61,2025-05-18 19:50:41.054755+00,BERGEN PARK LIQUORS,,EVERGREEN,CO,LIQUOR/PACKAGE STORE,OFF,1348 COUNTY ROAD 65,80439
e9fa5557-2262-4334-b7c9-d05dce09e94a,2025-05-18 19:50:41.054755+00,HAMPTONS PALM BEACH,,PALM BEACH,FL,LIQUOR/PACKAGE STORE,OFF,257-A ROYAL POINCIANA WAY,33480
ea29289b-c42f-46ea-9333-69473fb836da,2025-05-18 19:50:41.054755+00,AROI MAK MAK,,REDLANDS,CA,RESTAURANT,ON,344 ORANGE ST,92374
ea450edb-21cc-4c6a-801e-b546a2c97487,2025-05-18 19:50:41.054755+00,CAI S WINES & LIQUORS INC,,LITTLE NECK,NY,LIQUOR/PACKAGE STORE,OFF,254-23 NORTHERN BLVD,11362
eb78c107-3658-4974-9363-0bb0329f86ec,2025-05-18 19:50:41.054755+00,RIVERSIDE LIQUORS INC.,,NEW YORK,NY,LIQUOR/PACKAGE STORE,OFF,2728 BROADWAY,10025
ebc849b1-cb26-4b16-811c-2924060e610b,2025-05-18 19:50:41.054755+00,HENRY S LIQUOR STORE,,BORGER,TX,LIQUOR/PACKAGE STORE,OFF,324 WEATHERLY,79007
ebd4c927-d94c-4d72-8b1e-7534cceac70d,2025-05-18 19:50:41.054755+00,TEAM #041 BONAMIGO,,CERRITOS,CA,OTHER OFF PREMISE,OFF,17101 VALLEY VIEW AV,90703
ec30f934-262b-4a7e-b3e9-4137410cbfa7,2025-05-18 19:50:41.054755+00,Rose Finkelstein,,Austell,GA,NON-RETAIL,OFF,685 Hartman Road,30168
ec9a3b9c-af66-4b30-8f7a-91736f5559e2,2025-05-18 19:50:41.054755+00,KAPPY S FINE WINE & SPIRITS,,FITCHBURG,MA,LIQUOR/PACKAGE STORE,OFF,220 WHALON ST,01420
ecb5e00c-3099-4bec-b9ef-b8d396ba435e,2025-05-18 19:50:41.054755+00,MORI JAPANESE GRILL,,MCALLEN,TX,RESTAURANT,ON,2200 S 10TH STREET SPACE S25,78503
ecf62493-d5ad-4d3f-ab8c-ae69bc842c48,2025-05-18 19:50:41.054755+00,Verunihi LLC,,Pembroke,GA,LIQUOR/PACKAGE STORE,OFF,3991 Ga Hwy 67,31321
ed448f0c-5f37-40bf-95e8-1fe5f944e2c6,2025-05-18 19:50:41.054755+00,NYCWFF-JET TILA DINNER THURS.,,NEW YORK,NY,OTHER OFF PREMISE,OFF,20 SPRING STREET,10012
ed634cea-7a8f-44e7-bd56-0063677c6952,2025-05-18 19:50:41.054755+00,Jordan Mason,,Austell,GA,NON-RETAIL,OFF,685 Hartman Rd,30168
ed67068a-1b56-4e04-8392-8c9d04702c84,2025-05-18 19:50:41.054755+00,Thomas Feeney,,Austell,GA,NON-RETAIL,OFF,685 Hartman Road,30168
ede8f6bb-68f1-49da-b6b3-937b1a7a206d,2025-05-18 19:50:41.054755+00,FOUR DOGS FINE WINE & SPIRITS,,BASALT,CO,LIQUOR/PACKAGE STORE,OFF,350 REED ST STE 218,81621
ee1169ff-20b7-4141-b57d-59cc4b22e71c,2025-05-18 19:50:41.054755+00,Liquor Depot,,Glennville,GA,LIQUOR/PACKAGE STORE,OFF,903 N Veterans Blvd,30427
ee458fc8-58a9-44eb-921a-bbfeccf62042,2025-05-18 19:50:41.054755+00,LAFAYETTE & MARION,,MIAMI,FL,RESTAURANT,ON,1111 SW 1ST AVE,33131
ef8e502b-9a8f-4e90-a681-cf43f2e26067,2025-05-18 19:50:41.054755+00,DANNY S WINE AND SPIRITS,,SUDBURY,MA,LIQUOR/PACKAGE STORE,OFF,474 BOSTON POST ROAD,01776
efd85639-b9c7-4d1b-9c25-f6ade9b01c9f,2025-05-18 19:50:41.054755+00,Bullocks Wine & Spirits Whse,,Woodstock,GA,LIQUOR/PACKAGE STORE,OFF,1050 Buckhead Crossing,30189
f03d3418-9330-49d3-96a6-38efc7e9236b,2025-05-18 19:50:41.054755+00,Sake Ono,,Miami,FL,NON-RETAIL,OFF,1000 Brickell Ave STE 215,33131
f0773530-00e9-4347-8b19-8cd56ade051a,2025-05-18 19:50:41.054755+00,KAPPY S FINE WINE & SPIRITS,,MALDEN,MA,LIQUOR/PACKAGE STORE,OFF,325 BENNETT HWY,02148
f09d4dc5-56e0-4cf3-b1a4-efc2d37d897b,2025-05-18 19:50:41.054755+00,KAPPY S FINE WINE & SPIRITS,,DANVERS,MA,LIQUOR/PACKAGE STORE,OFF,158 ANDOVER ST,01923
f0a4d314-f22e-4243-b43b-da4830bafe0c,2025-05-18 19:50:41.054755+00,Out Of The Blue  Inc.,,Blue Ridge,GA,RESTAURANT,ON,647 E Main St,30513
f10d1489-c785-4cf7-9ac7-9ff825b66ef7,2025-05-18 19:50:41.054755+00,PINK STEAK,,WEST PALM BEACH,FL,RESTAURANT,ON,2777 S DIXIE HWY,33405
f138f6eb-2e1c-4061-9faa-cbef97caab41,2025-05-18 19:50:41.054755+00,ONE FISH RAW BAR,,CAMPBELL,CA,RESTAURANT,ON,193 E CAMPBELL AVE,95008
f15e934e-8af8-4ea2-a984-34ba9afa2791,2025-05-18 19:50:41.054755+00,TUSTIN WINE SPIRITS,,TUSTIN,CA,LIQUOR/PACKAGE STORE,OFF,14211 REDHILL AVE,92780
f19f7397-51e6-4efb-bd0c-143fab370332,2025-05-18 19:50:41.054755+00,Cumming Beverage Mart,,Cumming,GA,LIQUOR/PACKAGE STORE,OFF,1770 Buford Hwy Ste A,30041
f1b2fd07-2555-42fe-b3ea-cadf9405b76b,2025-05-18 19:50:41.054755+00,ARBARETUM AT NAPA VLLY DISTILL,,NAPA,CA,BAR/TAVERN,ON,1149 1ST STREET,94559
f1c5dd08-8aae-4512-8d4e-0a913febbe32,2025-05-18 19:50:41.054755+00,THE BINDERY  LTD,,DENVER,CO,RESTAURANT,ON,1817 CENTRAL STREET,80211
f1e768a3-bcb2-4579-b5c2-208917286254,2025-05-18 19:50:41.054755+00,YANN NURY NYC,,NEW YORK,NY,CONCESSIONAIRE,ON,598 BROADWAY,10012
f24b68af-1c45-4b8f-bcd1-b873ff1d7fb9,2025-05-18 19:50:41.054755+00,Rusty Barrel,,Marietta,GA,RESTAURANT,ON,138 Powers Ferry Rd SE,30067
f24dee08-724e-4433-b703-ff19c91ab815,2025-05-18 19:50:41.054755+00,CIRCA RESORT & CASINO,,LAS VEGAS,NV,GOLF/ COUNTRY CLUB,ON,8 FREMONT ST,89101
f26f302f-352f-4fa0-8812-579bd3fa8828,2025-05-18 19:50:41.054755+00,SPEC S 150 WINE MAIN,,DALLAS,TX,LIQUOR/PACKAGE STORE,OFF,9500 N CENT EXPRESSWAY STE 200,75231
f2752b6c-7f67-4cd7-be80-ab96a665aa69,2025-05-18 19:50:41.054755+00,SHOJOS DOJO INC,,MIAMI,FL,BAR/TAVERN,ON,4233 SW 75 AVE,33155
f28da20d-d4d6-4e7f-b047-fce9ee1a93ed,2025-05-18 19:50:41.054755+00,SPRINGS LIQUOR OUTLET,,COLORADO SPRINGS,CO,LIQUOR/PACKAGE STORE,OFF,6010 NORTH CAREFREE CIRCLE,80922
f35f462a-0f43-46b8-a7a6-c709662fdfb5,2025-05-18 19:50:41.054755+00,NIGHT ON EARTH,,LOS ANGELES,CA,BAR/TAVERN,ON,3256 CAHUENGA BLVD W,90068
f3fe30af-02c0-4a46-8266-47b24ae1d98f,2025-05-18 19:50:41.054755+00,FIDDLEHEAD BISTRO  THE,,SARANAC LAKE,NY,RESTAURANT,ON,33 BROADWAY,12983
f463f667-a6e0-4698-b5c1-c1e1aa5a8fb7,2025-05-18 19:50:41.054755+00,55TH STREET LIQUORS,,NEW YORK,NY,LIQUOR/PACKAGE STORE,OFF,50 WEST 55 ST,10019
f48cf3c7-4daa-40e0-ac2e-7586d6c018d4,2025-05-18 19:50:41.054755+00,ETARU HALLANDALE BEACH,,HALLANDALE,FL,RESTAURANT,ON,111 SURF RD,33009
f4b22dcc-c287-4458-a66d-4b7d4da44947,2025-05-18 19:50:41.054755+00,COOKS CHAPEL,,ANAHEIM,CA,CONCESSIONAIRE,ON,440 S ANAHEIM BLVD  UNIT 112,92805
f4fcee03-b29f-42e9-8631-d84b5a8b2b20,2025-05-18 19:50:41.054755+00,Perfecture Japanese Steakhouse,,Atlanta,GA,RESTAURANT,ON,2277 Peachtree Rd NE Ste A,30309
f5461b00-a2ac-4fe5-891f-437c00a26d0c,2025-05-18 19:50:41.054755+00,LIQUOR TOWN,,S HADLEY,MA,LIQUOR/PACKAGE STORE,OFF,506 GRANBY RD,01075
f56426c6-260d-4c96-a34d-0d9d00bfd20b,2025-05-18 19:50:41.054755+00,JJANGA STEAK & SUSHI,,LAS VEGAS,NV,RESTAURANT,ON,6125 S FORT APACHE RD #200,89148
f568090e-b331-4eab-a87c-c7a6ed079cae,2025-05-18 19:50:41.054755+00,SAMPLE REP SHASTA HAMILTON,,SYOSSET,NY,OTHER OFF PREMISE,OFF,W/HOUSE PICK-UP,11791
f65e5616-9f9d-4a32-bf68-08cd1c491d3c,2025-05-18 19:50:41.054755+00,JEFFREYS RESTAURANT & BAR,,AUSTIN,TX,RESTAURANT,ON,1204 W LYNN ST INCLUDING 1601,78703
f67ceb73-b604-4fcd-9cf0-c8038945ed98,2025-05-18 19:50:41.054755+00,KAPPY S FINE WINE & SPIRITS FA,,FALMOUTH,MA,LIQUOR/PACKAGE STORE,OFF,21 SPRING ST,02540
f734f901-aa71-49a2-bd09-3c4122b2db2f,2025-05-18 19:50:41.054755+00,ULTREIA,,DENVER,CO,RESTAURANT,ON,1701 WYNKOOP STREET SUITE 125,80202
f7474960-fde1-4382-9d3e-067bddc14c2e,2025-05-18 19:50:41.054755+00,K & L (WINE),,REDWOOD CITY,CA,LIQUOR/PACKAGE STORE,OFF,3005 EL CAMINO REAL,94061
f7d4f8b9-7064-482b-b91a-ab262a60c8d1,2025-05-18 19:50:41.054755+00,KA THAI NORTH DALLAS,,DALLAS,TX,RESTAURANT,ON,6859 ARAPAHO RD STE 601,75248
f82ca8ba-e852-42e2-9656-b6deae3364e6,2025-05-18 19:50:41.054755+00,VALLEY LIQUOR,,VENTURA,CA,LIQUOR/PACKAGE STORE,OFF,2973 LOMA VISTA RD,93003
f8c561bc-acfc-46f6-ac1b-2ca1353290f3,2025-05-18 19:50:41.054755+00,Beyond Water Wine & Spirits,,Lithia Springs,GA,LIQUOR/PACKAGE STORE,OFF,991 Thornton Rd,30122
f8e4af32-50ea-4dab-b105-d69bce6e43f3,2025-05-18 19:50:41.054755+00,BROKEN SOUND CLUB,,BOCA RATON,FL,GOLF/ COUNTRY CLUB,ON,2401 WILLOW SPRING DR.,33496
f92f0daa-ddce-47ad-bc3e-301c43302de1,2025-05-18 19:50:41.054755+00,Craft & Art,,Miami,FL,NON-RETAIL,OFF,1000 Brickell Ave STE 215,33131
f9483d8d-bf1f-4953-9ab4-cf1a6e0ba70c,2025-05-18 19:50:41.054755+00,RISTORANTE SANTUCCI,,WEST PALM BEACH,FL,RESTAURANT,ON,610 CLEMATIS ST,33401
f9d3b5ab-528e-4950-bf64-69d651576e33,2025-05-18 19:50:41.054755+00,Ridgewalk Bottle Shop,,Woodstock,GA,LIQUOR/PACKAGE STORE,OFF,311 Ridgewalk Parkway,30188
fa814dad-5d8a-4b0a-bbf8-a1e2ae4552ee,2025-05-18 19:50:41.054755+00,9783 UNCLASSIFIED ACCOUNT,,Sparks,NV,UNASSIGNED,,960 United Cir,89431
faee760a-4ef4-41f0-b0f0-011d26b4096f,2025-05-18 19:50:41.054755+00,THE GINGER PIG,,DENVER,CO,RESTAURANT,ON,4262 LOWELL BLVD,80211
fb0517b0-db06-4d67-a031-fbbb6a159817,2025-05-18 19:50:41.054755+00,J. R Crickets,,Union City,GA,RESTAURANT,ON,4550 Jonesboro Rd Ste C,30291
fb215ac4-558d-4ba9-9575-3fba8725b425,2025-05-18 19:50:41.054755+00,OUTER HEAVEN,,NEW YORK,NY,BAR/TAVERN,ON,191 CHRYSTIE ST,10002
fb530a00-7cff-4168-a263-a8dca2e4b592,2025-05-18 19:50:41.054755+00,Top Shot Package Store,,Fayetteville,GA,LIQUOR/PACKAGE STORE,OFF,320 Hwy 314,30214
fb7be291-fa42-4510-b5b2-505965f84b48,2025-05-18 19:50:41.054755+00,Church,,Atlanta,GA,RESTAURANT,ON,466 Edgewood Ave SE Bldg 466,30312
fb85f460-ca6e-4f5d-b0b2-460fbca78c54,2025-05-18 19:50:41.054755+00,Beer & Wine Package Store,,Atlanta,GA,LIQUOR/PACKAGE STORE,OFF,5039 Buford Hwy,30341
fbd2e36f-85ec-46dd-9029-9b03294769bd,2025-05-18 19:50:41.054755+00,BLIND RABBIT,,ANAHEIM,CA,BAR/TAVERN,ON,440 S ANAHEIM BLVD  UNIT 104,92805
fc53ccb5-cb96-43ae-8203-bd877a505e2d,2025-05-18 19:50:41.054755+00,AQUA,,NEW YORK,NY,RESTAURANT,ON,902 BROADWAY,10010
fc8070a0-b9ef-4f39-8b29-c430cb975169,2025-05-18 19:50:41.054755+00,NAPA CIGARS,,NAPA,CA,BAR/TAVERN,ON,1147 1ST ST,94559
fd67db6c-3a01-4366-8755-49f48b6f043d,2025-05-18 19:50:41.054755+00,Bottoms Up Beverages,,Johns Creek,GA,LIQUOR/PACKAGE STORE,OFF,11950 Jones Bridge Rd Ste 113,30005
fd6fee82-325a-47ed-a201-c5bf75481e0b,2025-05-18 19:50:41.054755+00,HOOCH,,ASPEN,CO,BAR/TAVERN,ON,301 E HOPKINS AVE SUITE 102,81611
fde7090d-c4e5-4678-a906-dcc821dd184f,2025-05-18 19:50:41.054755+00,LEE S LIQUOR #10 WARM SPRINGS,,LAS VEGAS,NV,LIQUOR/PACKAGE STORE,OFF,8785 W WARM SPRINGS RD,89148
fde741ed-185a-450b-bb3a-5fa05035226b,2025-05-18 19:50:41.054755+00,LOCKED BARREL,,SACRAMENTO,CA,BAR/TAVERN,ON,921 11TH STREET #A,95814
fe0543a1-1128-427f-85ad-a5d8e11ba971,2025-05-18 19:50:41.054755+00,Garrison Wood,,Austell,GA,NON-RETAIL,OFF,685 Hartman Rd,30168
fe652a8e-54bd-4030-9a49-7c026f6e6a9a,2025-05-18 19:50:41.054755+00,ASPEN PUBLIC HOUSE,,ASPEN,CO,RESTAURANT,ON,328 EAST HYMAN AVENUE,81611
fe70b0df-4e4c-4feb-84bf-5c288d4cd504,2025-05-18 19:50:41.054755+00,AZUL SPIRITS & WINE (ON),,MIAMI BEACH,FL,LIQUOR/PACKAGE STORE,OFF,1414 20TH STREET  #1412-1414,33139
fe98fca4-d271-44f7-9370-6acb917852a5,2025-05-18 19:50:41.054755+00,HUSH KELLER INC,,KELLER,TX,RESTAURANT,ON,211 S MAIN ST,76248
fef023f4-1e26-4cd4-8348-a97e359bd74e,2025-05-18 19:50:41.054755+00,SCHUMER S WINES & LIQUORS,,NEW YORK,NY,LIQUOR/PACKAGE STORE,OFF,59 E 54TH ST,10022
ff330793-9f36-4a17-9143-c2af0a729a87,2025-05-18 19:50:41.054755+00,SAKE ONO/PARK STREET IMP- SAMP,,DALLAS,TX,OTHER ON PREMISE,ON,5286 PO BX 660367,75266
ff423977-f0e7-4254-88a2-aff51cf20345,2025-05-18 19:50:41.054755+00,Q HOUSE,,DENVER,CO,RESTAURANT,ON,3421 E COLFAX AVE,80206
ff761e22-5bd8-49ce-b86b-3838a94b60e0,2025-05-18 19:50:41.054755+00,DRIFTWOOD DOWNTOWN,,AUSTIN,TX,BAR/TAVERN,ON,319 COLORADO STREET,78701